{
"type": "FeatureCollection",
"name": "iddesa_3506150011",
"crs": { "type": "name", "properties": { "name": "urn:ogc:def:crs:OGC:1.3:CRS84" } },
"features": [
{ "type": "Feature", "properties": { "fid": 7004, "kk": null, "gid": 0.0, "bstt": null, "luas": 13936.611605318421, "bsbtt": null, "idsls": "35061500110016", "kdkab": "06", "kdkec": "150", "kdsls": "0016", "nmkab": "KEDIRI", "nmkec": "KUNJANG", "nmsls": "RT 014 RW 006 DUSUN MADUH", "bstt_k": null, "kddesa": "011", "kdprov": "35", "khusus": null, "muatan": null, "nmdesa": "PAKIS", "nmprov": "JAWA TIMUR", "posisi": null, "rw_dki": null, "segmen": null, "subsls": null, "sumber": null, "dom_sls": null, "periode": "2025_1", "tingkat": null, "idsubsls": "3506150011001600", "nm_gedung": null, "wil_campur": null, "iddesa": "3506150011", "kdsubsls": "00" }, "geometry": { "type": "MultiPolygon", "coordinates": [ [ [ [ 112.174127373000033, -7.64209752599993 ], [ 112.174050689000069, -7.642080143999976 ], [ 112.174116126000058, -7.641837823999936 ], [ 112.173937040000055, -7.641740511999956 ], [ 112.173699221000106, -7.64166150799997 ], [ 112.173860784000112, -7.641146220999929 ], [ 112.173888136000073, -7.641149348999932 ], [ 112.174014372000102, -7.640753149999966 ], [ 112.17414437900004, -7.640393758999949 ], [ 112.174363588, -7.639787779999949 ], [ 112.174363626000059, -7.639787672999944 ], [ 112.174772499000028, -7.639966598999933 ], [ 112.174423589000071, -7.640860540999938 ], [ 112.174424318000092, -7.640860767999925 ], [ 112.174403077000079, -7.640924492999943 ], [ 112.174681505000081, -7.640975632999925 ], [ 112.174626619000037, -7.64119887399994 ], [ 112.174786518000019, -7.64124579199995 ], [ 112.174741495000035, -7.641401974999951 ], [ 112.174508798000033, -7.641334936999954 ], [ 112.174318428000106, -7.641867210999976 ], [ 112.174207749000061, -7.641830442999947 ], [ 112.174127373000033, -7.64209752599993 ] ] ] ] } },
{ "type": "Feature", "properties": { "fid": 7005, "kk": null, "gid": 0.0, "bstt": null, "luas": 15589.907636260272, "bsbtt": null, "idsls": "35061500110017", "kdkab": "06", "kdkec": "150", "kdsls": "0017", "nmkab": "KEDIRI", "nmkec": "KUNJANG", "nmsls": "RT 015 RW 006 DUSUN MADUH", "bstt_k": null, "kddesa": "011", "kdprov": "35", "khusus": null, "muatan": null, "nmdesa": "PAKIS", "nmprov": "JAWA TIMUR", "posisi": null, "rw_dki": null, "segmen": null, "subsls": null, "sumber": null, "dom_sls": null, "periode": "2025_1", "tingkat": null, "idsubsls": "3506150011001700", "nm_gedung": null, "wil_campur": null, "iddesa": "3506150011", "kdsubsls": "00" }, "geometry": { "type": "MultiPolygon", "coordinates": [ [ [ [ 112.174424318000092, -7.640860767999925 ], [ 112.174423589000071, -7.640860540999938 ], [ 112.174772499000028, -7.639966598999933 ], [ 112.176069626000071, -7.640534231999936 ], [ 112.175881620000041, -7.640975229999981 ], [ 112.175811138000086, -7.641076364999947 ], [ 112.175777475000018, -7.641071151999938 ], [ 112.175776965000068, -7.641072611999959 ], [ 112.175245073000042, -7.640895619999981 ], [ 112.175239636000015, -7.640894799999955 ], [ 112.175183402000016, -7.640886311999964 ], [ 112.175114199000063, -7.64119653299997 ], [ 112.175101074000054, -7.641189373999964 ], [ 112.175003608000111, -7.641477487999964 ], [ 112.174741495000035, -7.641401974999951 ], [ 112.174786518000019, -7.64124579199995 ], [ 112.174626619000037, -7.64119887399994 ], [ 112.174681505000081, -7.640975632999925 ], [ 112.174403077000079, -7.640924492999943 ], [ 112.174424318000092, -7.640860767999925 ] ] ] ] } },
{ "type": "Feature", "properties": { "fid": 7006, "kk": null, "gid": 0.0, "bstt": null, "luas": 16017.524517824873, "bsbtt": null, "idsls": "35061500110018", "kdkab": "06", "kdkec": "150", "kdsls": "0018", "nmkab": "KEDIRI", "nmkec": "KUNJANG", "nmsls": "RT 009 RW 004 DUSUN PAKIS", "bstt_k": null, "kddesa": "011", "kdprov": "35", "khusus": null, "muatan": null, "nmdesa": "PAKIS", "nmprov": "JAWA TIMUR", "posisi": null, "rw_dki": null, "segmen": null, "subsls": null, "sumber": null, "dom_sls": null, "periode": "2025_1", "tingkat": null, "idsubsls": "3506150011001800", "nm_gedung": null, "wil_campur": null, "iddesa": "3506150011", "kdsubsls": "00" }, "geometry": { "type": "MultiPolygon", "coordinates": [ [ [ [ 112.171384469000031, -7.64048612299996 ], [ 112.171431254000026, -7.640350640999941 ], [ 112.171523274000037, -7.64039153899995 ], [ 112.171564172000103, -7.640284181999959 ], [ 112.171466017000057, -7.640245328999981 ], [ 112.171431254000026, -7.640336326999943 ], [ 112.171212534, -7.640222170999948 ], [ 112.171298184000079, -7.63999098599993 ], [ 112.171358147000092, -7.640006625999945 ], [ 112.171806286000106, -7.638773189999938 ], [ 112.172517418000098, -7.638981716999979 ], [ 112.172658333000072, -7.639035327999977 ], [ 112.172531094000078, -7.639417537999975 ], [ 112.172568965000096, -7.639433177999933 ], [ 112.172417481000025, -7.639889850999964 ], [ 112.172314257000039, -7.640139224999928 ], [ 112.171826274000068, -7.63997117599996 ], [ 112.171626399000047, -7.640562348999936 ], [ 112.171384469000031, -7.64048612299996 ] ] ] ] } },
{ "type": "Feature", "properties": { "fid": 7007, "kk": null, "gid": 0.0, "bstt": null, "luas": 19714.171734494674, "bsbtt": null, "idsls": "35061500110019", "kdkab": "06", "kdkec": "150", "kdsls": "0019", "nmkab": "KEDIRI", "nmkec": "KUNJANG", "nmsls": "RT 010 RW 004 DUSUN PAKIS", "bstt_k": null, "kddesa": "011", "kdprov": "35", "khusus": null, "muatan": null, "nmdesa": "PAKIS", "nmprov": "JAWA TIMUR", "posisi": null, "rw_dki": null, "segmen": null, "subsls": null, "sumber": null, "dom_sls": null, "periode": "2025_1", "tingkat": null, "idsubsls": "3506150011001900", "nm_gedung": null, "wil_campur": null, "iddesa": "3506150011", "kdsubsls": "00" }, "geometry": { "type": "MultiPolygon", "coordinates": [ [ [ [ 112.171431254000026, -7.640336326999943 ], [ 112.171466017000057, -7.640245328999981 ], [ 112.171564172000103, -7.640284181999959 ], [ 112.171523274000037, -7.64039153899995 ], [ 112.171431254000026, -7.640350640999941 ], [ 112.171384469000031, -7.64048612299996 ], [ 112.171626399000047, -7.640562348999936 ], [ 112.171826274000068, -7.63997117599996 ], [ 112.172314257000039, -7.640139224999928 ], [ 112.172308076000036, -7.640154157999973 ], [ 112.173044455000081, -7.64039656999995 ], [ 112.172671441000034, -7.641348400999959 ], [ 112.171857718000069, -7.64110549399993 ], [ 112.171529618000022, -7.641007551999962 ], [ 112.170982593000076, -7.640842815999974 ], [ 112.170983064000097, -7.640841545999933 ], [ 112.17119582600003, -7.640267266999956 ], [ 112.171212534, -7.640222170999948 ], [ 112.171431254000026, -7.640336326999943 ] ] ] ] } },
{ "type": "Feature", "properties": { "fid": 7008, "kk": null, "gid": 0.0, "bstt": null, "luas": 30215.905385630205, "bsbtt": null, "idsls": "35061500110020", "kdkab": "06", "kdkec": "150", "kdsls": "0020", "nmkab": "KEDIRI", "nmkec": "KUNJANG", "nmsls": "RT 011 RW 004 DUSUN PAKIS", "bstt_k": null, "kddesa": "011", "kdprov": "35", "khusus": null, "muatan": null, "nmdesa": "PAKIS", "nmprov": "JAWA TIMUR", "posisi": null, "rw_dki": null, "segmen": null, "subsls": null, "sumber": null, "dom_sls": null, "periode": "2025_1", "tingkat": null, "idsubsls": "3506150011002000", "nm_gedung": null, "wil_campur": null, "iddesa": "3506150011", "kdsubsls": "00" }, "geometry": { "type": "MultiPolygon", "coordinates": [ [ [ [ 112.174363588, -7.639787779999949 ], [ 112.17414437900004, -7.640393758999949 ], [ 112.173747172000049, -7.640250601999981 ], [ 112.173633559000109, -7.640576944999964 ], [ 112.17348417900007, -7.640997646999949 ], [ 112.17335163100006, -7.64128749799994 ], [ 112.173261161000028, -7.641527301999929 ], [ 112.172680474000117, -7.641351097999973 ], [ 112.172671441000034, -7.641348400999959 ], [ 112.173044455000081, -7.64039656999995 ], [ 112.172308076000036, -7.640154157999973 ], [ 112.172314257000039, -7.640139224999928 ], [ 112.172417481000025, -7.639889850999964 ], [ 112.172568965000096, -7.639433177999933 ], [ 112.172531094000078, -7.639417537999975 ], [ 112.172658333000072, -7.639035327999977 ], [ 112.173051819000079, -7.639185030999954 ], [ 112.173874460000093, -7.639547345999972 ], [ 112.174363588, -7.639787779999949 ] ] ] ] } },
{ "type": "Feature", "properties": { "fid": 7009, "kk": null, "gid": 0.0, "bstt": null, "luas": 192488.80346138068, "bsbtt": null, "idsls": "35061500111001", "kdkab": "06", "kdkec": "150", "kdsls": "1001", "nmkab": "KEDIRI", "nmkec": "KUNJANG", "nmsls": "PERSAWAHAN JULEK", "bstt_k": null, "kddesa": "011", "kdprov": "35", "khusus": null, "muatan": null, "nmdesa": "PAKIS", "nmprov": "JAWA TIMUR", "posisi": null, "rw_dki": null, "segmen": null, "subsls": null, "sumber": null, "dom_sls": null, "periode": "2025_1", "tingkat": null, "idsubsls": "3506150011100100", "nm_gedung": null, "wil_campur": null, "iddesa": "3506150011", "kdsubsls": "00" }, "geometry": { "type": "MultiPolygon", "coordinates": [ [ [ [ 112.166313555000102, -7.644132978999949 ], [ 112.166321312000036, -7.644136471999957 ], [ 112.165999409000051, -7.645068574999925 ], [ 112.166049904000033, -7.645104023999977 ], [ 112.166144581000026, -7.645141557999978 ], [ 112.166466484000011, -7.64523539399994 ], [ 112.166689502000054, -7.645297950999975 ], [ 112.166988261000029, -7.645393871999943 ], [ 112.167916099000081, -7.645706657999938 ], [ 112.16860198400002, -7.645899541999938 ], [ 112.168947030000027, -7.645972524999934 ], [ 112.169256310000037, -7.646035081999969 ], [ 112.169643435000012, -7.646151854999971 ], [ 112.17003476800005, -7.646260287999951 ], [ 112.170362983000018, -7.646410423999953 ], [ 112.170872136000071, -7.646602265999945 ], [ 112.17096381500005, -7.64670766699993 ], [ 112.170907903000057, -7.646878558999958 ], [ 112.1706470150001, -7.647542703999932 ], [ 112.170273346000045, -7.648464540999953 ], [ 112.170191690000024, -7.648413699999935 ], [ 112.170176300000094, -7.648404119999952 ], [ 112.17002522000007, -7.648346009999955 ], [ 112.16984122000008, -7.648254979999933 ], [ 112.169728890000101, -7.648210429999949 ], [ 112.169597180000096, -7.648167819999969 ], [ 112.169490660000065, -7.648142639999946 ], [ 112.169372830000043, -7.648133489999964 ], [ 112.169233870000085, -7.648089279999965 ], [ 112.169176890000017, -7.648051609999925 ], [ 112.169056800000021, -7.647962519999965 ], [ 112.168909610000014, -7.647840499999973 ], [ 112.168729480000025, -7.647733969999933 ], [ 112.168669440000031, -7.647714599999972 ], [ 112.168537730000025, -7.647664239999926 ], [ 112.168431210000108, -7.647615819999942 ], [ 112.168342110000026, -7.647610009999937 ], [ 112.168341640000108, -7.647610009999937 ], [ 112.168189100000063, -7.647608079999941 ], [ 112.168069020000075, -7.647590649999927 ], [ 112.168068540000036, -7.647590639999976 ], [ 112.1679315, -7.64758870999998 ], [ 112.167931030000091, -7.64758870999998 ], [ 112.167695010000102, -7.647573229999978 ], [ 112.167694730000107, -7.647573209999962 ], [ 112.167605520000052, -7.647581319999972 ], [ 112.16760503, -7.647581319999972 ], [ 112.167500110000105, -7.647558079999953 ], [ 112.167100110000092, -7.647318079999934 ], [ 112.167098990000113, -7.647315189999972 ], [ 112.166983420000065, -7.647252669999943 ], [ 112.166884640000035, -7.647190689999945 ], [ 112.16683622000005, -7.647140329999957 ], [ 112.166826540000102, -7.647057049999944 ], [ 112.166824600000041, -7.646987319999937 ], [ 112.166692890000036, -7.646933089999948 ], [ 112.166404310000075, -7.646811069999956 ], [ 112.166363630000092, -7.64677426999998 ], [ 112.166336520000073, -7.646731659999944 ], [ 112.166303590000098, -7.64671422999993 ], [ 112.166235800000095, -7.646704539999973 ], [ 112.166235770000071, -7.646704609999972 ], [ 112.166235330000063, -7.646704539999973 ], [ 112.166198690000101, -7.646775889999958 ], [ 112.166156390000083, -7.64673358999994 ], [ 112.165945280000074, -7.646402399999943 ], [ 112.165873610000062, -7.646266819999937 ], [ 112.165827130000025, -7.646185469999978 ], [ 112.16579420000005, -7.646125429999927 ], [ 112.165751590000013, -7.646061509999981 ], [ 112.16570511000009, -7.646024709999949 ], [ 112.165648940000096, -7.645978229999969 ], [ 112.16560633000006, -7.645953049999946 ], [ 112.165304180000021, -7.645730309999976 ], [ 112.165075640000055, -7.645571489999952 ], [ 112.164881950000108, -7.64544946999996 ], [ 112.164699890000065, -7.645344879999925 ], [ 112.164601110000035, -7.645290649999936 ], [ 112.164492650000057, -7.645259659999965 ], [ 112.16449225000008, -7.645259689999932 ], [ 112.164492170000017, -7.645259659999965 ], [ 112.16436047000002, -7.645267409999974 ], [ 112.164250070000094, -7.645282899999927 ], [ 112.16408931, -7.645311959999958 ], [ 112.163971160000074, -7.645352629999934 ], [ 112.1638259, -7.645408799999927 ], [ 112.163706370000114, -7.645442949999961 ], [ 112.163670760000059, -7.645255419999955 ], [ 112.163668450000046, -7.645253129999958 ], [ 112.163581980000117, -7.645166659999973 ], [ 112.163567400000034, -7.64515259999996 ], [ 112.163567460000081, -7.645152479999979 ], [ 112.163566490000107, -7.645152189999976 ], [ 112.163565330000097, -7.645151859999942 ], [ 112.163556680000056, -7.645145039999932 ], [ 112.16344326, -7.645055679999928 ], [ 112.163382890000094, -7.645018299999947 ], [ 112.16321022000011, -7.644911419999971 ], [ 112.163143640000044, -7.644867029999943 ], [ 112.16305116, -7.644776399999955 ], [ 112.162827360000051, -7.644717219999961 ], [ 112.162605420000091, -7.644650629999944 ], [ 112.1623686800001, -7.64457294999994 ], [ 112.162489630000096, -7.64432807999998 ], [ 112.16256963, -7.644148079999979 ], [ 112.162608530000057, -7.644059169999935 ], [ 112.162609583000062, -7.644056761999934 ], [ 112.16264306000005, -7.64398024999997 ], [ 112.162849630000096, -7.643508079999947 ], [ 112.163179495, -7.64272189999997 ], [ 112.166313555000102, -7.644132978999949 ] ] ] ] } },
{ "type": "Feature", "properties": { "fid": 7010, "kk": null, "gid": 0.0, "bstt": null, "luas": 158700.99232237888, "bsbtt": null, "idsls": "35061500111002", "kdkab": "06", "kdkec": "150", "kdsls": "1002", "nmkab": "KEDIRI", "nmkec": "KUNJANG", "nmsls": "PERSAWAHAN JULEK DAN JASAN", "bstt_k": null, "kddesa": "011", "kdprov": "35", "khusus": null, "muatan": null, "nmdesa": "PAKIS", "nmprov": "JAWA TIMUR", "posisi": null, "rw_dki": null, "segmen": null, "subsls": null, "sumber": null, "dom_sls": null, "periode": "2025_1", "tingkat": null, "idsubsls": "3506150011100200", "nm_gedung": null, "wil_campur": null, "iddesa": "3506150011", "kdsubsls": "00" }, "geometry": { "type": "MultiPolygon", "coordinates": [ [ [ [ 112.17120792500009, -7.645961557999954 ], [ 112.171351155000025, -7.646020668999938 ], [ 112.171397561000049, -7.645912746999954 ], [ 112.172336651000023, -7.646217929999978 ], [ 112.173349501000075, -7.646547083999963 ], [ 112.174035545000038, -7.646770032999939 ], [ 112.173984991000111, -7.646943565999948 ], [ 112.174789511000085, -7.647205873999951 ], [ 112.174789955000051, -7.647206018999952 ], [ 112.174782002000029, -7.647232221999957 ], [ 112.17476836000003, -7.647266023999975 ], [ 112.174764683000035, -7.64727647999996 ], [ 112.17467532, -7.647530609999933 ], [ 112.174438580000015, -7.648189049999928 ], [ 112.174344250000104, -7.648431339999945 ], [ 112.174303560000112, -7.648444289999929 ], [ 112.174111210000092, -7.649006549999967 ], [ 112.17390961000001, -7.649585459999969 ], [ 112.173749620000081, -7.650098709999952 ], [ 112.173403760000042, -7.649989589999961 ], [ 112.173174410000115, -7.650668369999948 ], [ 112.173157770000103, -7.65073125999993 ], [ 112.173128170000041, -7.650760849999926 ], [ 112.172991660000093, -7.650821519999965 ], [ 112.17295131000003, -7.650606299999936 ], [ 112.17293, -7.650542379999933 ], [ 112.172889520000012, -7.650447919999976 ], [ 112.172889330000089, -7.650447479999968 ], [ 112.172837040000104, -7.650408739999932 ], [ 112.172755690000031, -7.650375819999965 ], [ 112.172662720000062, -7.650335139999981 ], [ 112.172538760000066, -7.65028284999994 ], [ 112.172379940000042, -7.650211189999936 ], [ 112.172259860000054, -7.65014532999993 ], [ 112.172143650000066, -7.650062049999974 ], [ 112.171992570000043, -7.64996132999994 ], [ 112.17183569000008, -7.649849 ], [ 112.171682680000117, -7.64975021999993 ], [ 112.171469630000047, -7.649593329999959 ], [ 112.171233330000064, -7.649432579999939 ], [ 112.171035780000011, -7.649291189999929 ], [ 112.17097186, -7.649223399999926 ], [ 112.170737500000087, -7.648989039999947 ], [ 112.170528330000025, -7.648772119999933 ], [ 112.17039662000002, -7.648609419999957 ], [ 112.170278470000085, -7.648468029999947 ], [ 112.170278118000056, -7.648467810999932 ], [ 112.170276110000032, -7.648466559999974 ], [ 112.1702759100001, -7.648466439999936 ], [ 112.170276010000066, -7.648466199999973 ], [ 112.170273346000045, -7.648464540999953 ], [ 112.1706470150001, -7.647542703999932 ], [ 112.170907903000057, -7.646878558999958 ], [ 112.17096381500005, -7.64670766699993 ], [ 112.17120792500009, -7.645961557999954 ] ] ] ] } },
{ "type": "Feature", "properties": { "fid": 7011, "kk": null, "gid": 0.0, "bstt": null, "luas": 312761.70040406089, "bsbtt": null, "idsls": "35061500111003", "kdkab": "06", "kdkec": "150", "kdsls": "1003", "nmkab": "KEDIRI", "nmkec": "KUNJANG", "nmsls": "PERSAWAHAN JULEK DAN JASAN", "bstt_k": null, "kddesa": "011", "kdprov": "35", "khusus": null, "muatan": null, "nmdesa": "PAKIS", "nmprov": "JAWA TIMUR", "posisi": null, "rw_dki": null, "segmen": null, "subsls": null, "sumber": null, "dom_sls": null, "periode": "2025_1", "tingkat": null, "idsubsls": "3506150011100300", "nm_gedung": null, "wil_campur": null, "iddesa": "3506150011", "kdsubsls": "00" }, "geometry": { "type": "MultiPolygon", "coordinates": [ [ [ [ 112.17068073400003, -7.640757568999959 ], [ 112.170668580000097, -7.640754192999964 ], [ 112.170527616000072, -7.641139965999969 ], [ 112.170881078000093, -7.641248398999949 ], [ 112.170676996000111, -7.641880231999949 ], [ 112.172400272, -7.642426270999977 ], [ 112.17278619700005, -7.642548554999962 ], [ 112.172670480000079, -7.642962998999963 ], [ 112.17256107500009, -7.643364408999958 ], [ 112.172390656000061, -7.643922733999943 ], [ 112.172370299000022, -7.643935014999954 ], [ 112.172371194000107, -7.643932117999952 ], [ 112.1722239180001, -7.643832025999927 ], [ 112.172171320000075, -7.643804917999944 ], [ 112.172038772000064, -7.64377363899996 ], [ 112.171952510000096, -7.64405514699996 ], [ 112.171914639000079, -7.644069743999978 ], [ 112.17162066800006, -7.644771741999932 ], [ 112.171515524000029, -7.644725972999936 ], [ 112.17143317600005, -7.645016151999926 ], [ 112.171476311000106, -7.645035758999938 ], [ 112.171358670000018, -7.645380836999948 ], [ 112.171323378000011, -7.645370379999974 ], [ 112.171192667000014, -7.645681472999968 ], [ 112.171296564000045, -7.645716493999942 ], [ 112.171249404000037, -7.645864598999935 ], [ 112.171238222000056, -7.64586096499994 ], [ 112.171234014000106, -7.645881816999974 ], [ 112.17120792500009, -7.645961557999954 ], [ 112.17096381500005, -7.64670766699993 ], [ 112.170872136000071, -7.646602265999945 ], [ 112.170362983000018, -7.646410423999953 ], [ 112.17003476800005, -7.646260287999951 ], [ 112.169643435000012, -7.646151854999971 ], [ 112.169256310000037, -7.646035081999969 ], [ 112.168947030000027, -7.645972524999934 ], [ 112.16860198400002, -7.645899541999938 ], [ 112.167916099000081, -7.645706657999938 ], [ 112.166988261000029, -7.645393871999943 ], [ 112.166689502000054, -7.645297950999975 ], [ 112.166466484000011, -7.64523539399994 ], [ 112.166144581000026, -7.645141557999978 ], [ 112.166049904000033, -7.645104023999977 ], [ 112.165999409000051, -7.645068574999925 ], [ 112.166321312000036, -7.644136471999957 ], [ 112.166313555000102, -7.644132978999949 ], [ 112.166512245000035, -7.643451468999956 ], [ 112.166548012000021, -7.643340949999981 ], [ 112.166594298000064, -7.643262753999977 ], [ 112.167006671000081, -7.642483912999978 ], [ 112.167082413000117, -7.64239007599997 ], [ 112.167309638, -7.641794214999948 ], [ 112.167459124000061, -7.641339727999934 ], [ 112.167466382000043, -7.641342756999961 ], [ 112.167685192000022, -7.640802674999975 ], [ 112.168623549000017, -7.641178021999963 ], [ 112.168682460000014, -7.641171765999957 ], [ 112.168903374000024, -7.640584243999967 ], [ 112.168899391000082, -7.640582736999932 ], [ 112.169049597000026, -7.640228184999955 ], [ 112.17068073400003, -7.640757568999959 ] ] ] ] } },
{ "type": "Feature", "properties": { "fid": 7012, "kk": null, "gid": 0.0, "bstt": null, "luas": 123176.42108796639, "bsbtt": null, "idsls": "35061500111004", "kdkab": "06", "kdkec": "150", "kdsls": "1004", "nmkab": "KEDIRI", "nmkec": "KUNJANG", "nmsls": "PERSAWAHAN JULEK", "bstt_k": null, "kddesa": "011", "kdprov": "35", "khusus": null, "muatan": null, "nmdesa": "PAKIS", "nmprov": "JAWA TIMUR", "posisi": null, "rw_dki": null, "segmen": null, "subsls": null, "sumber": null, "dom_sls": null, "periode": "2025_1", "tingkat": null, "idsubsls": "3506150011100400", "nm_gedung": null, "wil_campur": null, "iddesa": "3506150011", "kdsubsls": "00" }, "geometry": { "type": "MultiPolygon", "coordinates": [ [ [ [ 112.166287231000069, -7.640849432999971 ], [ 112.166309497000043, -7.640858806999972 ], [ 112.166626909000115, -7.640992432999951 ], [ 112.166712027000017, -7.641027953999981 ], [ 112.167459124000061, -7.641339727999934 ], [ 112.167309638, -7.641794214999948 ], [ 112.167082413000117, -7.64239007599997 ], [ 112.167006671000081, -7.642483912999978 ], [ 112.166594298000064, -7.643262753999977 ], [ 112.166548012000021, -7.643340949999981 ], [ 112.166512245000035, -7.643451468999956 ], [ 112.166313555000102, -7.644132978999949 ], [ 112.163179495, -7.64272189999997 ], [ 112.163181710000117, -7.642716619999931 ], [ 112.163258810000116, -7.642532869999968 ], [ 112.163449630000059, -7.642078079999976 ], [ 112.163565244000097, -7.641783163999946 ], [ 112.163575340000079, -7.641757409999968 ], [ 112.163587322000012, -7.64173124499996 ], [ 112.163709140000037, -7.641465239999945 ], [ 112.163838338, -7.641140972999949 ], [ 112.163851266000052, -7.641110573999981 ], [ 112.164046726000038, -7.640647236999939 ], [ 112.164199911000082, -7.640292885999941 ], [ 112.16420417300003, -7.640283026999953 ], [ 112.164428235000059, -7.640356238999971 ], [ 112.164430099000015, -7.640351697999961 ], [ 112.164430460000062, -7.64035180999997 ], [ 112.164531414000066, -7.640110258999925 ], [ 112.166287231000069, -7.640849432999971 ] ] ] ] } },
{ "type": "Feature", "properties": { "fid": 7013, "kk": null, "gid": 0.0, "bstt": null, "luas": 103018.79084764773, "bsbtt": null, "idsls": "35061500111005", "kdkab": "06", "kdkec": "150", "kdsls": "1005", "nmkab": "KEDIRI", "nmkec": "KUNJANG", "nmsls": "PERSAWAHAN MADUH", "bstt_k": null, "kddesa": "011", "kdprov": "35", "khusus": null, "muatan": null, "nmdesa": "PAKIS", "nmprov": "JAWA TIMUR", "posisi": null, "rw_dki": null, "segmen": null, "subsls": null, "sumber": null, "dom_sls": null, "periode": "2025_1", "tingkat": null, "idsubsls": "3506150011100500", "nm_gedung": null, "wil_campur": null, "iddesa": "3506150011", "kdsubsls": "00" }, "geometry": { "type": "MultiPolygon", "coordinates": [ [ [ [ 112.173699221000106, -7.64166150799997 ], [ 112.173937040000055, -7.641740511999956 ], [ 112.174116126000058, -7.641837823999936 ], [ 112.174050689000069, -7.642080143999976 ], [ 112.174127373000033, -7.64209752599993 ], [ 112.174207749000061, -7.641830442999947 ], [ 112.174318428000106, -7.641867210999976 ], [ 112.174320354000088, -7.641867850999972 ], [ 112.174237542000014, -7.642114763999928 ], [ 112.174434874000099, -7.642185311999981 ], [ 112.174507905000041, -7.641930155999944 ], [ 112.175077914000099, -7.642119514999933 ], [ 112.175029524000024, -7.642275908999977 ], [ 112.175089164000042, -7.64229992199995 ], [ 112.175050132000024, -7.642446291999931 ], [ 112.175156467000079, -7.642469808999977 ], [ 112.17517288800002, -7.642406979999976 ], [ 112.175305140000091, -7.642442728999981 ], [ 112.175355635000074, -7.642265481999971 ], [ 112.175554472000044, -7.642328463999945 ], [ 112.175559717000056, -7.642330124999944 ], [ 112.175496599000098, -7.642567843999927 ], [ 112.175572340000031, -7.642582440999945 ], [ 112.175639667000041, -7.642369744999939 ], [ 112.175793254000041, -7.642423961999953 ], [ 112.175723824000102, -7.642672106999953 ], [ 112.175928439000018, -7.642721644999938 ], [ 112.175988972000027, -7.642736299999967 ], [ 112.175980630000026, -7.642762389999973 ], [ 112.17587074000005, -7.643106089999947 ], [ 112.175860942000099, -7.643140317999951 ], [ 112.175860830000033, -7.643140709999955 ], [ 112.175563720000014, -7.64417882999993 ], [ 112.175302355000099, -7.645031013999926 ], [ 112.17529722800009, -7.645049104999941 ], [ 112.175226719000079, -7.645297909999954 ], [ 112.175214020000112, -7.645339192999927 ], [ 112.175184560000048, -7.645442069999945 ], [ 112.175186840000038, -7.645448229999943 ], [ 112.175187987000072, -7.645448319999957 ], [ 112.174963488000117, -7.646603466999977 ], [ 112.174965278000059, -7.646607733999929 ], [ 112.174962863000019, -7.646606707999979 ], [ 112.174947210000028, -7.646685369999943 ], [ 112.174911916000042, -7.646802308999952 ], [ 112.174897606000059, -7.646857122999961 ], [ 112.174832923000054, -7.647064449999959 ], [ 112.174810374000117, -7.64713874399996 ], [ 112.17479443000002, -7.647191569999961 ], [ 112.174793720000025, -7.647193909999942 ], [ 112.174793690000115, -7.647193989999948 ], [ 112.174793076000014, -7.647195735999958 ], [ 112.174789955000051, -7.647206018999952 ], [ 112.174789511000085, -7.647205873999951 ], [ 112.173984991000111, -7.646943565999948 ], [ 112.174035545000038, -7.646770032999939 ], [ 112.174041494000107, -7.64677196599996 ], [ 112.174041443000078, -7.646772200999976 ], [ 112.174058097000056, -7.646777816999929 ], [ 112.174061544000097, -7.646778693999977 ], [ 112.174062583000023, -7.646775146999971 ], [ 112.174066845000084, -7.64675849899993 ], [ 112.174067254000079, -7.646756899999957 ], [ 112.174316288000114, -7.645953757999962 ], [ 112.174522474000014, -7.646012144999929 ], [ 112.17468658100006, -7.645440789999952 ], [ 112.174692893000042, -7.645415766999974 ], [ 112.174482499000078, -7.645407425999963 ], [ 112.174615047000088, -7.644959099999937 ], [ 112.174633983000035, -7.644874647999927 ], [ 112.174065413000108, -7.644693940999957 ], [ 112.173893820000103, -7.644639403999975 ], [ 112.172836238000059, -7.64430327499997 ], [ 112.172835744000054, -7.644303117999925 ], [ 112.172833009000101, -7.644302248999963 ], [ 112.172843309000086, -7.644269708999957 ], [ 112.172917167000037, -7.644036379999932 ], [ 112.173062339000012, -7.643495258999963 ], [ 112.173270629000058, -7.642691394999929 ], [ 112.17355886900009, -7.641614882999932 ], [ 112.173699221000106, -7.64166150799997 ] ] ] ] } },
{ "type": "Feature", "properties": { "fid": 7014, "kk": null, "gid": 0.0, "bstt": null, "luas": 383115.19435495633, "bsbtt": null, "idsls": "35061500111006", "kdkab": "06", "kdkec": "150", "kdsls": "1006", "nmkab": "KEDIRI", "nmkec": "KUNJANG", "nmsls": "PERSAWAHAN PAKIS DAN MADUH", "bstt_k": null, "kddesa": "011", "kdprov": "35", "khusus": null, "muatan": null, "nmdesa": "PAKIS", "nmprov": "JAWA TIMUR", "posisi": null, "rw_dki": null, "segmen": null, "subsls": null, "sumber": null, "dom_sls": null, "periode": "2025_1", "tingkat": null, "idsubsls": "3506150011100600", "nm_gedung": null, "wil_campur": null, "iddesa": "3506150011", "kdsubsls": "00" }, "geometry": { "type": "MultiPolygon", "coordinates": [ [ [ [ 112.169928522000077, -7.63638543899998 ], [ 112.170056431000035, -7.63627813599993 ], [ 112.170056605000013, -7.636278214999948 ], [ 112.170177957000078, -7.636038411999948 ], [ 112.170254727000042, -7.636183875999961 ], [ 112.170298700000103, -7.636095929999954 ], [ 112.170301510000058, -7.636090309999929 ], [ 112.170306590000109, -7.636086169999942 ], [ 112.170362890000092, -7.635851859999946 ], [ 112.170491030000107, -7.635547199999962 ], [ 112.170544150000069, -7.635420909999937 ], [ 112.170618130000094, -7.635367279999969 ], [ 112.170695810000097, -7.635385769999971 ], [ 112.170899260000056, -7.635459749999939 ], [ 112.171271020000063, -7.635605869999949 ], [ 112.171587300000056, -7.635674299999948 ], [ 112.171672380000018, -7.635700199999974 ], [ 112.171764850000045, -7.635692799999958 ], [ 112.171914670000092, -7.635720539999966 ], [ 112.17206633, -7.635783429999947 ], [ 112.172208740000087, -7.635833359999936 ], [ 112.172267930000089, -7.635838909999961 ], [ 112.17230595, -7.63585846999996 ], [ 112.172397400000023, -7.635905499999978 ], [ 112.172445490000086, -7.63590918999995 ], [ 112.17249098000002, -7.635877199999925 ], [ 112.172613800000022, -7.635790819999954 ], [ 112.172741420000079, -7.635785269999928 ], [ 112.172859790000075, -7.635833359999936 ], [ 112.17298001000006, -7.635899949999953 ], [ 112.172990040000059, -7.635904959999948 ], [ 112.173201950000021, -7.636010919999933 ], [ 112.17344055, -7.636105249999957 ], [ 112.173527480000075, -7.636147789999939 ], [ 112.173623650000081, -7.636203269999953 ], [ 112.173814150000112, -7.636280949999957 ], [ 112.174132280000094, -7.636375279999982 ], [ 112.174389360000077, -7.636473309999928 ], [ 112.174589120000064, -7.636556539999958 ], [ 112.174820310000086, -7.636650859999975 ], [ 112.175090340000111, -7.636963439999931 ], [ 112.175173570000084, -7.637065159999963 ], [ 112.175319690000038, -7.637111399999981 ], [ 112.175460250000015, -7.637187229999938 ], [ 112.175565680000091, -7.637242719999961 ], [ 112.175819070000102, -7.637405479999927 ], [ 112.175915240000108, -7.637433219999934 ], [ 112.176094650000095, -7.637435069999981 ], [ 112.176279600000044, -7.637423979999937 ], [ 112.17641277000007, -7.637420279999958 ], [ 112.176549640000076, -7.63744061999995 ], [ 112.176788230000057, -7.637542349999933 ], [ 112.177359740000043, -7.637742099999969 ], [ 112.177772190000042, -7.63791225999995 ], [ 112.178036680000105, -7.63799918999996 ], [ 112.178028440000048, -7.638020279999978 ], [ 112.177872070000035, -7.638420879999956 ], [ 112.177620530000013, -7.639044179999928 ], [ 112.17721817000006, -7.640036419999944 ], [ 112.177211780000107, -7.640052189999949 ], [ 112.178105550000055, -7.640444929999944 ], [ 112.17811251, -7.640447989999927 ], [ 112.177997030000029, -7.64075674999998 ], [ 112.177851720000035, -7.641145269999981 ], [ 112.177836930000012, -7.64117116999995 ], [ 112.177819680000084, -7.64118265999997 ], [ 112.177811770000062, -7.641187939999952 ], [ 112.17781022600002, -7.641188968999927 ], [ 112.177803490000088, -7.641193459999954 ], [ 112.177792540000041, -7.641200759999947 ], [ 112.177469480000013, -7.641094789999954 ], [ 112.177291530000048, -7.64103640999997 ], [ 112.177284449000013, -7.641055643999948 ], [ 112.176845225000079, -7.640885563999973 ], [ 112.176070974000027, -7.640531069999952 ], [ 112.176069626000071, -7.640534231999936 ], [ 112.174772499000028, -7.639966598999933 ], [ 112.174363626000059, -7.639787672999944 ], [ 112.174363588, -7.639787779999949 ], [ 112.173874460000093, -7.639547345999972 ], [ 112.173051819000079, -7.639185030999954 ], [ 112.172658333000072, -7.639035327999977 ], [ 112.172517418000098, -7.638981716999979 ], [ 112.171806286000106, -7.638773189999938 ], [ 112.171358147000092, -7.640006625999945 ], [ 112.171298184000079, -7.63999098599993 ], [ 112.171212534, -7.640222170999948 ], [ 112.17119582600003, -7.640267266999956 ], [ 112.170983064000097, -7.640841545999933 ], [ 112.17068073400003, -7.640757568999959 ], [ 112.169049597000026, -7.640228184999955 ], [ 112.168899391000082, -7.640582736999932 ], [ 112.168078470000069, -7.64027211299998 ], [ 112.168504347000066, -7.639046406999967 ], [ 112.168524210000101, -7.639054259999966 ], [ 112.168802800000094, -7.63916439999997 ], [ 112.169636970000056, -7.636968459999935 ], [ 112.169637740000098, -7.636966449999932 ], [ 112.169636290000085, -7.636966179999945 ], [ 112.169636020000098, -7.636965289999978 ], [ 112.169692430000055, -7.63679419999994 ], [ 112.16970885, -7.636765039999943 ], [ 112.169734248000054, -7.636719911999933 ], [ 112.169796010000027, -7.636610169999926 ], [ 112.169800869000028, -7.636608830999933 ], [ 112.169928522000077, -7.63638543899998 ] ] ] ] } },
{ "type": "Feature", "properties": { "fid": 7015, "kk": null, "gid": 0.0, "bstt": null, "luas": 26102.274216428392, "bsbtt": null, "idsls": "35061500110015", "kdkab": "06", "kdkec": "150", "kdsls": "0015", "nmkab": "KEDIRI", "nmkec": "KUNJANG", "nmsls": "RT 013 RW 005 DUSUN MADUH", "bstt_k": null, "kddesa": "011", "kdprov": "35", "khusus": null, "muatan": null, "nmdesa": "PAKIS", "nmprov": "JAWA TIMUR", "posisi": null, "rw_dki": null, "segmen": null, "subsls": null, "sumber": null, "dom_sls": null, "periode": "2025_1", "tingkat": null, "idsubsls": "3506150011001500", "nm_gedung": null, "wil_campur": null, "iddesa": "3506150011", "kdsubsls": "00" }, "geometry": { "type": "MultiPolygon", "coordinates": [ [ [ [ 112.176521108000088, -7.642498726999975 ], [ 112.176099691000104, -7.642343709999977 ], [ 112.175928439000018, -7.642721644999938 ], [ 112.175723824000102, -7.642672106999953 ], [ 112.175793254000041, -7.642423961999953 ], [ 112.175639667000041, -7.642369744999939 ], [ 112.175572340000031, -7.642582440999945 ], [ 112.175496599000098, -7.642567843999927 ], [ 112.175559717000056, -7.642330124999944 ], [ 112.175554472000044, -7.642328463999945 ], [ 112.175749071000041, -7.641741040999932 ], [ 112.175572340000031, -7.641658672999938 ], [ 112.175776965000068, -7.641072611999959 ], [ 112.175777475000018, -7.641071151999938 ], [ 112.175811138000086, -7.641076364999947 ], [ 112.175881620000041, -7.640975229999981 ], [ 112.176069626000071, -7.640534231999936 ], [ 112.176070974000027, -7.640531069999952 ], [ 112.176845225000079, -7.640885563999973 ], [ 112.177284449000013, -7.641055643999948 ], [ 112.17706, -7.641665289999935 ], [ 112.176858400000015, -7.641593159999957 ], [ 112.176691935, -7.642040087999931 ], [ 112.176521108000088, -7.642498726999975 ] ] ] ] } },
{ "type": "Feature", "properties": { "fid": 7016, "kk": null, "gid": 0.0, "bstt": null, "luas": 12631.343124352366, "bsbtt": null, "idsls": "35061500110001", "kdkab": "06", "kdkec": "150", "kdsls": "0001", "nmkab": "KEDIRI", "nmkec": "KUNJANG", "nmsls": "RT 016 RW 007 DUSUN JASAN", "bstt_k": null, "kddesa": "011", "kdprov": "35", "khusus": null, "muatan": null, "nmdesa": "PAKIS", "nmprov": "JAWA TIMUR", "posisi": null, "rw_dki": null, "segmen": null, "subsls": null, "sumber": null, "dom_sls": null, "periode": "2025_1", "tingkat": null, "idsubsls": "3506150011000100", "nm_gedung": null, "wil_campur": null, "iddesa": "3506150011", "kdsubsls": "00" }, "geometry": { "type": "MultiPolygon", "coordinates": [ [ [ [ 112.173568037000109, -7.64609276799996 ], [ 112.17353309900011, -7.646187599999962 ], [ 112.173470140000063, -7.646166613999981 ], [ 112.173349501000075, -7.646547083999963 ], [ 112.172336651000023, -7.646217929999978 ], [ 112.172478495000064, -7.645714998999949 ], [ 112.172381714000039, -7.645684240999969 ], [ 112.172520035000048, -7.645245548999981 ], [ 112.172710981000023, -7.645366242999955 ], [ 112.172826697, -7.645393350999939 ], [ 112.172816178000062, -7.64543505599994 ], [ 112.172992909000072, -7.645503867999935 ], [ 112.172998169000039, -7.64548197299996 ], [ 112.173079170000051, -7.645514294999941 ], [ 112.173074962000101, -7.645540359999927 ], [ 112.173368462000099, -7.645673814999952 ], [ 112.173533896000095, -7.645721782999942 ], [ 112.173570615000017, -7.645577963999926 ], [ 112.173584600000027, -7.645581299999947 ], [ 112.173670276000053, -7.645601735999946 ], [ 112.173641754000073, -7.645753056999979 ], [ 112.173582012000111, -7.64607000999996 ], [ 112.173581099000103, -7.646069712999974 ], [ 112.173568037000109, -7.64609276799996 ] ] ] ] } },
{ "type": "Feature", "properties": { "fid": 7017, "kk": null, "gid": 0.0, "bstt": null, "luas": 15352.476780850324, "bsbtt": null, "idsls": "35061500110002", "kdkab": "06", "kdkec": "150", "kdsls": "0002", "nmkab": "KEDIRI", "nmkec": "KUNJANG", "nmsls": "RT 017 RW 007 DUSUN JASAN", "bstt_k": null, "kddesa": "011", "kdprov": "35", "khusus": null, "muatan": null, "nmdesa": "PAKIS", "nmprov": "JAWA TIMUR", "posisi": null, "rw_dki": null, "segmen": null, "subsls": null, "sumber": null, "dom_sls": null, "periode": "2025_1", "tingkat": null, "idsubsls": "3506150011000200", "nm_gedung": null, "wil_campur": null, "iddesa": "3506150011", "kdsubsls": "00" }, "geometry": { "type": "MultiPolygon", "coordinates": [ [ [ [ 112.171296564000045, -7.645716493999942 ], [ 112.171192667000014, -7.645681472999968 ], [ 112.171323378000011, -7.645370379999974 ], [ 112.171358670000018, -7.645380836999948 ], [ 112.171476311000106, -7.645035758999938 ], [ 112.17143317600005, -7.645016151999926 ], [ 112.171515524000029, -7.644725972999936 ], [ 112.17162066800006, -7.644771741999932 ], [ 112.171606460000021, -7.644805668999936 ], [ 112.171926211000027, -7.644914266999933 ], [ 112.171914639000079, -7.644950758999926 ], [ 112.171974601000102, -7.644974738999963 ], [ 112.171996693000096, -7.644936161999965 ], [ 112.172252322000077, -7.645025826999927 ], [ 112.172236542000064, -7.645078479999938 ], [ 112.172512485000084, -7.645214211999928 ], [ 112.17250479400002, -7.645235914999944 ], [ 112.172520035000048, -7.645245548999981 ], [ 112.172381714000039, -7.645684240999969 ], [ 112.172478495000064, -7.645714998999949 ], [ 112.172336651000023, -7.646217929999978 ], [ 112.171397561000049, -7.645912746999954 ], [ 112.171351155000025, -7.646020668999938 ], [ 112.17120792500009, -7.645961557999954 ], [ 112.171234014000106, -7.645881816999974 ], [ 112.171238222000056, -7.64586096499994 ], [ 112.171249404000037, -7.645864598999935 ], [ 112.171296564000045, -7.645716493999942 ] ] ] ] } },
{ "type": "Feature", "properties": { "fid": 7018, "kk": null, "gid": 0.0, "bstt": null, "luas": 18738.536272957172, "bsbtt": null, "idsls": "35061500110003", "kdkab": "06", "kdkec": "150", "kdsls": "0003", "nmkab": "KEDIRI", "nmkec": "KUNJANG", "nmsls": "RT 018 RW 007 DUSUN JASAN", "bstt_k": null, "kddesa": "011", "kdprov": "35", "khusus": null, "muatan": null, "nmdesa": "PAKIS", "nmprov": "JAWA TIMUR", "posisi": null, "rw_dki": null, "segmen": null, "subsls": null, "sumber": null, "dom_sls": null, "periode": "2025_1", "tingkat": null, "idsubsls": "3506150011000300", "nm_gedung": null, "wil_campur": null, "iddesa": "3506150011", "kdsubsls": "00" }, "geometry": { "type": "MultiPolygon", "coordinates": [ [ [ [ 112.173568037000109, -7.64609276799996 ], [ 112.173581099000103, -7.646069712999974 ], [ 112.173582012000111, -7.64607000999996 ], [ 112.173641754000073, -7.645753056999979 ], [ 112.173670276000053, -7.645601735999946 ], [ 112.173584600000027, -7.645581299999947 ], [ 112.173608539000043, -7.645471680999947 ], [ 112.173687457000028, -7.645510584999954 ], [ 112.173689313000068, -7.645500739999932 ], [ 112.173871554000016, -7.645556602999932 ], [ 112.173887388000026, -7.64547575499995 ], [ 112.173818331, -7.645462531999954 ], [ 112.173839245000067, -7.645364497999935 ], [ 112.173906653000017, -7.645377384999961 ], [ 112.173931344000039, -7.645251311999971 ], [ 112.173774294000054, -7.645205776999944 ], [ 112.173893820000103, -7.644639403999975 ], [ 112.174065413000108, -7.644693940999957 ], [ 112.174633983000035, -7.644874647999927 ], [ 112.174615047000088, -7.644959099999937 ], [ 112.174482499000078, -7.645407425999963 ], [ 112.174692893000042, -7.645415766999974 ], [ 112.17468658100006, -7.645440789999952 ], [ 112.174522474000014, -7.646012144999929 ], [ 112.174316288000114, -7.645953757999962 ], [ 112.174067254000079, -7.646756899999957 ], [ 112.174066845000084, -7.64675849899993 ], [ 112.174062583000023, -7.646775146999971 ], [ 112.174061544000097, -7.646778693999977 ], [ 112.174058097000056, -7.646777816999929 ], [ 112.174041443000078, -7.646772200999976 ], [ 112.174041494000107, -7.64677196599996 ], [ 112.174035545000038, -7.646770032999939 ], [ 112.173349501000075, -7.646547083999963 ], [ 112.173470140000063, -7.646166613999981 ], [ 112.17353309900011, -7.646187599999962 ], [ 112.173568037000109, -7.64609276799996 ] ] ] ] } },
{ "type": "Feature", "properties": { "fid": 7019, "kk": null, "gid": 0.0, "bstt": null, "luas": 22371.718831400478, "bsbtt": null, "idsls": "35061500110005", "kdkab": "06", "kdkec": "150", "kdsls": "0005", "nmkab": "KEDIRI", "nmkec": "KUNJANG", "nmsls": "RT 001 RW 001 DUSUN JULEK", "bstt_k": null, "kddesa": "011", "kdprov": "35", "khusus": null, "muatan": null, "nmdesa": "PAKIS", "nmprov": "JAWA TIMUR", "posisi": null, "rw_dki": null, "segmen": null, "subsls": null, "sumber": null, "dom_sls": null, "periode": "2025_1", "tingkat": null, "idsubsls": "3506150011000500", "nm_gedung": null, "wil_campur": null, "iddesa": "3506150011", "kdsubsls": "00" }, "geometry": { "type": "MultiPolygon", "coordinates": [ [ [ [ 112.166311030000088, -7.640504784999962 ], [ 112.166416454000114, -7.640553298999976 ], [ 112.166287231000069, -7.640849432999971 ], [ 112.164531414000066, -7.640110258999925 ], [ 112.164532530000088, -7.640107589999957 ], [ 112.164534040000035, -7.640103969999927 ], [ 112.16480037000008, -7.639556509999977 ], [ 112.16485216, -7.639578699999959 ], [ 112.164933540000106, -7.639412239999956 ], [ 112.165347840000095, -7.639611989999935 ], [ 112.165523171000018, -7.639206230999946 ], [ 112.165667927000072, -7.639277514999947 ], [ 112.165581882000083, -7.639454384999965 ], [ 112.1657230510001, -7.639506668999957 ], [ 112.16577067500009, -7.63939252199998 ], [ 112.1658138250001, -7.639410460999954 ], [ 112.16581361100009, -7.639410923999947 ], [ 112.166038625000056, -7.63950473999995 ], [ 112.166038883000056, -7.639504165999938 ], [ 112.166167658000063, -7.639556371999959 ], [ 112.166206121000073, -7.639469669999926 ], [ 112.166327098000011, -7.639517630999933 ], [ 112.166293435000057, -7.639599998999927 ], [ 112.166498241000113, -7.63968880699997 ], [ 112.166550225000037, -7.639711347999935 ], [ 112.166447565000112, -7.639980254999955 ], [ 112.166443663000109, -7.639984211999945 ], [ 112.166479813000024, -7.63999974799998 ], [ 112.166361460000076, -7.640246005999927 ], [ 112.166414358000111, -7.64026826099996 ], [ 112.166376326000091, -7.640355109999973 ], [ 112.166376168000056, -7.640355044999978 ], [ 112.166311030000088, -7.640504784999962 ] ] ] ] } },
{ "type": "Feature", "properties": { "fid": 7020, "kk": null, "gid": 0.0, "bstt": null, "luas": 14416.794549220533, "bsbtt": null, "idsls": "35061500110008", "kdkab": "06", "kdkec": "150", "kdsls": "0008", "nmkab": "KEDIRI", "nmkec": "KUNJANG", "nmsls": "RT 003 RW 001 DUSUN JULEK", "bstt_k": null, "kddesa": "011", "kdprov": "35", "khusus": null, "muatan": null, "nmdesa": "PAKIS", "nmprov": "JAWA TIMUR", "posisi": null, "rw_dki": null, "segmen": null, "subsls": null, "sumber": null, "dom_sls": null, "periode": "2025_1", "tingkat": null, "idsubsls": "3506150011000800", "nm_gedung": null, "wil_campur": null, "iddesa": "3506150011", "kdsubsls": "00" }, "geometry": { "type": "MultiPolygon", "coordinates": [ [ [ [ 112.167230530000097, -7.640615062999927 ], [ 112.167381093000017, -7.640672735999942 ], [ 112.167469101000052, -7.640519678999965 ], [ 112.167471573000057, -7.640521055999955 ], [ 112.167488012000035, -7.640458038999952 ], [ 112.167525579000085, -7.640475992999939 ], [ 112.167669498, -7.640544775999956 ], [ 112.167643264000048, -7.640621605999968 ], [ 112.167741419000095, -7.640663525999969 ], [ 112.167763782000065, -7.640602027999932 ], [ 112.167777811000065, -7.640607285999977 ], [ 112.167834142000061, -7.640439737999941 ], [ 112.167981578000081, -7.64048569199997 ], [ 112.167986055000029, -7.640473724999936 ], [ 112.16807652500006, -7.640277709999964 ], [ 112.168078470000069, -7.64027211299998 ], [ 112.168899391000082, -7.640582736999932 ], [ 112.168903374000024, -7.640584243999967 ], [ 112.168682460000014, -7.641171765999957 ], [ 112.168623549000017, -7.641178021999963 ], [ 112.167685192000022, -7.640802674999975 ], [ 112.167466382000043, -7.641342756999961 ], [ 112.167459124000061, -7.641339727999934 ], [ 112.166712027000017, -7.641027953999981 ], [ 112.166934085000094, -7.640488842999957 ], [ 112.167230080000081, -7.640615906999926 ], [ 112.167230530000097, -7.640615062999927 ] ] ] ] } },
{ "type": "Feature", "properties": { "fid": 7021, "kk": null, "gid": 0.0, "bstt": null, "luas": 14200.967475449172, "bsbtt": null, "idsls": "35061500110010", "kdkab": "06", "kdkec": "150", "kdsls": "0010", "nmkab": "KEDIRI", "nmkec": "KUNJANG", "nmsls": "RT 005 RW 002 DUSUN JULEK", "bstt_k": null, "kddesa": "011", "kdprov": "35", "khusus": null, "muatan": null, "nmdesa": "PAKIS", "nmprov": "JAWA TIMUR", "posisi": null, "rw_dki": null, "segmen": null, "subsls": null, "sumber": null, "dom_sls": null, "periode": "2025_1", "tingkat": null, "idsubsls": "3506150011001000", "nm_gedung": null, "wil_campur": null, "iddesa": "3506150011", "kdsubsls": "00" }, "geometry": { "type": "MultiPolygon", "coordinates": [ [ [ [ 112.166633113000103, -7.639235278999934 ], [ 112.166769437000085, -7.638855084999932 ], [ 112.166678894000029, -7.638796946999946 ], [ 112.166872997000041, -7.638388591999956 ], [ 112.167604290000099, -7.638668719999941 ], [ 112.167762474000028, -7.638739831999942 ], [ 112.167417991000093, -7.639576018999946 ], [ 112.167271095000046, -7.639961529999937 ], [ 112.167268611000054, -7.639968048999947 ], [ 112.166564416000028, -7.639674176999961 ], [ 112.166550225000037, -7.639711347999935 ], [ 112.166498241000113, -7.63968880699997 ], [ 112.166697391000071, -7.639266877999944 ], [ 112.166633113000103, -7.639235278999934 ] ] ] ] } },
{ "type": "Feature", "properties": { "fid": 7022, "kk": null, "gid": 0.0, "bstt": null, "luas": 20522.7134951689, "bsbtt": null, "idsls": "35061500110011", "kdkab": "06", "kdkec": "150", "kdsls": "0011", "nmkab": "KEDIRI", "nmkec": "KUNJANG", "nmsls": "RT 007 RW 003 DUSUN PAKIS", "bstt_k": null, "kddesa": "011", "kdprov": "35", "khusus": null, "muatan": null, "nmdesa": "PAKIS", "nmprov": "JAWA TIMUR", "posisi": null, "rw_dki": null, "segmen": null, "subsls": null, "sumber": null, "dom_sls": null, "periode": "2025_1", "tingkat": null, "idsubsls": "3506150011001100", "nm_gedung": null, "wil_campur": null, "iddesa": "3506150011", "kdsubsls": "00" }, "geometry": { "type": "MultiPolygon", "coordinates": [ [ [ [ 112.172091969, -7.641762238999945 ], [ 112.172149201000025, -7.641579535999938 ], [ 112.172170048000112, -7.641580149999982 ], [ 112.172180909000076, -7.641580468999962 ], [ 112.172227600000042, -7.641592465999963 ], [ 112.172236016000056, -7.641558059999966 ], [ 112.172455878000051, -7.641631043999951 ], [ 112.172385396000095, -7.641854165999973 ], [ 112.172557919000042, -7.641907860999936 ], [ 112.172400272, -7.642426270999977 ], [ 112.170676996000111, -7.641880231999949 ], [ 112.170881078000093, -7.641248398999949 ], [ 112.170527616000072, -7.641139965999969 ], [ 112.170668580000097, -7.640754192999964 ], [ 112.17068073400003, -7.640757568999959 ], [ 112.170983064000097, -7.640841545999933 ], [ 112.170982593000076, -7.640842815999974 ], [ 112.171529618000022, -7.641007551999962 ], [ 112.171857718000069, -7.64110549399993 ], [ 112.171695303000092, -7.641634692999958 ], [ 112.172091969, -7.641762238999945 ] ] ] ] } },
{ "type": "Feature", "properties": { "fid": 7023, "kk": null, "gid": 0.0, "bstt": null, "luas": 35289.868429766153, "bsbtt": null, "idsls": "35061500110012", "kdkab": "06", "kdkec": "150", "kdsls": "0012", "nmkab": "KEDIRI", "nmkec": "KUNJANG", "nmsls": "RT 008 RW 003 DUSUN PAKIS", "bstt_k": null, "kddesa": "011", "kdprov": "35", "khusus": null, "muatan": null, "nmdesa": "PAKIS", "nmprov": "JAWA TIMUR", "posisi": null, "rw_dki": null, "segmen": null, "subsls": null, "sumber": null, "dom_sls": null, "periode": "2025_1", "tingkat": null, "idsubsls": "3506150011001200", "nm_gedung": null, "wil_campur": null, "iddesa": "3506150011", "kdsubsls": "00" }, "geometry": { "type": "MultiPolygon", "coordinates": [ [ [ [ 112.172091969, -7.641762238999945 ], [ 112.171695303000092, -7.641634692999958 ], [ 112.171857718000069, -7.64110549399993 ], [ 112.172671441000034, -7.641348400999959 ], [ 112.172680474000117, -7.641351097999973 ], [ 112.173261161000028, -7.641527301999929 ], [ 112.17335163100006, -7.64128749799994 ], [ 112.17348417900007, -7.640997646999949 ], [ 112.173633559000109, -7.640576944999964 ], [ 112.173747172000049, -7.640250601999981 ], [ 112.17414437900004, -7.640393758999949 ], [ 112.174014372000102, -7.640753149999966 ], [ 112.173888136000073, -7.641149348999932 ], [ 112.173860784000112, -7.641146220999929 ], [ 112.173699221000106, -7.64166150799997 ], [ 112.17355886900009, -7.641614882999932 ], [ 112.173270629000058, -7.642691394999929 ], [ 112.173062339000012, -7.643495258999963 ], [ 112.172917167000037, -7.644036379999932 ], [ 112.172843309000086, -7.644269708999957 ], [ 112.172808814000064, -7.644284523999943 ], [ 112.172756215000049, -7.644297035999955 ], [ 112.172676266000053, -7.644278267999937 ], [ 112.172299660000022, -7.64416357999994 ], [ 112.172370299000022, -7.643935014999954 ], [ 112.172390656000061, -7.643922733999943 ], [ 112.17256107500009, -7.643364408999958 ], [ 112.172670480000079, -7.642962998999963 ], [ 112.17278619700005, -7.642548554999962 ], [ 112.172400272, -7.642426270999977 ], [ 112.172557919000042, -7.641907860999936 ], [ 112.172385396000095, -7.641854165999973 ], [ 112.172455878000051, -7.641631043999951 ], [ 112.172236016000056, -7.641558059999966 ], [ 112.172227600000042, -7.641592465999963 ], [ 112.172180909000076, -7.641580468999962 ], [ 112.172170048000112, -7.641580149999982 ], [ 112.172149201000025, -7.641579535999938 ], [ 112.172091969, -7.641762238999945 ] ] ] ] } },
{ "type": "Feature", "properties": { "fid": 7024, "kk": null, "gid": 0.0, "bstt": null, "luas": 11458.58841781762, "bsbtt": null, "idsls": "35061500110013", "kdkab": "06", "kdkec": "150", "kdsls": "0013", "nmkab": "KEDIRI", "nmkec": "KUNJANG", "nmsls": "RT 020 RW 008 DUSUN JASAN", "bstt_k": null, "kddesa": "011", "kdprov": "35", "khusus": null, "muatan": null, "nmdesa": "PAKIS", "nmprov": "JAWA TIMUR", "posisi": null, "rw_dki": null, "segmen": null, "subsls": null, "sumber": null, "dom_sls": null, "periode": "2025_1", "tingkat": null, "idsubsls": "3506150011001300", "nm_gedung": null, "wil_campur": null, "iddesa": "3506150011", "kdsubsls": "00" }, "geometry": { "type": "MultiPolygon", "coordinates": [ [ [ [ 112.172370299000022, -7.643935014999954 ], [ 112.172299660000022, -7.64416357999994 ], [ 112.172676266000053, -7.644278267999937 ], [ 112.172756215000049, -7.644297035999955 ], [ 112.172808814000064, -7.644284523999943 ], [ 112.172843309000086, -7.644269708999957 ], [ 112.172833009000101, -7.644302248999963 ], [ 112.172835744000054, -7.644303117999925 ], [ 112.172836238000059, -7.64430327499997 ], [ 112.172832355000082, -7.644314313999928 ], [ 112.172631099000114, -7.644886422999946 ], [ 112.172628927, -7.644885594999948 ], [ 112.172512485000084, -7.645214211999928 ], [ 112.172236542000064, -7.645078479999938 ], [ 112.172252322000077, -7.645025826999927 ], [ 112.171996693000096, -7.644936161999965 ], [ 112.171974601000102, -7.644974738999963 ], [ 112.171914639000079, -7.644950758999926 ], [ 112.171926211000027, -7.644914266999933 ], [ 112.171606460000021, -7.644805668999936 ], [ 112.17162066800006, -7.644771741999932 ], [ 112.171914639000079, -7.644069743999978 ], [ 112.171952510000096, -7.64405514699996 ], [ 112.172038772000064, -7.64377363899996 ], [ 112.172171320000075, -7.643804917999944 ], [ 112.1722239180001, -7.643832025999927 ], [ 112.172371194000107, -7.643932117999952 ], [ 112.172370299000022, -7.643935014999954 ] ] ] ] } },
{ "type": "Feature", "properties": { "fid": 7025, "kk": null, "gid": 0.0, "bstt": null, "luas": 15630.357152197364, "bsbtt": null, "idsls": "35061500110014", "kdkab": "06", "kdkec": "150", "kdsls": "0014", "nmkab": "KEDIRI", "nmkec": "KUNJANG", "nmsls": "RT 012 RW 005 DUSUN MADUH", "bstt_k": null, "kddesa": "011", "kdprov": "35", "khusus": null, "muatan": null, "nmdesa": "PAKIS", "nmprov": "JAWA TIMUR", "posisi": null, "rw_dki": null, "segmen": null, "subsls": null, "sumber": null, "dom_sls": null, "periode": "2025_1", "tingkat": null, "idsubsls": "3506150011001400", "nm_gedung": null, "wil_campur": null, "iddesa": "3506150011", "kdsubsls": "00" }, "geometry": { "type": "MultiPolygon", "coordinates": [ [ [ [ 112.174434874000099, -7.642185311999981 ], [ 112.174237542000014, -7.642114763999928 ], [ 112.174320354000088, -7.641867850999972 ], [ 112.174318428000106, -7.641867210999976 ], [ 112.174508798000033, -7.641334936999954 ], [ 112.174741495000035, -7.641401974999951 ], [ 112.175003608000111, -7.641477487999964 ], [ 112.175101074000054, -7.641189373999964 ], [ 112.175114199000063, -7.64119653299997 ], [ 112.175183402000016, -7.640886311999964 ], [ 112.175239636000015, -7.640894799999955 ], [ 112.175245073000042, -7.640895619999981 ], [ 112.175776965000068, -7.641072611999959 ], [ 112.175572340000031, -7.641658672999938 ], [ 112.175749071000041, -7.641741040999932 ], [ 112.175554472000044, -7.642328463999945 ], [ 112.175355635000074, -7.642265481999971 ], [ 112.175305140000091, -7.642442728999981 ], [ 112.17517288800002, -7.642406979999976 ], [ 112.175156467000079, -7.642469808999977 ], [ 112.175050132000024, -7.642446291999931 ], [ 112.175089164000042, -7.64229992199995 ], [ 112.175029524000024, -7.642275908999977 ], [ 112.175077914000099, -7.642119514999933 ], [ 112.174507905000041, -7.641930155999944 ], [ 112.174434874000099, -7.642185311999981 ] ] ] ] } },
{ "type": "Feature", "properties": { "fid": 7026, "kk": null, "gid": 0.0, "bstt": null, "luas": 15279.904680511594, "bsbtt": null, "idsls": "35061500110009", "kdkab": "06", "kdkec": "150", "kdsls": "0009", "nmkab": "KEDIRI", "nmkec": "KUNJANG", "nmsls": "RT 004 RW 002 DUSUN JULEK", "bstt_k": null, "kddesa": "011", "kdprov": "35", "khusus": null, "muatan": null, "nmdesa": "PAKIS", "nmprov": "JAWA TIMUR", "posisi": null, "rw_dki": null, "segmen": null, "subsls": null, "sumber": null, "dom_sls": null, "periode": "2025_1", "tingkat": null, "idsubsls": "3506150011000900", "nm_gedung": null, "wil_campur": null, "iddesa": "3506150011", "kdsubsls": "00" }, "geometry": { "type": "MultiPolygon", "coordinates": [ [ [ [ 112.167834142000061, -7.640439737999941 ], [ 112.167777811000065, -7.640607285999977 ], [ 112.167763782000065, -7.640602027999932 ], [ 112.167741419000095, -7.640663525999969 ], [ 112.167643264000048, -7.640621605999968 ], [ 112.167669498, -7.640544775999956 ], [ 112.167525579000085, -7.640475992999939 ], [ 112.167658440000082, -7.640110988999936 ], [ 112.167483382000114, -7.640056970999979 ], [ 112.167484804000082, -7.640052529999934 ], [ 112.167271095000046, -7.639961529999937 ], [ 112.167417991000093, -7.639576018999946 ], [ 112.167762474000028, -7.638739831999942 ], [ 112.168007490000036, -7.638849979999975 ], [ 112.168504347000066, -7.639046406999967 ], [ 112.168078470000069, -7.64027211299998 ], [ 112.16807652500006, -7.640277709999964 ], [ 112.167986055000029, -7.640473724999936 ], [ 112.167981578000081, -7.64048569199997 ], [ 112.167834142000061, -7.640439737999941 ] ] ] ] } },
{ "type": "Feature", "properties": { "fid": 7027, "kk": null, "gid": 0.0, "bstt": null, "luas": 15943.384554970631, "bsbtt": null, "idsls": "35061500110004", "kdkab": "06", "kdkec": "150", "kdsls": "0004", "nmkab": "KEDIRI", "nmkec": "KUNJANG", "nmsls": "RT 019 RW 008 DUSUN JASAN", "bstt_k": null, "kddesa": "011", "kdprov": "35", "khusus": null, "muatan": null, "nmdesa": "PAKIS", "nmprov": "JAWA TIMUR", "posisi": null, "rw_dki": null, "segmen": null, "subsls": null, "sumber": null, "dom_sls": null, "periode": "2025_1", "tingkat": null, "idsubsls": "3506150011000400", "nm_gedung": null, "wil_campur": null, "iddesa": "3506150011", "kdsubsls": "00" }, "geometry": { "type": "MultiPolygon", "coordinates": [ [ [ [ 112.173893820000103, -7.644639403999975 ], [ 112.173774294000054, -7.645205776999944 ], [ 112.173931344000039, -7.645251311999971 ], [ 112.173906653000017, -7.645377384999961 ], [ 112.173839245000067, -7.645364497999935 ], [ 112.173818331, -7.645462531999954 ], [ 112.173887388000026, -7.64547575499995 ], [ 112.173871554000016, -7.645556602999932 ], [ 112.173689313000068, -7.645500739999932 ], [ 112.173687457000028, -7.645510584999954 ], [ 112.173608539000043, -7.645471680999947 ], [ 112.173584600000027, -7.645581299999947 ], [ 112.173570615000017, -7.645577963999926 ], [ 112.173533896000095, -7.645721782999942 ], [ 112.173368462000099, -7.645673814999952 ], [ 112.173074962000101, -7.645540359999927 ], [ 112.173079170000051, -7.645514294999941 ], [ 112.172998169000039, -7.64548197299996 ], [ 112.172992909000072, -7.645503867999935 ], [ 112.172816178000062, -7.64543505599994 ], [ 112.172826697, -7.645393350999939 ], [ 112.172710981000023, -7.645366242999955 ], [ 112.172520035000048, -7.645245548999981 ], [ 112.17250479400002, -7.645235914999944 ], [ 112.172512485000084, -7.645214211999928 ], [ 112.172628927, -7.644885594999948 ], [ 112.172631099000114, -7.644886422999946 ], [ 112.172832355000082, -7.644314313999928 ], [ 112.172836238000059, -7.64430327499997 ], [ 112.173893820000103, -7.644639403999975 ] ] ] ] } },
{ "type": "Feature", "properties": { "fid": 7028, "kk": null, "gid": 0.0, "bstt": null, "luas": 16487.297689003772, "bsbtt": null, "idsls": "35061500110007", "kdkab": "06", "kdkec": "150", "kdsls": "0007", "nmkab": "KEDIRI", "nmkec": "KUNJANG", "nmsls": "RT 006 RW 002 DUSUN JULEK", "bstt_k": null, "kddesa": "011", "kdprov": "35", "khusus": null, "muatan": null, "nmdesa": "PAKIS", "nmprov": "JAWA TIMUR", "posisi": null, "rw_dki": null, "segmen": null, "subsls": null, "sumber": null, "dom_sls": null, "periode": "2025_1", "tingkat": null, "idsubsls": "3506150011000700", "nm_gedung": null, "wil_campur": null, "iddesa": "3506150011", "kdsubsls": "00" }, "geometry": { "type": "MultiPolygon", "coordinates": [ [ [ [ 112.166769437000085, -7.638855084999932 ], [ 112.166633113000103, -7.639235278999934 ], [ 112.166697391000071, -7.639266877999944 ], [ 112.166498241000113, -7.63968880699997 ], [ 112.166293435000057, -7.639599998999927 ], [ 112.166327098000011, -7.639517630999933 ], [ 112.166206121000073, -7.639469669999926 ], [ 112.166167658000063, -7.639556371999959 ], [ 112.166038883000056, -7.639504165999938 ], [ 112.166038625000056, -7.63950473999995 ], [ 112.16581361100009, -7.639410923999947 ], [ 112.1658138250001, -7.639410460999954 ], [ 112.16577067500009, -7.63939252199998 ], [ 112.1657230510001, -7.639506668999957 ], [ 112.165581882000083, -7.639454384999965 ], [ 112.165667927000072, -7.639277514999947 ], [ 112.165523171000018, -7.639206230999946 ], [ 112.165606780000076, -7.639012739999941 ], [ 112.165945571000066, -7.638140072999931 ], [ 112.165949730000079, -7.638129359999937 ], [ 112.165972990000114, -7.638069469999948 ], [ 112.166646350000065, -7.638303229999963 ], [ 112.166686910000067, -7.638317309999934 ], [ 112.166839411000069, -7.638375726999925 ], [ 112.166872997000041, -7.638388591999956 ], [ 112.166678894000029, -7.638796946999946 ], [ 112.166769437000085, -7.638855084999932 ] ] ] ] } },
{ "type": "Feature", "properties": { "fid": 7029, "kk": null, "gid": 0.0, "bstt": null, "luas": 12208.428696554583, "bsbtt": null, "idsls": "35061500110006", "kdkab": "06", "kdkec": "150", "kdsls": "0006", "nmkab": "KEDIRI", "nmkec": "KUNJANG", "nmsls": "RT 002 RW 001 DUSUN JULEK", "bstt_k": null, "kddesa": "011", "kdprov": "35", "khusus": null, "muatan": null, "nmdesa": "PAKIS", "nmprov": "JAWA TIMUR", "posisi": null, "rw_dki": null, "segmen": null, "subsls": null, "sumber": null, "dom_sls": null, "periode": "2025_1", "tingkat": null, "idsubsls": "3506150011000600", "nm_gedung": null, "wil_campur": null, "iddesa": "3506150011", "kdsubsls": "00" }, "geometry": { "type": "MultiPolygon", "coordinates": [ [ [ [ 112.167381093000017, -7.640672735999942 ], [ 112.167230530000097, -7.640615062999927 ], [ 112.167230080000081, -7.640615906999926 ], [ 112.166934085000094, -7.640488842999957 ], [ 112.166712027000017, -7.641027953999981 ], [ 112.166626909000115, -7.640992432999951 ], [ 112.166309497000043, -7.640858806999972 ], [ 112.166287231000069, -7.640849432999971 ], [ 112.166416454000114, -7.640553298999976 ], [ 112.166311030000088, -7.640504784999962 ], [ 112.166376168000056, -7.640355044999978 ], [ 112.166376326000091, -7.640355109999973 ], [ 112.166414358000111, -7.64026826099996 ], [ 112.166361460000076, -7.640246005999927 ], [ 112.166479813000024, -7.63999974799998 ], [ 112.166443663000109, -7.639984211999945 ], [ 112.166447565000112, -7.639980254999955 ], [ 112.166550225000037, -7.639711347999935 ], [ 112.166564416000028, -7.639674176999961 ], [ 112.167268611000054, -7.639968048999947 ], [ 112.167271095000046, -7.639961529999937 ], [ 112.167484804000082, -7.640052529999934 ], [ 112.167483382000114, -7.640056970999979 ], [ 112.167658440000082, -7.640110988999936 ], [ 112.167525579000085, -7.640475992999939 ], [ 112.167488012000035, -7.640458038999952 ], [ 112.167471573000057, -7.640521055999955 ], [ 112.167469101000052, -7.640519678999965 ], [ 112.167381093000017, -7.640672735999942 ] ] ] ] } }
]
}
