{
"type": "FeatureCollection",
"name": "iddesa_3506150001",
"crs": { "type": "name", "properties": { "name": "urn:ogc:def:crs:OGC:1.3:CRS84" } },
"features": [
{ "type": "Feature", "properties": { "fid": 6690, "kk": null, "gid": 0.0, "bstt": null, "luas": 18945.829721905204, "bsbtt": null, "idsls": "35061500010008", "kdkab": "06", "kdkec": "150", "kdsls": "0008", "nmkab": "KEDIRI", "nmkec": "KUNJANG", "nmsls": "RT 008 RW 003 DUSUN KAPAS", "bstt_k": null, "kddesa": "001", "kdprov": "35", "khusus": null, "muatan": null, "nmdesa": "KAPAS", "nmprov": "JAWA TIMUR", "posisi": null, "rw_dki": null, "segmen": null, "subsls": null, "sumber": null, "dom_sls": null, "periode": "2025_1", "tingkat": null, "idsubsls": "3506150001000800", "nm_gedung": null, "wil_campur": null, "iddesa": "3506150001", "kdsubsls": "00" }, "geometry": { "type": "MultiPolygon", "coordinates": [ [ [ [ 112.149399161000019, -7.65466807599995 ], [ 112.149284533000014, -7.655071765999935 ], [ 112.149212217000013, -7.655042348999928 ], [ 112.149213392000092, -7.655037727999968 ], [ 112.147543387000042, -7.654635526999925 ], [ 112.147543324000026, -7.654635416999952 ], [ 112.147833854000055, -7.65375290399993 ], [ 112.147834493, -7.65375308299997 ], [ 112.149447512000052, -7.654204342999947 ], [ 112.149446413000078, -7.654204058999937 ], [ 112.149322637000068, -7.654639964999944 ], [ 112.149399161000019, -7.65466807599995 ] ] ] ] } },
{ "type": "Feature", "properties": { "fid": 6691, "kk": null, "gid": 0.0, "bstt": null, "luas": 20385.923309366586, "bsbtt": null, "idsls": "35061500010009", "kdkab": "06", "kdkec": "150", "kdsls": "0009", "nmkab": "KEDIRI", "nmkec": "KUNJANG", "nmsls": "RT 009 RW 003 DUSUN KAPAS", "bstt_k": null, "kddesa": "001", "kdprov": "35", "khusus": null, "muatan": null, "nmdesa": "KAPAS", "nmprov": "JAWA TIMUR", "posisi": null, "rw_dki": null, "segmen": null, "subsls": null, "sumber": null, "dom_sls": null, "periode": "2025_1", "tingkat": null, "idsubsls": "3506150001000900", "nm_gedung": null, "wil_campur": null, "iddesa": "3506150001", "kdsubsls": "00" }, "geometry": { "type": "MultiPolygon", "coordinates": [ [ [ [ 112.14999074800005, -7.653723955999965 ], [ 112.150063890000069, -7.65375298999993 ], [ 112.150226510000039, -7.653793429999951 ], [ 112.150103370000011, -7.654234129999963 ], [ 112.150090410000075, -7.654269769999928 ], [ 112.150109850000035, -7.654337819999967 ], [ 112.150132540000072, -7.654392909999956 ], [ 112.150168180000037, -7.654438269999957 ], [ 112.150210310000034, -7.65446419999995 ], [ 112.150204067, -7.65449306499994 ], [ 112.150203719000046, -7.654491879999966 ], [ 112.149682797000082, -7.654328817999954 ], [ 112.149709062000056, -7.654274098999963 ], [ 112.149447512000052, -7.654204342999947 ], [ 112.147834493, -7.65375308299997 ], [ 112.147956971000099, -7.653260982999939 ], [ 112.148086139000043, -7.652967943999954 ], [ 112.149935070000083, -7.653701849999948 ], [ 112.149936090000097, -7.653702259999932 ], [ 112.14999074800005, -7.653723955999965 ] ] ] ] } },
{ "type": "Feature", "properties": { "fid": 6692, "kk": null, "gid": 0.0, "bstt": null, "luas": 27415.970265091273, "bsbtt": null, "idsls": "35061500010001", "kdkab": "06", "kdkec": "150", "kdsls": "0001", "nmkab": "KEDIRI", "nmkec": "KUNJANG", "nmsls": "RT 001 RW 001 DUSUN KAPAS", "bstt_k": null, "kddesa": "001", "kdprov": "35", "khusus": null, "muatan": null, "nmdesa": "KAPAS", "nmprov": "JAWA TIMUR", "posisi": null, "rw_dki": null, "segmen": null, "subsls": null, "sumber": null, "dom_sls": null, "periode": "2025_1", "tingkat": null, "idsubsls": "3506150001000100", "nm_gedung": null, "wil_campur": null, "iddesa": "3506150001", "kdsubsls": "00" }, "geometry": { "type": "MultiPolygon", "coordinates": [ [ [ [ 112.150693099000023, -7.656084162999946 ], [ 112.15073080500008, -7.656048575999932 ], [ 112.15073820900011, -7.656041587999937 ], [ 112.150923886000101, -7.656077893999964 ], [ 112.150912535000089, -7.656123297999955 ], [ 112.151286090000099, -7.656212063999931 ], [ 112.151276250000024, -7.656265029999929 ], [ 112.151169310000114, -7.656767 ], [ 112.15111945000001, -7.657001029999947 ], [ 112.151120330000026, -7.657001239999943 ], [ 112.151426740000034, -7.657075059999954 ], [ 112.151831470000047, -7.657172569999943 ], [ 112.151676622000082, -7.65777540299996 ], [ 112.150588391000042, -7.65754353899996 ], [ 112.149476508000021, -7.657307153999966 ], [ 112.149476785000047, -7.657305978999943 ], [ 112.149618064000038, -7.656706761999942 ], [ 112.149666929000091, -7.656499506999978 ], [ 112.149667468000075, -7.656499650999933 ], [ 112.150269928000057, -7.656660379999948 ], [ 112.150320269000076, -7.656591433999949 ], [ 112.150358573000062, -7.656562980999979 ], [ 112.150473482000052, -7.65604534199997 ], [ 112.150693099000023, -7.656084162999946 ] ] ] ] } },
{ "type": "Feature", "properties": { "fid": 6693, "kk": null, "gid": 0.0, "bstt": null, "luas": 14963.548326531789, "bsbtt": null, "idsls": "35061500010002", "kdkab": "06", "kdkec": "150", "kdsls": "0002", "nmkab": "KEDIRI", "nmkec": "KUNJANG", "nmsls": "RT 002 RW 001 DUSUN KAPAS", "bstt_k": null, "kddesa": "001", "kdprov": "35", "khusus": null, "muatan": null, "nmdesa": "KAPAS", "nmprov": "JAWA TIMUR", "posisi": null, "rw_dki": null, "segmen": null, "subsls": null, "sumber": null, "dom_sls": null, "periode": "2025_1", "tingkat": null, "idsubsls": "3506150001000200", "nm_gedung": null, "wil_campur": null, "iddesa": "3506150001", "kdsubsls": "00" }, "geometry": { "type": "MultiPolygon", "coordinates": [ [ [ [ 112.150473482000052, -7.65604534199997 ], [ 112.150358573000062, -7.656562980999979 ], [ 112.150320269000076, -7.656591433999949 ], [ 112.150269928000057, -7.656660379999948 ], [ 112.149667468000075, -7.656499650999933 ], [ 112.149892863000105, -7.655644363999954 ], [ 112.149991958000101, -7.655268336999939 ], [ 112.150005090000036, -7.65518954199996 ], [ 112.150006383, -7.655189936999932 ], [ 112.150528200000053, -7.65534932099996 ], [ 112.150832309000066, -7.655387334999944 ], [ 112.150862535000101, -7.655280117999951 ], [ 112.151107962000083, -7.655316313999947 ], [ 112.1510772580001, -7.655417952999926 ], [ 112.151088519000041, -7.655419360999929 ], [ 112.150923886000101, -7.656077893999964 ], [ 112.15073820900011, -7.656041587999937 ], [ 112.15073080500008, -7.656048575999932 ], [ 112.150693099000023, -7.656084162999946 ], [ 112.150473482000052, -7.65604534199997 ] ] ] ] } },
{ "type": "Feature", "properties": { "fid": 6694, "kk": null, "gid": 0.0, "bstt": null, "luas": 15562.096816959966, "bsbtt": null, "idsls": "35061500010004", "kdkab": "06", "kdkec": "150", "kdsls": "0004", "nmkab": "KEDIRI", "nmkec": "KUNJANG", "nmsls": "RT 004 RW 002 DUSUN KAPAS", "bstt_k": null, "kddesa": "001", "kdprov": "35", "khusus": null, "muatan": null, "nmdesa": "KAPAS", "nmprov": "JAWA TIMUR", "posisi": null, "rw_dki": null, "segmen": null, "subsls": null, "sumber": null, "dom_sls": null, "periode": "2025_1", "tingkat": null, "idsubsls": "3506150001000400", "nm_gedung": null, "wil_campur": null, "iddesa": "3506150001", "kdsubsls": "00" }, "geometry": { "type": "MultiPolygon", "coordinates": [ [ [ [ 112.149229643000012, -7.655492068999934 ], [ 112.149892863000105, -7.655644363999954 ], [ 112.149667468000075, -7.656499650999933 ], [ 112.149666929000091, -7.656499506999978 ], [ 112.149618064000038, -7.656706761999942 ], [ 112.148483364000072, -7.656428919999939 ], [ 112.148642172000109, -7.655789685999935 ], [ 112.148743825000111, -7.655380509999929 ], [ 112.149229643000012, -7.655492068999934 ] ] ] ] } },
{ "type": "Feature", "properties": { "fid": 6695, "kk": null, "gid": 0.0, "bstt": null, "luas": 33463.134041413839, "bsbtt": null, "idsls": "35061500010005", "kdkab": "06", "kdkec": "150", "kdsls": "0005", "nmkab": "KEDIRI", "nmkec": "KUNJANG", "nmsls": "RT 005 RW 002 DUSUN KAPAS", "bstt_k": null, "kddesa": "001", "kdprov": "35", "khusus": null, "muatan": null, "nmdesa": "KAPAS", "nmprov": "JAWA TIMUR", "posisi": null, "rw_dki": null, "segmen": null, "subsls": null, "sumber": null, "dom_sls": null, "periode": "2025_1", "tingkat": null, "idsubsls": "3506150001000500", "nm_gedung": null, "wil_campur": null, "iddesa": "3506150001", "kdsubsls": "00" }, "geometry": { "type": "MultiPolygon", "coordinates": [ [ [ [ 112.148483364000072, -7.656428919999939 ], [ 112.149618064000038, -7.656706761999942 ], [ 112.149476785000047, -7.657305978999943 ], [ 112.14946063900004, -7.657301134999955 ], [ 112.148889377000046, -7.657186225999965 ], [ 112.147611149000113, -7.656879801999935 ], [ 112.146958903000041, -7.656720022999934 ], [ 112.146766293000042, -7.656639039999959 ], [ 112.14676707700005, -7.656637033999971 ], [ 112.147227219000115, -7.655459418999953 ], [ 112.147227024000017, -7.655458210999939 ], [ 112.147266579000075, -7.655354927999952 ], [ 112.147640478000085, -7.655470149999928 ], [ 112.147601414000064, -7.65558970799998 ], [ 112.14762865900002, -7.65559938499996 ], [ 112.148642172000109, -7.655789685999935 ], [ 112.148483364000072, -7.656428919999939 ] ] ] ] } },
{ "type": "Feature", "properties": { "fid": 6696, "kk": null, "gid": 0.0, "bstt": null, "luas": 25908.473800749081, "bsbtt": null, "idsls": "35061500010010", "kdkab": "06", "kdkec": "150", "kdsls": "0010", "nmkab": "KEDIRI", "nmkec": "KUNJANG", "nmsls": "RT 001 RW 004 DUSUN PESANTREN", "bstt_k": null, "kddesa": "001", "kdprov": "35", "khusus": null, "muatan": null, "nmdesa": "KAPAS", "nmprov": "JAWA TIMUR", "posisi": null, "rw_dki": null, "segmen": null, "subsls": null, "sumber": null, "dom_sls": null, "periode": "2025_1", "tingkat": null, "idsubsls": "3506150001001000", "nm_gedung": null, "wil_campur": null, "iddesa": "3506150001", "kdsubsls": "00" }, "geometry": { "type": "MultiPolygon", "coordinates": [ [ [ [ 112.147543387000042, -7.654635526999925 ], [ 112.147543295000105, -7.654635504999931 ], [ 112.147542203000057, -7.654635241999927 ], [ 112.147266579000075, -7.655354927999952 ], [ 112.147227024000017, -7.655458210999939 ], [ 112.147227219000115, -7.655459418999953 ], [ 112.14676707700005, -7.656637033999971 ], [ 112.146665611000117, -7.656628916999978 ], [ 112.145863378000058, -7.655870282999956 ], [ 112.145860152000068, -7.655867232999981 ], [ 112.145893645000115, -7.655810376999966 ], [ 112.146403335000059, -7.654617592999955 ], [ 112.146477061000041, -7.654327604999935 ], [ 112.1464773780001, -7.654326355999956 ], [ 112.14754275100006, -7.654634421999958 ], [ 112.147543324000026, -7.654635416999952 ], [ 112.147543387000042, -7.654635526999925 ] ] ] ] } },
{ "type": "Feature", "properties": { "fid": 6697, "kk": null, "gid": 0.0, "bstt": null, "luas": 43996.306750727665, "bsbtt": null, "idsls": "35061500010013", "kdkab": "06", "kdkec": "150", "kdsls": "0013", "nmkab": "KEDIRI", "nmkec": "KUNJANG", "nmsls": "RT 004 RW 005 DUSUN PESANTREN", "bstt_k": null, "kddesa": "001", "kdprov": "35", "khusus": null, "muatan": null, "nmdesa": "KAPAS", "nmprov": "JAWA TIMUR", "posisi": null, "rw_dki": null, "segmen": null, "subsls": null, "sumber": null, "dom_sls": null, "periode": "2025_1", "tingkat": null, "idsubsls": "3506150001001300", "nm_gedung": null, "wil_campur": null, "iddesa": "3506150001", "kdsubsls": "00" }, "geometry": { "type": "MultiPolygon", "coordinates": [ [ [ [ 112.144200408000074, -7.652199465999956 ], [ 112.143585498000107, -7.653972325999973 ], [ 112.144067022000058, -7.654169312999954 ], [ 112.145223705000035, -7.65456325599996 ], [ 112.145104487000026, -7.65482155899997 ], [ 112.145032259000118, -7.655016357999955 ], [ 112.144931577000079, -7.655228665999971 ], [ 112.144929388000037, -7.655228665999971 ], [ 112.142347359000041, -7.654303350999953 ], [ 112.142348248000076, -7.654300370999977 ], [ 112.142347075000089, -7.654295154999943 ], [ 112.14275262700005, -7.653207356999928 ], [ 112.14283273, -7.652960889999974 ], [ 112.14286340000001, -7.65287995999995 ], [ 112.142916610000043, -7.652741379999952 ], [ 112.142916040000046, -7.652741079999942 ], [ 112.142925480000031, -7.65271617999997 ], [ 112.142926812000042, -7.652712666999946 ], [ 112.143092400000114, -7.652275799999927 ], [ 112.143095390000099, -7.652267909999978 ], [ 112.143324470000039, -7.652339139999981 ], [ 112.143481, -7.652387809999937 ], [ 112.14378884000007, -7.652410489999966 ], [ 112.143918450000115, -7.652433169999938 ], [ 112.143945740000049, -7.652359499999932 ], [ 112.144018900000106, -7.652151259999926 ], [ 112.144200408000074, -7.652199465999956 ] ] ] ] } },
{ "type": "Feature", "properties": { "fid": 6698, "kk": null, "gid": 0.0, "bstt": null, "luas": 43335.725551488111, "bsbtt": null, "idsls": "35061500010014", "kdkab": "06", "kdkec": "150", "kdsls": "0014", "nmkab": "KEDIRI", "nmkec": "KUNJANG", "nmsls": "RT 005 RW 005 DUSUN PESANTREN", "bstt_k": null, "kddesa": "001", "kdprov": "35", "khusus": null, "muatan": null, "nmdesa": "KAPAS", "nmprov": "JAWA TIMUR", "posisi": null, "rw_dki": null, "segmen": null, "subsls": null, "sumber": null, "dom_sls": null, "periode": "2025_1", "tingkat": null, "idsubsls": "3506150001001400", "nm_gedung": null, "wil_campur": null, "iddesa": "3506150001", "kdsubsls": "00" }, "geometry": { "type": "MultiPolygon", "coordinates": [ [ [ [ 112.145344123000086, -7.654260877999945 ], [ 112.145258732000116, -7.654230535999943 ], [ 112.145207232000075, -7.654361913999935 ], [ 112.145292685000072, -7.654392021999968 ], [ 112.14523581200001, -7.654537021999943 ], [ 112.145223705000035, -7.65456325599996 ], [ 112.144067022000058, -7.654169312999954 ], [ 112.143585498000107, -7.653972325999973 ], [ 112.144200408000074, -7.652199465999956 ], [ 112.14422629, -7.652206339999964 ], [ 112.14455681000004, -7.652293829999962 ], [ 112.144637820000071, -7.65229058999995 ], [ 112.144803080000088, -7.652326239999979 ], [ 112.14498454000011, -7.652371599999981 ], [ 112.145101200000113, -7.652394289999961 ], [ 112.145311830000082, -7.652468819999967 ], [ 112.14558683000007, -7.652520039999956 ], [ 112.14569817000006, -7.652399769999931 ], [ 112.145979387000011, -7.652460874999974 ], [ 112.145478763000028, -7.653917606999926 ], [ 112.145344123000086, -7.654260877999945 ] ] ] ] } },
{ "type": "Feature", "properties": { "fid": 6699, "kk": null, "gid": 0.0, "bstt": null, "luas": 24950.269422168327, "bsbtt": null, "idsls": "35061500010018", "kdkab": "06", "kdkec": "150", "kdsls": "0018", "nmkab": "KEDIRI", "nmkec": "KUNJANG", "nmsls": "RT 004 RW 007 DUSUN BUNGKUL", "bstt_k": null, "kddesa": "001", "kdprov": "35", "khusus": null, "muatan": null, "nmdesa": "KAPAS", "nmprov": "JAWA TIMUR", "posisi": null, "rw_dki": null, "segmen": null, "subsls": null, "sumber": null, "dom_sls": null, "periode": "2025_1", "tingkat": null, "idsubsls": "3506150001001800", "nm_gedung": null, "wil_campur": null, "iddesa": "3506150001", "kdsubsls": "00" }, "geometry": { "type": "MultiPolygon", "coordinates": [ [ [ [ 112.156318340000098, -7.662493644999927 ], [ 112.155989122000051, -7.663421142999937 ], [ 112.155990044000077, -7.663421741999969 ], [ 112.155982561000087, -7.663422469999944 ], [ 112.155884050000054, -7.663836652999976 ], [ 112.155651508, -7.663828796999951 ], [ 112.155430444000103, -7.663734680999937 ], [ 112.155330167000102, -7.663623658999938 ], [ 112.155320291000066, -7.66361272499995 ], [ 112.155047829000068, -7.663539441999944 ], [ 112.154977074000044, -7.663520410999979 ], [ 112.154925431000038, -7.663506520999931 ], [ 112.154932193000036, -7.663483335999956 ], [ 112.154935222000063, -7.66347295199995 ], [ 112.154913701000055, -7.663468059999957 ], [ 112.154816715000038, -7.663446017999945 ], [ 112.154781361, -7.663437982999938 ], [ 112.154780310000092, -7.663444022999954 ], [ 112.154732234000107, -7.663441388999956 ], [ 112.154438887000083, -7.663344309999957 ], [ 112.154429991000029, -7.663341365999941 ], [ 112.154427999000063, -7.663340706999975 ], [ 112.154519926000035, -7.663012394999953 ], [ 112.154589966000117, -7.66293578799997 ], [ 112.154679705000035, -7.662635929999965 ], [ 112.154856868000024, -7.662141621999979 ], [ 112.154856993000067, -7.662141273999964 ], [ 112.155307875000062, -7.662224445999925 ], [ 112.155612110000106, -7.662311995999971 ], [ 112.156317981000029, -7.662492566999958 ], [ 112.156318340000098, -7.662493644999927 ] ] ] ] } },
{ "type": "Feature", "properties": { "fid": 6700, "kk": null, "gid": 0.0, "bstt": null, "luas": 19965.279785003098, "bsbtt": null, "idsls": "35061500010019", "kdkab": "06", "kdkec": "150", "kdsls": "0019", "nmkab": "KEDIRI", "nmkec": "KUNJANG", "nmsls": "RT 005 RW 007 DUSUN BUNGKUL", "bstt_k": null, "kddesa": "001", "kdprov": "35", "khusus": null, "muatan": null, "nmdesa": "KAPAS", "nmprov": "JAWA TIMUR", "posisi": null, "rw_dki": null, "segmen": null, "subsls": null, "sumber": null, "dom_sls": null, "periode": "2025_1", "tingkat": null, "idsubsls": "3506150001001900", "nm_gedung": null, "wil_campur": null, "iddesa": "3506150001", "kdsubsls": "00" }, "geometry": { "type": "MultiPolygon", "coordinates": [ [ [ [ 112.155982561000087, -7.663422469999944 ], [ 112.155990044000077, -7.663421741999969 ], [ 112.155989122000051, -7.663421142999937 ], [ 112.156318340000098, -7.662493644999927 ], [ 112.156318528000043, -7.662493114999961 ], [ 112.156443287000116, -7.662602551999953 ], [ 112.156713597000021, -7.662860823999949 ], [ 112.157076929000027, -7.66316287099994 ], [ 112.157254581000075, -7.663286059999962 ], [ 112.157235688000014, -7.663337339999941 ], [ 112.157209630000011, -7.663408069999946 ], [ 112.157195920000049, -7.663428339999939 ], [ 112.157069810000053, -7.663791429999947 ], [ 112.157014540000091, -7.664040149999948 ], [ 112.157003030000055, -7.664095419999967 ], [ 112.156981039000016, -7.664113105999945 ], [ 112.156956800000103, -7.664132599999959 ], [ 112.156925830000091, -7.664157509999939 ], [ 112.156852911000101, -7.664413844999956 ], [ 112.156100748000085, -7.664250677999974 ], [ 112.155864363000092, -7.664195958999926 ], [ 112.155864792000102, -7.664194058999954 ], [ 112.155945032000091, -7.663838712999961 ], [ 112.155884050000054, -7.663836652999976 ], [ 112.155982561000087, -7.663422469999944 ] ] ] ] } },
{ "type": "Feature", "properties": { "fid": 6701, "kk": null, "gid": 0.0, "bstt": null, "luas": 24649.503264961189, "bsbtt": null, "idsls": "35061500010020", "kdkab": "06", "kdkec": "150", "kdsls": "0020", "nmkab": "KEDIRI", "nmkec": "KUNJANG", "nmsls": "RT 006 RW 008 DUSUN BUNGKUL", "bstt_k": null, "kddesa": "001", "kdprov": "35", "khusus": null, "muatan": null, "nmdesa": "KAPAS", "nmprov": "JAWA TIMUR", "posisi": null, "rw_dki": null, "segmen": null, "subsls": null, "sumber": null, "dom_sls": null, "periode": "2025_1", "tingkat": null, "idsubsls": "3506150001002000", "nm_gedung": null, "wil_campur": null, "iddesa": "3506150001", "kdsubsls": "00" }, "geometry": { "type": "MultiPolygon", "coordinates": [ [ [ [ 112.155884050000054, -7.663836652999976 ], [ 112.155945032000091, -7.663838712999961 ], [ 112.155864792000102, -7.664194058999954 ], [ 112.155864363000092, -7.664195958999926 ], [ 112.156100748000085, -7.664250677999974 ], [ 112.156852911000101, -7.664413844999956 ], [ 112.156722070000114, -7.664873799999953 ], [ 112.156710401000055, -7.664919765999969 ], [ 112.156580224000095, -7.665432548999945 ], [ 112.156553780000081, -7.665536716999952 ], [ 112.156139598000095, -7.665460506999977 ], [ 112.155675584000051, -7.665399221999962 ], [ 112.155327573000022, -7.665331370999979 ], [ 112.155108699000039, -7.665169403999926 ], [ 112.155110285000092, -7.665163418999953 ], [ 112.155326479000109, -7.66434752999993 ], [ 112.155332840000028, -7.66432038399995 ], [ 112.155219267, -7.664289052999948 ], [ 112.155330167000102, -7.663623658999938 ], [ 112.155430444000103, -7.663734680999937 ], [ 112.155651508, -7.663828796999951 ], [ 112.155884050000054, -7.663836652999976 ] ] ] ] } },
{ "type": "Feature", "properties": { "fid": 6702, "kk": null, "gid": 0.0, "bstt": null, "luas": 18248.075839263387, "bsbtt": null, "idsls": "35061500010023", "kdkab": "06", "kdkec": "150", "kdsls": "0023", "nmkab": "KEDIRI", "nmkec": "KUNJANG", "nmsls": "RT 001 RW 009 DUSUN WATES", "bstt_k": null, "kddesa": "001", "kdprov": "35", "khusus": null, "muatan": null, "nmdesa": "KAPAS", "nmprov": "JAWA TIMUR", "posisi": null, "rw_dki": null, "segmen": null, "subsls": null, "sumber": null, "dom_sls": null, "periode": "2025_1", "tingkat": null, "idsubsls": "3506150001002300", "nm_gedung": null, "wil_campur": null, "iddesa": "3506150001", "kdsubsls": "00" }, "geometry": { "type": "MultiPolygon", "coordinates": [ [ [ [ 112.14254624900002, -7.660458871999936 ], [ 112.142548579000049, -7.660717493999925 ], [ 112.142513559, -7.660721871999954 ], [ 112.142329705000066, -7.660721871999954 ], [ 112.142329705000066, -7.660725189999937 ], [ 112.142241479000063, -7.660723751999967 ], [ 112.14224217800006, -7.66107853799997 ], [ 112.14121621400011, -7.661024716999975 ], [ 112.141204564000077, -7.661267899999928 ], [ 112.141014091000102, -7.661261705999948 ], [ 112.141014109000025, -7.661261398999955 ], [ 112.141017471000055, -7.661203962999934 ], [ 112.141026496000109, -7.66104977699996 ], [ 112.140984724000077, -7.66104741099997 ], [ 112.1408422720001, -7.66103934399996 ], [ 112.140876377000041, -7.660486849999927 ], [ 112.140877399000033, -7.660486975999959 ], [ 112.141071533000058, -7.660280321999949 ], [ 112.141090887000018, -7.659949665999932 ], [ 112.142544202000067, -7.660231592999935 ], [ 112.14254624900002, -7.660458871999936 ] ] ] ] } },
{ "type": "Feature", "properties": { "fid": 6703, "kk": null, "gid": 0.0, "bstt": null, "luas": 148143.87682109812, "bsbtt": null, "idsls": "35061500010024", "kdkab": "06", "kdkec": "150", "kdsls": "0024", "nmkab": "KEDIRI", "nmkec": "KUNJANG", "nmsls": "RT 002 RW 009 DUSUN WATES", "bstt_k": null, "kddesa": "001", "kdprov": "35", "khusus": null, "muatan": null, "nmdesa": "KAPAS", "nmprov": "JAWA TIMUR", "posisi": null, "rw_dki": null, "segmen": null, "subsls": null, "sumber": null, "dom_sls": null, "periode": "2025_1", "tingkat": null, "idsubsls": "3506150001002400", "nm_gedung": null, "wil_campur": null, "iddesa": "3506150001", "kdsubsls": "00" }, "geometry": { "type": "MultiPolygon", "coordinates": [ [ [ [ 112.144714093000061, -7.663629434999962 ], [ 112.145076828000015, -7.663471355999945 ], [ 112.145133380000061, -7.662660769999945 ], [ 112.144779054000082, -7.662661653999976 ], [ 112.144779090000043, -7.662661139999955 ], [ 112.141463664000071, -7.662633082999946 ], [ 112.141463340000087, -7.662633079999978 ], [ 112.141509210000095, -7.662249979999956 ], [ 112.141505300000063, -7.662249444999929 ], [ 112.141522660000078, -7.662111807999963 ], [ 112.141014754000025, -7.662049485999944 ], [ 112.141039350000028, -7.661611619999974 ], [ 112.140993990000084, -7.661605139999949 ], [ 112.140999326000042, -7.661513982999963 ], [ 112.141014091000102, -7.661261705999948 ], [ 112.141204564000077, -7.661267899999928 ], [ 112.14121621400011, -7.661024716999975 ], [ 112.14224217800006, -7.66107853799997 ], [ 112.142241479000063, -7.660723751999967 ], [ 112.142329705000066, -7.660725189999937 ], [ 112.142329705000066, -7.660721871999954 ], [ 112.142513559, -7.660721871999954 ], [ 112.142548579000049, -7.660717493999925 ], [ 112.14254624900002, -7.660458871999936 ], [ 112.143032292000044, -7.660535827999979 ], [ 112.143038858000068, -7.660728437999978 ], [ 112.143583856000078, -7.660765646999948 ], [ 112.143583854000099, -7.660765732999948 ], [ 112.144025983, -7.660803812999973 ], [ 112.146219106000103, -7.660926382999946 ], [ 112.146242820000111, -7.660926890999974 ], [ 112.146090128000083, -7.663123431999963 ], [ 112.146127179000018, -7.663142624999978 ], [ 112.146303507000084, -7.663258149999933 ], [ 112.146508021000045, -7.663392141999964 ], [ 112.146188464000033, -7.664897998999948 ], [ 112.145569049000073, -7.664902376999976 ], [ 112.144646351, -7.664660811999966 ], [ 112.144683534000023, -7.664099782999926 ], [ 112.144683620000023, -7.664098485999943 ], [ 112.144706830000018, -7.663748289999944 ], [ 112.144706830000018, -7.663737739999931 ], [ 112.144714093000061, -7.663629434999962 ] ] ] ] } },
{ "type": "Feature", "properties": { "fid": 6704, "kk": null, "gid": 0.0, "bstt": null, "luas": 254705.94389610132, "bsbtt": null, "idsls": "35061500011001", "kdkab": "06", "kdkec": "150", "kdsls": "1001", "nmkab": "KEDIRI", "nmkec": "KUNJANG", "nmsls": "PERSAWAHAN KAPAS", "bstt_k": null, "kddesa": "001", "kdprov": "35", "khusus": null, "muatan": null, "nmdesa": "KAPAS", "nmprov": "JAWA TIMUR", "posisi": null, "rw_dki": null, "segmen": null, "subsls": null, "sumber": null, "dom_sls": null, "periode": "2025_1", "tingkat": null, "idsubsls": "3506150001100100", "nm_gedung": null, "wil_campur": null, "iddesa": "3506150001", "kdsubsls": "00" }, "geometry": { "type": "MultiPolygon", "coordinates": [ [ [ [ 112.149802221000073, -7.663064513999927 ], [ 112.150485506000109, -7.663230751999947 ], [ 112.151025730000015, -7.663362183999936 ], [ 112.151100283, -7.663377815999979 ], [ 112.150651271000015, -7.664308410999979 ], [ 112.150321911000106, -7.664991020999935 ], [ 112.149984844000073, -7.665652021999961 ], [ 112.149262458000067, -7.667232377999937 ], [ 112.149255992, -7.66724652399995 ], [ 112.149255992, -7.667247286999952 ], [ 112.14923088, -7.667298469999935 ], [ 112.149229630000036, -7.667298069999958 ], [ 112.149159630000099, -7.667448069999978 ], [ 112.149149567000109, -7.667470561999949 ], [ 112.149150385000098, -7.667472785999962 ], [ 112.148833016000026, -7.668083445999969 ], [ 112.148791752000079, -7.668068677999941 ], [ 112.146477847000028, -7.667240565999975 ], [ 112.144227200000046, -7.666435093999951 ], [ 112.144197252000026, -7.666424375999952 ], [ 112.144198230000029, -7.666421502999981 ], [ 112.144205690000035, -7.66642442999995 ], [ 112.144428679000043, -7.665769272999967 ], [ 112.144432060000099, -7.665759339999966 ], [ 112.144432120000033, -7.665758579999931 ], [ 112.144432060000099, -7.665758579999931 ], [ 112.144643750000114, -7.664678389999949 ], [ 112.144645920000016, -7.664667319999978 ], [ 112.144646351, -7.664660811999966 ], [ 112.145569049000073, -7.664902376999976 ], [ 112.146188464000033, -7.664897998999948 ], [ 112.146508021000045, -7.663392141999964 ], [ 112.146303507000084, -7.663258149999933 ], [ 112.146729221000101, -7.663178328999948 ], [ 112.147149460000037, -7.663152063999974 ], [ 112.147823594000101, -7.663230858999952 ], [ 112.14865531800001, -7.663068891999956 ], [ 112.14920031500003, -7.662974775999942 ], [ 112.149487041000043, -7.662985718999948 ], [ 112.149635876000048, -7.663016361999951 ], [ 112.149802221000073, -7.663064513999927 ] ] ] ] } },
{ "type": "Feature", "properties": { "fid": 6705, "kk": null, "gid": 0.0, "bstt": null, "luas": 315684.47708514234, "bsbtt": null, "idsls": "35061500011002", "kdkab": "06", "kdkec": "150", "kdsls": "1002", "nmkab": "KEDIRI", "nmkec": "KUNJANG", "nmsls": "PERSAWAHAN BUNGKUL", "bstt_k": null, "kddesa": "001", "kdprov": "35", "khusus": null, "muatan": null, "nmdesa": "KAPAS", "nmprov": "JAWA TIMUR", "posisi": null, "rw_dki": null, "segmen": null, "subsls": null, "sumber": null, "dom_sls": null, "periode": "2025_1", "tingkat": null, "idsubsls": "3506150001100200", "nm_gedung": null, "wil_campur": null, "iddesa": "3506150001", "kdsubsls": "00" }, "geometry": { "type": "MultiPolygon", "coordinates": [ [ [ [ 112.153994304000094, -7.663972773999944 ], [ 112.153925459000106, -7.66411783999996 ], [ 112.154168173000016, -7.664242120999972 ], [ 112.15411176900011, -7.664380252999933 ], [ 112.154111725, -7.664380360999928 ], [ 112.155110285000092, -7.665163418999953 ], [ 112.155108699000039, -7.665169403999926 ], [ 112.155327573000022, -7.665331370999979 ], [ 112.155675584000051, -7.665399221999962 ], [ 112.156139598000095, -7.665460506999977 ], [ 112.156553780000081, -7.665536716999952 ], [ 112.15655369000001, -7.665537069999971 ], [ 112.15655356000002, -7.665537049999955 ], [ 112.156431830000088, -7.665615429999946 ], [ 112.156174750000105, -7.66569200999993 ], [ 112.156172900000115, -7.665694959999939 ], [ 112.156121110000072, -7.66590580999997 ], [ 112.156087820000039, -7.666183239999953 ], [ 112.156091520000018, -7.666316409999979 ], [ 112.15608412000006, -7.666704809999942 ], [ 112.156050830000027, -7.667119109999931 ], [ 112.156013840000014, -7.667196789999934 ], [ 112.155995340000118, -7.667281869999954 ], [ 112.155965750000064, -7.667426139999975 ], [ 112.155984240000066, -7.667518609999945 ], [ 112.155995340000118, -7.66761108999998 ], [ 112.155969450000043, -7.66775905999998 ], [ 112.155806690000077, -7.668325019999941 ], [ 112.155721610000114, -7.668879879999963 ], [ 112.155685690000041, -7.669078009999964 ], [ 112.155632321000098, -7.669381876999978 ], [ 112.155632310000101, -7.669381939999937 ], [ 112.155598765000036, -7.669372492999969 ], [ 112.155546373000107, -7.669357737999974 ], [ 112.15549074, -7.669342069999971 ], [ 112.155270300000097, -7.669271839999965 ], [ 112.154988680000088, -7.669175419999931 ], [ 112.153883290000067, -7.668804659999978 ], [ 112.152810267000064, -7.668436541999938 ], [ 112.15279965000002, -7.668432899999971 ], [ 112.152648740000018, -7.668381129999943 ], [ 112.152305800000022, -7.668263479999951 ], [ 112.151585, -7.66802397999993 ], [ 112.150439233000043, -7.667625253999972 ], [ 112.150436090000085, -7.667624159999946 ], [ 112.150436100000093, -7.667624099999955 ], [ 112.149476927000023, -7.667315783999925 ], [ 112.149262458000067, -7.667232377999937 ], [ 112.149984844000073, -7.665652021999961 ], [ 112.150321911000106, -7.664991020999935 ], [ 112.150651271000015, -7.664308410999979 ], [ 112.150798604000101, -7.664367939999977 ], [ 112.151082179000014, -7.663763089999975 ], [ 112.151176117000091, -7.663803970999936 ], [ 112.151831888000061, -7.664001939999935 ], [ 112.151826674000063, -7.664011556999981 ], [ 112.152147013000103, -7.664104129999942 ], [ 112.152319080000098, -7.663714865999964 ], [ 112.152042296000104, -7.663613834999978 ], [ 112.152347596000027, -7.66305069799995 ], [ 112.152316953000081, -7.663006922999955 ], [ 112.152322318000074, -7.66296885099996 ], [ 112.153003040000044, -7.663381385999969 ], [ 112.153002031000028, -7.663385575999939 ], [ 112.15300082300007, -7.663388048999934 ], [ 112.153994304000094, -7.663972773999944 ] ] ] ] } },
{ "type": "Feature", "properties": { "fid": 6706, "kk": null, "gid": 0.0, "bstt": null, "luas": 35930.719408269368, "bsbtt": null, "idsls": "35061500011003", "kdkab": "06", "kdkec": "150", "kdsls": "1003", "nmkab": "KEDIRI", "nmkec": "KUNJANG", "nmsls": "PERSAWAHAN BUNGKUL", "bstt_k": null, "kddesa": "001", "kdprov": "35", "khusus": null, "muatan": null, "nmdesa": "KAPAS", "nmprov": "JAWA TIMUR", "posisi": null, "rw_dki": null, "segmen": null, "subsls": null, "sumber": null, "dom_sls": null, "periode": "2025_1", "tingkat": null, "idsubsls": "3506150001100300", "nm_gedung": null, "wil_campur": null, "iddesa": "3506150001", "kdsubsls": "00" }, "geometry": { "type": "MultiPolygon", "coordinates": [ [ [ [ 112.153636870000014, -7.660103159999949 ], [ 112.153881980000051, -7.66016443999996 ], [ 112.153925708000088, -7.660175372999959 ], [ 112.153968490000011, -7.660186069999952 ], [ 112.15419648000011, -7.660245949999933 ], [ 112.154236806000085, -7.660266109999952 ], [ 112.15426557, -7.660280489999934 ], [ 112.15443138, -7.660351879999951 ], [ 112.154539610000029, -7.660395639999933 ], [ 112.154613310000059, -7.660434789999954 ], [ 112.15463864000003, -7.660487749999959 ], [ 112.15463864000003, -7.660526899999979 ], [ 112.154659360000096, -7.660577559999979 ], [ 112.154707730000041, -7.660653559999957 ], [ 112.154772210000033, -7.66078712999996 ], [ 112.154820570000084, -7.660865429999944 ], [ 112.154905770000028, -7.660971359999962 ], [ 112.154917290000071, -7.660982869999941 ], [ 112.154845900000055, -7.661194739999928 ], [ 112.154841290000036, -7.661222369999962 ], [ 112.154935710000018, -7.661307579999971 ], [ 112.155050860000074, -7.661399699999947 ], [ 112.155182120000063, -7.661475689999975 ], [ 112.155306480000036, -7.661494119999929 ], [ 112.155417020000073, -7.661535569999955 ], [ 112.15551374000006, -7.661636899999962 ], [ 112.155592040000101, -7.661729009999931 ], [ 112.15563119, -7.661784279999949 ], [ 112.155686450000076, -7.661857969999971 ], [ 112.155748630000062, -7.661910939999927 ], [ 112.155859170000099, -7.661961599999927 ], [ 112.155988130000082, -7.66201456999994 ], [ 112.156126310000104, -7.662069839999958 ], [ 112.156257570000093, -7.66213431999995 ], [ 112.156342780000045, -7.662191889999974 ], [ 112.15639805, -7.662260979999928 ], [ 112.156444110000052, -7.662318549999952 ], [ 112.156483260000073, -7.662341579999975 ], [ 112.156577680000055, -7.662389939999969 ], [ 112.156642160000047, -7.662452119999955 ], [ 112.156743480000046, -7.662532719999945 ], [ 112.156844810000052, -7.662583389999952 ], [ 112.156939230000035, -7.662606409999967 ], [ 112.15709813, -7.662620229999959 ], [ 112.15714274700008, -7.662616797999931 ], [ 112.15715416, -7.662615919999951 ], [ 112.157158010000103, -7.662615629999948 ], [ 112.157003710000026, -7.662963359999935 ], [ 112.157268540000018, -7.663060089999931 ], [ 112.157329750000031, -7.663082029999941 ], [ 112.157267830000023, -7.663250099999971 ], [ 112.157267560000037, -7.663250829999981 ], [ 112.157254581000075, -7.663286059999962 ], [ 112.157076929000027, -7.66316287099994 ], [ 112.156713597000021, -7.662860823999949 ], [ 112.156443287000116, -7.662602551999953 ], [ 112.156318528000043, -7.662493114999961 ], [ 112.156318340000098, -7.662493644999927 ], [ 112.156317981000029, -7.662492566999958 ], [ 112.155612110000106, -7.662311995999971 ], [ 112.155307875000062, -7.662224445999925 ], [ 112.154856993000067, -7.662141273999964 ], [ 112.154856868000024, -7.662141621999979 ], [ 112.153850477000105, -7.661921252999946 ], [ 112.153488492000065, -7.661841988999981 ], [ 112.154347015000099, -7.660806138999931 ], [ 112.153280592000101, -7.660501136999926 ], [ 112.15329108200001, -7.660479604999978 ], [ 112.153592024000091, -7.660160075999954 ], [ 112.153592390000085, -7.660160229999974 ], [ 112.153611910000109, -7.660134359999972 ], [ 112.153636170000027, -7.660102989999928 ], [ 112.153636870000014, -7.660103159999949 ] ] ] ] } },
{ "type": "Feature", "properties": { "fid": 6707, "kk": null, "gid": 0.0, "bstt": null, "luas": 556533.58195905027, "bsbtt": null, "idsls": "35061500011005", "kdkab": "06", "kdkec": "150", "kdsls": "1005", "nmkab": "KEDIRI", "nmkec": "KUNJANG", "nmsls": "PERSAWAHAN KAPAS", "bstt_k": null, "kddesa": "001", "kdprov": "35", "khusus": null, "muatan": null, "nmdesa": "KAPAS", "nmprov": "JAWA TIMUR", "posisi": null, "rw_dki": null, "segmen": null, "subsls": null, "sumber": null, "dom_sls": null, "periode": "2025_1", "tingkat": null, "idsubsls": "3506150001100500", "nm_gedung": null, "wil_campur": null, "iddesa": "3506150001", "kdsubsls": "00" }, "geometry": { "type": "MultiPolygon", "coordinates": [ [ [ [ 112.144931577000079, -7.655228665999971 ], [ 112.144962219000035, -7.655241798999953 ], [ 112.145146074000081, -7.65530746099995 ], [ 112.145393402000082, -7.65545848499994 ], [ 112.145859605000055, -7.65586996899998 ], [ 112.145863378000058, -7.655870282999956 ], [ 112.146665611000117, -7.656628916999978 ], [ 112.14676707700005, -7.656637033999971 ], [ 112.146766293000042, -7.656639039999959 ], [ 112.146958903000041, -7.656720022999934 ], [ 112.147611149000113, -7.656879801999935 ], [ 112.148889377000046, -7.657186225999965 ], [ 112.14946063900004, -7.657301134999955 ], [ 112.149476785000047, -7.657305978999943 ], [ 112.149476508000021, -7.657307153999966 ], [ 112.150588391000042, -7.65754353899996 ], [ 112.151676622000082, -7.65777540299996 ], [ 112.151676530000032, -7.657775759999936 ], [ 112.151677170000085, -7.657775969999932 ], [ 112.151677100000029, -7.657776229999968 ], [ 112.151679620000095, -7.657776789999957 ], [ 112.151687590000051, -7.657779449999964 ], [ 112.151691230000097, -7.657779449999964 ], [ 112.151692210000078, -7.657779449999964 ], [ 112.15163136000001, -7.657961129999933 ], [ 112.151627650000023, -7.657972209999969 ], [ 112.15162749000001, -7.657972849999965 ], [ 112.151496680000037, -7.658526509999945 ], [ 112.151493030000097, -7.658541329999935 ], [ 112.151421050000067, -7.658833639999955 ], [ 112.15142013000002, -7.658841019999954 ], [ 112.15142013000002, -7.658854849999955 ], [ 112.151376780000078, -7.659046689999968 ], [ 112.151375710000025, -7.659052909999957 ], [ 112.15136571000005, -7.659111259999975 ], [ 112.15136709, -7.659133849999932 ], [ 112.15137862000006, -7.659153679999974 ], [ 112.151385610000034, -7.659159149999937 ], [ 112.151410440000063, -7.659178579999946 ], [ 112.151411630000098, -7.659179049999977 ], [ 112.151430660000074, -7.659186489999968 ], [ 112.151452870000071, -7.659195179999926 ], [ 112.151464860000033, -7.659199799999953 ], [ 112.151517890000036, -7.659222849999935 ], [ 112.151547880000066, -7.659237969999936 ], [ 112.151575530000059, -7.659251909999966 ], [ 112.151599520000104, -7.659269699999982 ], [ 112.151618420000091, -7.65928372999997 ], [ 112.151656240000079, -7.659319229999937 ], [ 112.151658520000069, -7.659323609999944 ], [ 112.151661770000032, -7.659329839999941 ], [ 112.151661770000032, -7.659330109999928 ], [ 112.151661770000032, -7.659333389999972 ], [ 112.151661770000032, -7.659333529999969 ], [ 112.151589012000045, -7.659384505999981 ], [ 112.151588511000114, -7.659384547999935 ], [ 112.148836847000098, -7.661285336999981 ], [ 112.148744919000023, -7.661272204999932 ], [ 112.147825646000115, -7.661092726999925 ], [ 112.147116492, -7.660943892999967 ], [ 112.146525531000066, -7.660932948999971 ], [ 112.146242820000111, -7.660926890999974 ], [ 112.146219106000103, -7.660926382999946 ], [ 112.144025983, -7.660803812999973 ], [ 112.143583854000099, -7.660765732999948 ], [ 112.143583856000078, -7.660765646999948 ], [ 112.143038858000068, -7.660728437999978 ], [ 112.143032292000044, -7.660535827999979 ], [ 112.14254624900002, -7.660458871999936 ], [ 112.142544202000067, -7.660231592999935 ], [ 112.141090887000018, -7.659949665999932 ], [ 112.141091850000066, -7.659933219999971 ], [ 112.141259700000091, -7.659132709999938 ], [ 112.140942140000107, -7.659048459999951 ], [ 112.141051860000061, -7.658517029999928 ], [ 112.141052310000077, -7.658517029999928 ], [ 112.141311550000069, -7.657603239999958 ], [ 112.141688228000021, -7.656439632999934 ], [ 112.141706800000065, -7.65638225999993 ], [ 112.141966110000112, -7.655581229999939 ], [ 112.142347359000041, -7.654303350999953 ], [ 112.144929388000037, -7.655228665999971 ], [ 112.144931577000079, -7.655228665999971 ] ] ] ] } },
{ "type": "Feature", "properties": { "fid": 6708, "kk": null, "gid": 0.0, "bstt": null, "luas": 21145.799395361224, "bsbtt": null, "idsls": "35061500010003", "kdkab": "06", "kdkec": "150", "kdsls": "0003", "nmkab": "KEDIRI", "nmkec": "KUNJANG", "nmsls": "RT 003 RW 001 DUSUN KAPAS", "bstt_k": null, "kddesa": "001", "kdprov": "35", "khusus": null, "muatan": null, "nmdesa": "KAPAS", "nmprov": "JAWA TIMUR", "posisi": null, "rw_dki": null, "segmen": null, "subsls": null, "sumber": null, "dom_sls": null, "periode": "2025_1", "tingkat": null, "idsubsls": "3506150001000300", "nm_gedung": null, "wil_campur": null, "iddesa": "3506150001", "kdsubsls": "00" }, "geometry": { "type": "MultiPolygon", "coordinates": [ [ [ [ 112.1510772580001, -7.655417952999926 ], [ 112.151107962000083, -7.655316313999947 ], [ 112.150862535000101, -7.655280117999951 ], [ 112.150832309000066, -7.655387334999944 ], [ 112.150528200000053, -7.65534932099996 ], [ 112.150006383, -7.655189936999932 ], [ 112.150204153, -7.654493369999955 ], [ 112.150207770000065, -7.65449437999996 ], [ 112.151926740000022, -7.654976499999975 ], [ 112.151949090000016, -7.654982769999947 ], [ 112.152100150000024, -7.655025719999969 ], [ 112.152078650000021, -7.65509738999998 ], [ 112.152058390000093, -7.655162479999944 ], [ 112.152052400000116, -7.655181719999973 ], [ 112.152051318000076, -7.655185195999934 ], [ 112.15196613, -7.655458929999952 ], [ 112.151902260000043, -7.65566795999996 ], [ 112.15182468, -7.655921839999962 ], [ 112.151824090000105, -7.655923769999958 ], [ 112.151630150000074, -7.655884709999953 ], [ 112.15157148000003, -7.655872889999955 ], [ 112.151571320000016, -7.655872859999931 ], [ 112.151567690000093, -7.655872129999977 ], [ 112.15137401000004, -7.655837079999969 ], [ 112.151368480000087, -7.655857369999978 ], [ 112.15135741000006, -7.655903479999949 ], [ 112.151318770000103, -7.65604148999995 ], [ 112.151318670000023, -7.656041829999936 ], [ 112.15131679000001, -7.656049369999948 ], [ 112.151314980000052, -7.656056589999935 ], [ 112.15129206000006, -7.656179929999951 ], [ 112.151286090000099, -7.656212063999931 ], [ 112.150912535000089, -7.656123297999955 ], [ 112.150923886000101, -7.656077893999964 ], [ 112.151088519000041, -7.655419360999929 ], [ 112.1510772580001, -7.655417952999926 ] ] ] ] } },
{ "type": "Feature", "properties": { "fid": 6709, "kk": null, "gid": 0.0, "bstt": null, "luas": 17372.236716888106, "bsbtt": null, "idsls": "35061500010006", "kdkab": "06", "kdkec": "150", "kdsls": "0006", "nmkab": "KEDIRI", "nmkec": "KUNJANG", "nmsls": "RT 006 RW 002 DUSUN KAPAS", "bstt_k": null, "kddesa": "001", "kdprov": "35", "khusus": null, "muatan": null, "nmdesa": "KAPAS", "nmprov": "JAWA TIMUR", "posisi": null, "rw_dki": null, "segmen": null, "subsls": null, "sumber": null, "dom_sls": null, "periode": "2025_1", "tingkat": null, "idsubsls": "3506150001000600", "nm_gedung": null, "wil_campur": null, "iddesa": "3506150001", "kdsubsls": "00" }, "geometry": { "type": "MultiPolygon", "coordinates": [ [ [ [ 112.147543387000042, -7.654635526999925 ], [ 112.149213392000092, -7.655037727999968 ], [ 112.149212217000013, -7.655042348999928 ], [ 112.149284533000014, -7.655071765999935 ], [ 112.149341353000068, -7.655094878999932 ], [ 112.149229643000012, -7.655492068999934 ], [ 112.148743825000111, -7.655380509999929 ], [ 112.148642172000109, -7.655789685999935 ], [ 112.14762865900002, -7.65559938499996 ], [ 112.147601414000064, -7.65558970799998 ], [ 112.147640478000085, -7.655470149999928 ], [ 112.147266579000075, -7.655354927999952 ], [ 112.147542203000057, -7.654635241999927 ], [ 112.147543295000105, -7.654635504999931 ], [ 112.147543387000042, -7.654635526999925 ] ] ] ] } },
{ "type": "Feature", "properties": { "fid": 6710, "kk": null, "gid": 0.0, "bstt": null, "luas": 11162.985104116404, "bsbtt": null, "idsls": "35061500010007", "kdkab": "06", "kdkec": "150", "kdsls": "0007", "nmkab": "KEDIRI", "nmkec": "KUNJANG", "nmsls": "RT 007 RW 003 DUSUN KAPAS", "bstt_k": null, "kddesa": "001", "kdprov": "35", "khusus": null, "muatan": null, "nmdesa": "KAPAS", "nmprov": "JAWA TIMUR", "posisi": null, "rw_dki": null, "segmen": null, "subsls": null, "sumber": null, "dom_sls": null, "periode": "2025_1", "tingkat": null, "idsubsls": "3506150001000700", "nm_gedung": null, "wil_campur": null, "iddesa": "3506150001", "kdsubsls": "00" }, "geometry": { "type": "MultiPolygon", "coordinates": [ [ [ [ 112.149284533000014, -7.655071765999935 ], [ 112.149399161000019, -7.65466807599995 ], [ 112.149322637000068, -7.654639964999944 ], [ 112.149446413000078, -7.654204058999937 ], [ 112.149447512000052, -7.654204342999947 ], [ 112.149709062000056, -7.654274098999963 ], [ 112.149682797000082, -7.654328817999954 ], [ 112.150203719000046, -7.654491879999966 ], [ 112.150204067, -7.65449306499994 ], [ 112.150204010000039, -7.65449332999998 ], [ 112.150204153, -7.654493369999955 ], [ 112.150006383, -7.655189936999932 ], [ 112.150005090000036, -7.65518954199996 ], [ 112.149991958000101, -7.655268336999939 ], [ 112.149892863000105, -7.655644363999954 ], [ 112.149229643000012, -7.655492068999934 ], [ 112.149341353000068, -7.655094878999932 ], [ 112.149284533000014, -7.655071765999935 ] ] ] ] } },
{ "type": "Feature", "properties": { "fid": 6711, "kk": null, "gid": 0.0, "bstt": null, "luas": 17385.682052193362, "bsbtt": null, "idsls": "35061500010021", "kdkab": "06", "kdkec": "150", "kdsls": "0021", "nmkab": "KEDIRI", "nmkec": "KUNJANG", "nmsls": "RT 007 RW 008 DUSUN BUNGKUL", "bstt_k": null, "kddesa": "001", "kdprov": "35", "khusus": null, "muatan": null, "nmdesa": "KAPAS", "nmprov": "JAWA TIMUR", "posisi": null, "rw_dki": null, "segmen": null, "subsls": null, "sumber": null, "dom_sls": null, "periode": "2025_1", "tingkat": null, "idsubsls": "3506150001002100", "nm_gedung": null, "wil_campur": null, "iddesa": "3506150001", "kdsubsls": "00" }, "geometry": { "type": "MultiPolygon", "coordinates": [ [ [ [ 112.154429991000029, -7.663341365999941 ], [ 112.154438887000083, -7.663344309999957 ], [ 112.154732234000107, -7.663441388999956 ], [ 112.154780310000092, -7.663444022999954 ], [ 112.154781361, -7.663437982999938 ], [ 112.154816715000038, -7.663446017999945 ], [ 112.154913701000055, -7.663468059999957 ], [ 112.154935222000063, -7.66347295199995 ], [ 112.154932193000036, -7.663483335999956 ], [ 112.154925431000038, -7.663506520999931 ], [ 112.154977074000044, -7.663520410999979 ], [ 112.155047829000068, -7.663539441999944 ], [ 112.155320291000066, -7.66361272499995 ], [ 112.155330167000102, -7.663623658999938 ], [ 112.155219267, -7.664289052999948 ], [ 112.155332840000028, -7.66432038399995 ], [ 112.155326479000109, -7.66434752999993 ], [ 112.155110285000092, -7.665163418999953 ], [ 112.154111725, -7.664380360999928 ], [ 112.15411176900011, -7.664380252999933 ], [ 112.154168173000016, -7.664242120999972 ], [ 112.154218974000059, -7.66411771099996 ], [ 112.154317467000055, -7.663844117999929 ], [ 112.154311998000026, -7.663785053999959 ], [ 112.154306523000059, -7.663725925999927 ], [ 112.154284636000057, -7.663496107999947 ], [ 112.154281562000051, -7.663494233999927 ], [ 112.154310289000023, -7.663314489999948 ], [ 112.154429326000013, -7.663342092999926 ], [ 112.154429991000029, -7.663341365999941 ] ] ] ] } },
{ "type": "Feature", "properties": { "fid": 6712, "kk": null, "gid": 0.0, "bstt": null, "luas": 18492.360658469312, "bsbtt": null, "idsls": "35061500010017", "kdkab": "06", "kdkec": "150", "kdsls": "0017", "nmkab": "KEDIRI", "nmkec": "KUNJANG", "nmsls": "RT 003 RW 006 DUSUN BUNGKUL", "bstt_k": null, "kddesa": "001", "kdprov": "35", "khusus": null, "muatan": null, "nmdesa": "KAPAS", "nmprov": "JAWA TIMUR", "posisi": null, "rw_dki": null, "segmen": null, "subsls": null, "sumber": null, "dom_sls": null, "periode": "2025_1", "tingkat": null, "idsubsls": "3506150001001700", "nm_gedung": null, "wil_campur": null, "iddesa": "3506150001", "kdsubsls": "00" }, "geometry": { "type": "MultiPolygon", "coordinates": [ [ [ [ 112.154310289000023, -7.663314489999948 ], [ 112.154320114000029, -7.663253018999967 ], [ 112.154167752000035, -7.663209858999949 ], [ 112.154175199000065, -7.663190776999954 ], [ 112.154037308000056, -7.663138247999939 ], [ 112.153986966000048, -7.663182021999944 ], [ 112.153873152000074, -7.663186399999972 ], [ 112.153708996000091, -7.663138247999939 ], [ 112.153658655000072, -7.663227985999981 ], [ 112.153393816000062, -7.66314700199996 ], [ 112.153109954000115, -7.66297198999996 ], [ 112.153238745000067, -7.662570590999962 ], [ 112.153338903000076, -7.662600515999941 ], [ 112.153415540000083, -7.662310812999976 ], [ 112.153708282000025, -7.662387410999941 ], [ 112.153735101000052, -7.66226163999994 ], [ 112.153775994000057, -7.662072510999963 ], [ 112.153850477000105, -7.661921252999946 ], [ 112.154856868000024, -7.662141621999979 ], [ 112.154679705000035, -7.662635929999965 ], [ 112.154589966000117, -7.66293578799997 ], [ 112.154519926000035, -7.663012394999953 ], [ 112.154427999000063, -7.663340706999975 ], [ 112.154429991000029, -7.663341365999941 ], [ 112.154429326000013, -7.663342092999926 ], [ 112.154310289000023, -7.663314489999948 ] ] ] ] } },
{ "type": "Feature", "properties": { "fid": 6713, "kk": null, "gid": 0.0, "bstt": null, "luas": 35612.526854975207, "bsbtt": null, "idsls": "35061500010012", "kdkab": "06", "kdkec": "150", "kdsls": "0012", "nmkab": "KEDIRI", "nmkec": "KUNJANG", "nmsls": "RT 003 RW 004 DUSUN PESANTREN", "bstt_k": null, "kddesa": "001", "kdprov": "35", "khusus": null, "muatan": null, "nmdesa": "KAPAS", "nmprov": "JAWA TIMUR", "posisi": null, "rw_dki": null, "segmen": null, "subsls": null, "sumber": null, "dom_sls": null, "periode": "2025_1", "tingkat": null, "idsubsls": "3506150001001200", "nm_gedung": null, "wil_campur": null, "iddesa": "3506150001", "kdsubsls": "00" }, "geometry": { "type": "MultiPolygon", "coordinates": [ [ [ [ 112.14659972600009, -7.653892044999964 ], [ 112.146476831000086, -7.654326902999969 ], [ 112.146477061000041, -7.654327604999935 ], [ 112.146403335000059, -7.654617592999955 ], [ 112.145893645000115, -7.655810376999966 ], [ 112.145860152000068, -7.655867232999981 ], [ 112.145863378000058, -7.655870282999956 ], [ 112.145859605000055, -7.65586996899998 ], [ 112.145393402000082, -7.65545848499994 ], [ 112.145146074000081, -7.65530746099995 ], [ 112.144962219000035, -7.655241798999953 ], [ 112.144931577000079, -7.655228665999971 ], [ 112.145032259000118, -7.655016357999955 ], [ 112.145104487000026, -7.65482155899997 ], [ 112.145223705000035, -7.65456325599996 ], [ 112.14523581200001, -7.654537021999943 ], [ 112.145292685000072, -7.654392021999968 ], [ 112.145207232000075, -7.654361913999935 ], [ 112.145258732000116, -7.654230535999943 ], [ 112.145344123000086, -7.654260877999945 ], [ 112.145478763000028, -7.653917606999926 ], [ 112.145979387000011, -7.652460874999974 ], [ 112.146435417000021, -7.652559964999966 ], [ 112.146232786000041, -7.653289436999955 ], [ 112.146274372000107, -7.653306946999976 ], [ 112.146611439000026, -7.653407628999958 ], [ 112.146541461000083, -7.653650772999981 ], [ 112.146673881000083, -7.65367476199998 ], [ 112.14662132, -7.653859073999968 ], [ 112.146620157000029, -7.65385889099997 ], [ 112.14659972600009, -7.653892044999964 ] ] ] ] } },
{ "type": "Feature", "properties": { "fid": 6714, "kk": null, "gid": 0.0, "bstt": null, "luas": 29747.072177432379, "bsbtt": null, "idsls": "35061500010011", "kdkab": "06", "kdkec": "150", "kdsls": "0011", "nmkab": "KEDIRI", "nmkec": "KUNJANG", "nmsls": "RT 002 RW 004 DUSUN PESANTREN", "bstt_k": null, "kddesa": "001", "kdprov": "35", "khusus": null, "muatan": null, "nmdesa": "KAPAS", "nmprov": "JAWA TIMUR", "posisi": null, "rw_dki": null, "segmen": null, "subsls": null, "sumber": null, "dom_sls": null, "periode": "2025_1", "tingkat": null, "idsubsls": "3506150001001100", "nm_gedung": null, "wil_campur": null, "iddesa": "3506150001", "kdsubsls": "00" }, "geometry": { "type": "MultiPolygon", "coordinates": [ [ [ [ 112.14659972600009, -7.653892044999964 ], [ 112.146620157000029, -7.65385889099997 ], [ 112.14662132, -7.653859073999968 ], [ 112.146673881000083, -7.65367476199998 ], [ 112.146541461000083, -7.653650772999981 ], [ 112.146611439000026, -7.653407628999958 ], [ 112.146274372000107, -7.653306946999976 ], [ 112.146232786000041, -7.653289436999955 ], [ 112.146435417000021, -7.652559964999966 ], [ 112.146460570000045, -7.652565429999981 ], [ 112.146472330000051, -7.652568029999941 ], [ 112.146493010000086, -7.652572589999977 ], [ 112.146493040000109, -7.652572489999955 ], [ 112.147384340000031, -7.652766149999934 ], [ 112.147461020000037, -7.652770199999964 ], [ 112.147545550000018, -7.652774659999977 ], [ 112.147607410000091, -7.652777919999949 ], [ 112.14765571800001, -7.652797094999926 ], [ 112.148086139000043, -7.652967943999954 ], [ 112.147956971000099, -7.653260982999939 ], [ 112.147834493, -7.65375308299997 ], [ 112.147833854000055, -7.65375290399993 ], [ 112.147543324000026, -7.654635416999952 ], [ 112.14754275100006, -7.654634421999958 ], [ 112.1464773780001, -7.654326355999956 ], [ 112.146477061000041, -7.654327604999935 ], [ 112.146476831000086, -7.654326902999969 ], [ 112.14659972600009, -7.653892044999964 ] ] ] ] } },
{ "type": "Feature", "properties": { "fid": 6715, "kk": null, "gid": 0.0, "bstt": null, "luas": 188444.55576945128, "bsbtt": null, "idsls": "35061500011004", "kdkab": "06", "kdkec": "150", "kdsls": "1004", "nmkab": "KEDIRI", "nmkec": "KUNJANG", "nmsls": "PERSAWAHAN KAPAS", "bstt_k": null, "kddesa": "001", "kdprov": "35", "khusus": null, "muatan": null, "nmdesa": "KAPAS", "nmprov": "JAWA TIMUR", "posisi": null, "rw_dki": null, "segmen": null, "subsls": null, "sumber": null, "dom_sls": null, "periode": "2025_1", "tingkat": null, "idsubsls": "3506150001100400", "nm_gedung": null, "wil_campur": null, "iddesa": "3506150001", "kdsubsls": "00" }, "geometry": { "type": "MultiPolygon", "coordinates": [ [ [ [ 112.146090128000083, -7.663123431999963 ], [ 112.146242820000111, -7.660926890999974 ], [ 112.146525531000066, -7.660932948999971 ], [ 112.147116492, -7.660943892999967 ], [ 112.147825646000115, -7.661092726999925 ], [ 112.148744919000023, -7.661272204999932 ], [ 112.148836847000098, -7.661285336999981 ], [ 112.151588511000114, -7.659384547999935 ], [ 112.151589012000045, -7.659384505999981 ], [ 112.151588750000087, -7.659384689999968 ], [ 112.151617360000046, -7.659396129999948 ], [ 112.151671920000013, -7.659418379999977 ], [ 112.15180505, -7.659505369999977 ], [ 112.15182225, -7.659516609999969 ], [ 112.151853660000029, -7.659538039999973 ], [ 112.151919550000116, -7.659583009999949 ], [ 112.151920140000016, -7.659583249999969 ], [ 112.152125230000024, -7.659666019999975 ], [ 112.152259480000112, -7.659707889999936 ], [ 112.152518590000113, -7.659788689999971 ], [ 112.152837790000035, -7.65989363999995 ], [ 112.152960370000073, -7.659933949999981 ], [ 112.153141850000111, -7.65999802999994 ], [ 112.153239830000075, -7.66003263999994 ], [ 112.153475940000021, -7.660111489999963 ], [ 112.153544080000074, -7.660139879999974 ], [ 112.153544120000106, -7.660139899999933 ], [ 112.153583090000097, -7.660156309999934 ], [ 112.153583160000039, -7.660156459999939 ], [ 112.153586370000085, -7.660157689999949 ], [ 112.153592024000091, -7.660160075999954 ], [ 112.15329108200001, -7.660479604999978 ], [ 112.153280592000101, -7.660501136999926 ], [ 112.153267963000076, -7.660497524999926 ], [ 112.152783907000071, -7.661131030999968 ], [ 112.152639336000107, -7.661038924999957 ], [ 112.152327648000096, -7.661384797999972 ], [ 112.152328507000107, -7.661385726999981 ], [ 112.152298895000058, -7.661404843999946 ], [ 112.150889219000078, -7.662814519999927 ], [ 112.150485506000109, -7.663230751999947 ], [ 112.149802221000073, -7.663064513999927 ], [ 112.149635876000048, -7.663016361999951 ], [ 112.149487041000043, -7.662985718999948 ], [ 112.14920031500003, -7.662974775999942 ], [ 112.14865531800001, -7.663068891999956 ], [ 112.147823594000101, -7.663230858999952 ], [ 112.147149460000037, -7.663152063999974 ], [ 112.146729221000101, -7.663178328999948 ], [ 112.146303507000084, -7.663258149999933 ], [ 112.146127179000018, -7.663142624999978 ], [ 112.146090128000083, -7.663123431999963 ] ] ] ] } },
{ "type": "Feature", "properties": { "fid": 6716, "kk": null, "gid": 0.0, "bstt": null, "luas": 54735.405505973453, "bsbtt": null, "idsls": "35061500010015", "kdkab": "06", "kdkec": "150", "kdsls": "0015", "nmkab": "KEDIRI", "nmkec": "KUNJANG", "nmsls": "RT 001 RW 006 DUSUN BUNGKUL", "bstt_k": null, "kddesa": "001", "kdprov": "35", "khusus": null, "muatan": null, "nmdesa": "KAPAS", "nmprov": "JAWA TIMUR", "posisi": null, "rw_dki": null, "segmen": null, "subsls": null, "sumber": null, "dom_sls": null, "periode": "2025_1", "tingkat": null, "idsubsls": "3506150001001500", "nm_gedung": null, "wil_campur": null, "iddesa": "3506150001", "kdsubsls": "00" }, "geometry": { "type": "MultiPolygon", "coordinates": [ [ [ [ 112.153280592000101, -7.660501136999926 ], [ 112.154347015000099, -7.660806138999931 ], [ 112.153488492000065, -7.661841988999981 ], [ 112.152991087000032, -7.661733072999937 ], [ 112.152673719000063, -7.662065761999941 ], [ 112.152489864000017, -7.662339354999972 ], [ 112.152384804, -7.662525398999946 ], [ 112.152322318000074, -7.66296885099996 ], [ 112.152316953000081, -7.663006922999955 ], [ 112.152347596000027, -7.66305069799995 ], [ 112.152042296000104, -7.663613834999978 ], [ 112.152319080000098, -7.663714865999964 ], [ 112.152147013000103, -7.664104129999942 ], [ 112.151826674000063, -7.664011556999981 ], [ 112.151831888000061, -7.664001939999935 ], [ 112.151176117000091, -7.663803970999936 ], [ 112.151082179000014, -7.663763089999975 ], [ 112.150798604000101, -7.664367939999977 ], [ 112.150651271000015, -7.664308410999979 ], [ 112.151100283, -7.663377815999979 ], [ 112.151025730000015, -7.663362183999936 ], [ 112.150485506000109, -7.663230751999947 ], [ 112.150889219000078, -7.662814519999927 ], [ 112.152298895000058, -7.661404843999946 ], [ 112.152328507000107, -7.661385726999981 ], [ 112.152327648000096, -7.661384797999972 ], [ 112.152639336000107, -7.661038924999957 ], [ 112.152783907000071, -7.661131030999968 ], [ 112.153267963000076, -7.660497524999926 ], [ 112.153280592000101, -7.660501136999926 ] ] ] ] } },
{ "type": "Feature", "properties": { "fid": 6717, "kk": null, "gid": 0.0, "bstt": null, "luas": 15686.050532835652, "bsbtt": null, "idsls": "35061500010016", "kdkab": "06", "kdkec": "150", "kdsls": "0016", "nmkab": "KEDIRI", "nmkec": "KUNJANG", "nmsls": "RT 002 RW 006 DUSUN BUNGKUL", "bstt_k": null, "kddesa": "001", "kdprov": "35", "khusus": null, "muatan": null, "nmdesa": "KAPAS", "nmprov": "JAWA TIMUR", "posisi": null, "rw_dki": null, "segmen": null, "subsls": null, "sumber": null, "dom_sls": null, "periode": "2025_1", "tingkat": null, "idsubsls": "3506150001001600", "nm_gedung": null, "wil_campur": null, "iddesa": "3506150001", "kdsubsls": "00" }, "geometry": { "type": "MultiPolygon", "coordinates": [ [ [ [ 112.153003040000044, -7.663381385999969 ], [ 112.152322318000074, -7.66296885099996 ], [ 112.152384804, -7.662525398999946 ], [ 112.152489864000017, -7.662339354999972 ], [ 112.152673719000063, -7.662065761999941 ], [ 112.152991087000032, -7.661733072999937 ], [ 112.153488492000065, -7.661841988999981 ], [ 112.153850477000105, -7.661921252999946 ], [ 112.153775994000057, -7.662072510999963 ], [ 112.153735101000052, -7.66226163999994 ], [ 112.153708282000025, -7.662387410999941 ], [ 112.153415540000083, -7.662310812999976 ], [ 112.153338903000076, -7.662600515999941 ], [ 112.153238745000067, -7.662570590999962 ], [ 112.153109954000115, -7.66297198999996 ], [ 112.153102713000067, -7.662967524999942 ], [ 112.153003040000044, -7.663381385999969 ] ] ] ] } },
{ "type": "Feature", "properties": { "fid": 6718, "kk": null, "gid": 0.0, "bstt": null, "luas": 10151.673249360916, "bsbtt": null, "idsls": "35061500010022", "kdkab": "06", "kdkec": "150", "kdsls": "0022", "nmkab": "KEDIRI", "nmkec": "KUNJANG", "nmsls": "RT 008 RW 008 DUSUN BUNGKUL", "bstt_k": null, "kddesa": "001", "kdprov": "35", "khusus": null, "muatan": null, "nmdesa": "KAPAS", "nmprov": "JAWA TIMUR", "posisi": null, "rw_dki": null, "segmen": null, "subsls": null, "sumber": null, "dom_sls": null, "periode": "2025_1", "tingkat": null, "idsubsls": "3506150001002200", "nm_gedung": null, "wil_campur": null, "iddesa": "3506150001", "kdsubsls": "00" }, "geometry": { "type": "MultiPolygon", "coordinates": [ [ [ [ 112.153109954000115, -7.66297198999996 ], [ 112.153393816000062, -7.66314700199996 ], [ 112.153658655000072, -7.663227985999981 ], [ 112.153708996000091, -7.663138247999939 ], [ 112.153873152000074, -7.663186399999972 ], [ 112.153986966000048, -7.663182021999944 ], [ 112.154037308000056, -7.663138247999939 ], [ 112.154175199000065, -7.663190776999954 ], [ 112.154167752000035, -7.663209858999949 ], [ 112.154320114000029, -7.663253018999967 ], [ 112.154310289000023, -7.663314489999948 ], [ 112.154281562000051, -7.663494233999927 ], [ 112.154284636000057, -7.663496107999947 ], [ 112.154306523000059, -7.663725925999927 ], [ 112.154311998000026, -7.663785053999959 ], [ 112.154317467000055, -7.663844117999929 ], [ 112.154218974000059, -7.66411771099996 ], [ 112.154168173000016, -7.664242120999972 ], [ 112.153925459000106, -7.66411783999996 ], [ 112.153994304000094, -7.663972773999944 ], [ 112.15300082300007, -7.663388048999934 ], [ 112.153002031000028, -7.663385575999939 ], [ 112.153003040000044, -7.663381385999969 ], [ 112.153102713000067, -7.662967524999942 ], [ 112.153109954000115, -7.66297198999996 ] ] ] ] } }
]
}
