{
"type": "FeatureCollection",
"name": "iddesa_3506150006",
"crs": { "type": "name", "properties": { "name": "urn:ogc:def:crs:OGC:1.3:CRS84" } },
"features": [
{ "type": "Feature", "properties": { "fid": 6833, "kk": null, "gid": 0.0, "bstt": null, "luas": 54566.794182153048, "bsbtt": null, "idsls": "35061500060017", "kdkab": "06", "kdkec": "150", "kdsls": "0017", "nmkab": "KEDIRI", "nmkec": "KUNJANG", "nmsls": "RT 002 RW 001 DUSUN PRAYUNGAN", "bstt_k": null, "kddesa": "006", "kdprov": "35", "khusus": null, "muatan": null, "nmdesa": "KUWIK", "nmprov": "JAWA TIMUR", "posisi": null, "rw_dki": null, "segmen": null, "subsls": null, "sumber": null, "dom_sls": null, "periode": "2025_1", "tingkat": null, "idsubsls": "3506150006001700", "nm_gedung": null, "wil_campur": null, "iddesa": "3506150006", "kdsubsls": "00" }, "geometry": { "type": "MultiPolygon", "coordinates": [ [ [ [ 112.197369529000071, -7.682103869999935 ], [ 112.197763352000038, -7.682787987999973 ], [ 112.197276080000051, -7.684546433999969 ], [ 112.196236579000015, -7.684341100999973 ], [ 112.196167169000091, -7.684570491999978 ], [ 112.195225859000061, -7.684232700999928 ], [ 112.195305296000015, -7.684076832999949 ], [ 112.195305220000023, -7.684076810999954 ], [ 112.195877902, -7.682924348999961 ], [ 112.196015822000049, -7.682646799999929 ], [ 112.19612036400008, -7.682436418999941 ], [ 112.196195092000039, -7.682286036999926 ], [ 112.196579066000027, -7.681513327999937 ], [ 112.197195520000037, -7.682235779999928 ], [ 112.197369529000071, -7.682103869999935 ] ] ] ] } },
{ "type": "Feature", "properties": { "fid": 6834, "kk": null, "gid": 0.0, "bstt": null, "luas": 43172.735517397639, "bsbtt": null, "idsls": "35061500060016", "kdkab": "06", "kdkec": "150", "kdsls": "0016", "nmkab": "KEDIRI", "nmkec": "KUNJANG", "nmsls": "RT 001 RW 001 DUSUN PRAYUNGAN", "bstt_k": null, "kddesa": "006", "kdprov": "35", "khusus": null, "muatan": null, "nmdesa": "KUWIK", "nmprov": "JAWA TIMUR", "posisi": null, "rw_dki": null, "segmen": null, "subsls": null, "sumber": null, "dom_sls": null, "periode": "2025_1", "tingkat": null, "idsubsls": "3506150006001600", "nm_gedung": null, "wil_campur": null, "iddesa": "3506150006", "kdsubsls": "00" }, "geometry": { "type": "MultiPolygon", "coordinates": [ [ [ [ 112.195225859000061, -7.684232700999928 ], [ 112.196167169000091, -7.684570491999978 ], [ 112.196236579000015, -7.684341100999973 ], [ 112.197276080000051, -7.684546433999969 ], [ 112.197052342, -7.685353851999935 ], [ 112.197052295000049, -7.685353843999962 ], [ 112.196892318000096, -7.685878680999963 ], [ 112.196768827000028, -7.686375451999936 ], [ 112.196676209000088, -7.686782411999957 ], [ 112.196592010000018, -7.687116398999933 ], [ 112.196561137000117, -7.687256729999945 ], [ 112.196521845, -7.687360574999957 ], [ 112.196378707, -7.687433546999955 ], [ 112.19637883900009, -7.687433956999939 ], [ 112.196371910000039, -7.687429007999981 ], [ 112.19631086600009, -7.687256400999956 ], [ 112.196207021000077, -7.687034677999975 ], [ 112.196164922000094, -7.686843827999951 ], [ 112.196108790000039, -7.686686657999928 ], [ 112.195825321000029, -7.686066394999955 ], [ 112.195673764000048, -7.685701534999964 ], [ 112.195202252000058, -7.684977427999968 ], [ 112.195042519000026, -7.684593507999978 ], [ 112.195042275000105, -7.684592921999979 ], [ 112.195225859000061, -7.684232700999928 ] ] ] ] } },
{ "type": "Feature", "properties": { "fid": 6835, "kk": null, "gid": 0.0, "bstt": null, "luas": 26981.763291460102, "bsbtt": null, "idsls": "35061500060002", "kdkab": "06", "kdkec": "150", "kdsls": "0002", "nmkab": "KEDIRI", "nmkec": "KUNJANG", "nmsls": "RT 002 RW 001 DUSUN KUWIK", "bstt_k": null, "kddesa": "006", "kdprov": "35", "khusus": null, "muatan": null, "nmdesa": "KUWIK", "nmprov": "JAWA TIMUR", "posisi": null, "rw_dki": null, "segmen": null, "subsls": null, "sumber": null, "dom_sls": null, "periode": "2025_1", "tingkat": null, "idsubsls": "3506150006000200", "nm_gedung": null, "wil_campur": null, "iddesa": "3506150006", "kdsubsls": "00" }, "geometry": { "type": "MultiPolygon", "coordinates": [ [ [ [ 112.199106361000077, -7.676940163999973 ], [ 112.198562604000017, -7.678125970999929 ], [ 112.197083568000039, -7.677688153999952 ], [ 112.197083519000103, -7.67768813999993 ], [ 112.197098898000036, -7.677653600999975 ], [ 112.197390554000094, -7.676998566999941 ], [ 112.197434669000017, -7.676899489999926 ], [ 112.197721412000078, -7.67625548999996 ], [ 112.197721437000041, -7.676255432999938 ], [ 112.198481883000113, -7.676624431999926 ], [ 112.199106361000077, -7.676940163999973 ] ] ] ] } },
{ "type": "Feature", "properties": { "fid": 6836, "kk": null, "gid": 0.0, "bstt": null, "luas": 16614.926494266721, "bsbtt": null, "idsls": "35061500060003", "kdkab": "06", "kdkec": "150", "kdsls": "0003", "nmkab": "KEDIRI", "nmkec": "KUNJANG", "nmsls": "RT 003 RW 001 DUSUN KUWIK", "bstt_k": null, "kddesa": "006", "kdprov": "35", "khusus": null, "muatan": null, "nmdesa": "KUWIK", "nmprov": "JAWA TIMUR", "posisi": null, "rw_dki": null, "segmen": null, "subsls": null, "sumber": null, "dom_sls": null, "periode": "2025_1", "tingkat": null, "idsubsls": "3506150006000300", "nm_gedung": null, "wil_campur": null, "iddesa": "3506150006", "kdsubsls": "00" }, "geometry": { "type": "MultiPolygon", "coordinates": [ [ [ [ 112.196838729000092, -7.67593540699994 ], [ 112.196765757000094, -7.676154323999981 ], [ 112.196920121000062, -7.676241328999936 ], [ 112.196878022000078, -7.676339559999974 ], [ 112.196998706000045, -7.67643217899996 ], [ 112.196919131000072, -7.676628776999962 ], [ 112.197434669000017, -7.676899489999926 ], [ 112.197390554000094, -7.676998566999941 ], [ 112.197098898000036, -7.677653600999975 ], [ 112.195929879, -7.677148079999938 ], [ 112.195929385000113, -7.677147865999927 ], [ 112.196173561000023, -7.676642674999925 ], [ 112.196384057000046, -7.676227295999979 ], [ 112.196435696000094, -7.676142031999973 ], [ 112.196625426000082, -7.67582875599993 ], [ 112.196752192000076, -7.675892138999927 ], [ 112.196838729000092, -7.67593540699994 ] ] ] ] } },
{ "type": "Feature", "properties": { "fid": 6837, "kk": null, "gid": 0.0, "bstt": null, "luas": 23651.612000091172, "bsbtt": null, "idsls": "35061500060006", "kdkab": "06", "kdkec": "150", "kdsls": "0006", "nmkab": "KEDIRI", "nmkec": "KUNJANG", "nmsls": "RT 001 RW 002 DUSUN KUWIK", "bstt_k": null, "kddesa": "006", "kdprov": "35", "khusus": null, "muatan": null, "nmdesa": "KUWIK", "nmprov": "JAWA TIMUR", "posisi": null, "rw_dki": null, "segmen": null, "subsls": null, "sumber": null, "dom_sls": null, "periode": "2025_1", "tingkat": null, "idsubsls": "3506150006000600", "nm_gedung": null, "wil_campur": null, "iddesa": "3506150006", "kdsubsls": "00" }, "geometry": { "type": "MultiPolygon", "coordinates": [ [ [ [ 112.198562604000017, -7.678125970999929 ], [ 112.198075614000118, -7.679314924999971 ], [ 112.196635820000097, -7.678874285999939 ], [ 112.196636155000078, -7.67887339899994 ], [ 112.196897239, -7.678181759999973 ], [ 112.196959508000077, -7.678016801999945 ], [ 112.197083568000039, -7.677688153999952 ], [ 112.198562604000017, -7.678125970999929 ] ] ] ] } },
{ "type": "Feature", "properties": { "fid": 6838, "kk": null, "gid": 0.0, "bstt": null, "luas": 58864.960993761793, "bsbtt": null, "idsls": "35061500060007", "kdkab": "06", "kdkec": "150", "kdsls": "0007", "nmkab": "KEDIRI", "nmkec": "KUNJANG", "nmsls": "RT 002 RW 002 DUSUN KUWIK", "bstt_k": null, "kddesa": "006", "kdprov": "35", "khusus": null, "muatan": null, "nmdesa": "KUWIK", "nmprov": "JAWA TIMUR", "posisi": null, "rw_dki": null, "segmen": null, "subsls": null, "sumber": null, "dom_sls": null, "periode": "2025_1", "tingkat": null, "idsubsls": "3506150006000700", "nm_gedung": null, "wil_campur": null, "iddesa": "3506150006", "kdsubsls": "00" }, "geometry": { "type": "MultiPolygon", "coordinates": [ [ [ [ 112.1953940410001, -7.678188956999975 ], [ 112.19537092600001, -7.678273413999932 ], [ 112.19556031500008, -7.67833458299998 ], [ 112.195588381000107, -7.67845245999996 ], [ 112.195683806000034, -7.678494559999933 ], [ 112.195784845000048, -7.678191444999925 ], [ 112.19603182700007, -7.678110052999955 ], [ 112.196520178000014, -7.678295289999937 ], [ 112.196593150000012, -7.678098826999928 ], [ 112.196603709000101, -7.678101706999939 ], [ 112.196674466000104, -7.677917285999968 ], [ 112.196959508000077, -7.678016801999945 ], [ 112.196897239, -7.678181759999973 ], [ 112.196636155000078, -7.67887339899994 ], [ 112.196635951000076, -7.678873452999937 ], [ 112.196317049000072, -7.679808055999956 ], [ 112.196339502000114, -7.67982208899997 ], [ 112.197681065000097, -7.680231855999978 ], [ 112.197484602000031, -7.680860537999934 ], [ 112.197529508000116, -7.680927896999947 ], [ 112.197319012000094, -7.681593064999959 ], [ 112.197128162000013, -7.681694102999927 ], [ 112.197369529000071, -7.682103869999935 ], [ 112.197195520000037, -7.682235779999928 ], [ 112.196579066000027, -7.681513327999937 ], [ 112.196575258000053, -7.681508865999945 ], [ 112.196406861000014, -7.681144005999954 ], [ 112.196277757000075, -7.680905443999961 ], [ 112.196225377000019, -7.680871052999976 ], [ 112.19599990200004, -7.680723013999966 ], [ 112.19599792200006, -7.680720684999926 ], [ 112.195720643000072, -7.680394638999928 ], [ 112.1957487090001, -7.680307633999973 ], [ 112.195625218000032, -7.68013362399995 ], [ 112.19512792, -7.679510027999982 ], [ 112.195128820000036, -7.679508059999932 ], [ 112.195218790000013, -7.679311309999946 ], [ 112.195390800000041, -7.678821179999943 ], [ 112.195113370000058, -7.678356949999966 ], [ 112.195173045000047, -7.678209501999959 ], [ 112.195204127000011, -7.67813270399995 ], [ 112.1953940410001, -7.678188956999975 ] ] ] ] } },
{ "type": "Feature", "properties": { "fid": 6839, "kk": null, "gid": 0.0, "bstt": null, "luas": 19158.736886383729, "bsbtt": null, "idsls": "35061500060008", "kdkab": "06", "kdkec": "150", "kdsls": "0008", "nmkab": "KEDIRI", "nmkec": "KUNJANG", "nmsls": "RT 003 RW 002 DUSUN KUWIK", "bstt_k": null, "kddesa": "006", "kdprov": "35", "khusus": null, "muatan": null, "nmdesa": "KUWIK", "nmprov": "JAWA TIMUR", "posisi": null, "rw_dki": null, "segmen": null, "subsls": null, "sumber": null, "dom_sls": null, "periode": "2025_1", "tingkat": null, "idsubsls": "3506150006000800", "nm_gedung": null, "wil_campur": null, "iddesa": "3506150006", "kdsubsls": "00" }, "geometry": { "type": "MultiPolygon", "coordinates": [ [ [ [ 112.195764121000025, -7.677223851999941 ], [ 112.195894672, -7.67726614299994 ], [ 112.195929879, -7.677148079999938 ], [ 112.197098898000036, -7.677653600999975 ], [ 112.197083519000103, -7.67768813999993 ], [ 112.197083568000039, -7.677688153999952 ], [ 112.196959508000077, -7.678016801999945 ], [ 112.196674466000104, -7.677917285999968 ], [ 112.196603709000101, -7.678101706999939 ], [ 112.196593150000012, -7.678098826999928 ], [ 112.196520178000014, -7.678295289999937 ], [ 112.19603182700007, -7.678110052999955 ], [ 112.195784845000048, -7.678191444999925 ], [ 112.195683806000034, -7.678494559999933 ], [ 112.195588381000107, -7.67845245999996 ], [ 112.19556031500008, -7.67833458299998 ], [ 112.19537092600001, -7.678273413999932 ], [ 112.1953940410001, -7.678188956999975 ], [ 112.195204127000011, -7.67813270399995 ], [ 112.195207690000075, -7.678123899999946 ], [ 112.195202150000114, -7.678089089999958 ], [ 112.195161450000114, -7.677833519999979 ], [ 112.195202140000106, -7.677544989999944 ], [ 112.195235440000033, -7.677397029999952 ], [ 112.195228738000083, -7.67712501099993 ], [ 112.195715030000088, -7.677270172999954 ], [ 112.195750754000073, -7.677277317999938 ], [ 112.195764121000025, -7.677223851999941 ] ] ] ] } },
{ "type": "Feature", "properties": { "fid": 6840, "kk": null, "gid": 0.0, "bstt": null, "luas": 13885.53040857568, "bsbtt": null, "idsls": "35061500060009", "kdkab": "06", "kdkec": "150", "kdsls": "0009", "nmkab": "KEDIRI", "nmkec": "KUNJANG", "nmsls": "RT 004 RW 002 DUSUN KUWIK", "bstt_k": null, "kddesa": "006", "kdprov": "35", "khusus": null, "muatan": null, "nmdesa": "KUWIK", "nmprov": "JAWA TIMUR", "posisi": null, "rw_dki": null, "segmen": null, "subsls": null, "sumber": null, "dom_sls": null, "periode": "2025_1", "tingkat": null, "idsubsls": "3506150006000900", "nm_gedung": null, "wil_campur": null, "iddesa": "3506150006", "kdsubsls": "00" }, "geometry": { "type": "MultiPolygon", "coordinates": [ [ [ [ 112.195894672, -7.67726614299994 ], [ 112.195764121000025, -7.677223851999941 ], [ 112.195750754000073, -7.677277317999938 ], [ 112.195715030000088, -7.677270172999954 ], [ 112.195228738000083, -7.67712501099993 ], [ 112.195226190000085, -7.677021569999965 ], [ 112.195250630000032, -7.676954029999933 ], [ 112.195254021000096, -7.676944659999947 ], [ 112.195366750000062, -7.676633169999945 ], [ 112.195681180000065, -7.675678799999957 ], [ 112.195723217000022, -7.675544281999976 ], [ 112.195724068000118, -7.675541559999942 ], [ 112.196102562000078, -7.675665226999968 ], [ 112.196006878000048, -7.675921940999956 ], [ 112.196201023000071, -7.675992848999954 ], [ 112.19618442, -7.67604780299996 ], [ 112.196435696000094, -7.676142031999973 ], [ 112.196384057000046, -7.676227295999979 ], [ 112.196173561000023, -7.676642674999925 ], [ 112.195929385000113, -7.677147865999927 ], [ 112.195929879, -7.677148079999938 ], [ 112.195894672, -7.67726614299994 ] ] ] ] } },
{ "type": "Feature", "properties": { "fid": 6841, "kk": null, "gid": 0.0, "bstt": null, "luas": 51182.18966726245, "bsbtt": null, "idsls": "35061500060011", "kdkab": "06", "kdkec": "150", "kdsls": "0011", "nmkab": "KEDIRI", "nmkec": "KUNJANG", "nmsls": "RT 002 RW 001 DUSUN SUGIHWARAS", "bstt_k": null, "kddesa": "006", "kdprov": "35", "khusus": null, "muatan": null, "nmdesa": "KUWIK", "nmprov": "JAWA TIMUR", "posisi": null, "rw_dki": null, "segmen": null, "subsls": null, "sumber": null, "dom_sls": null, "periode": "2025_1", "tingkat": null, "idsubsls": "3506150006001100", "nm_gedung": null, "wil_campur": null, "iddesa": "3506150006", "kdsubsls": "00" }, "geometry": { "type": "MultiPolygon", "coordinates": [ [ [ [ 112.203752802000054, -7.688717741999938 ], [ 112.203162396000039, -7.688434387999962 ], [ 112.203315842000052, -7.688116199999968 ], [ 112.202898566000044, -7.687911460999942 ], [ 112.202772268000103, -7.687802002999945 ], [ 112.202558965000094, -7.68772622399996 ], [ 112.202741395000089, -7.687364170999956 ], [ 112.202741395000089, -7.687310844999956 ], [ 112.203024398000025, -7.686770058999969 ], [ 112.203024864000099, -7.686769167999955 ], [ 112.203350431000104, -7.687117187999945 ], [ 112.203563734000113, -7.687209806999931 ], [ 112.203723711000066, -7.687330490999955 ], [ 112.204122251000058, -7.68750169499998 ], [ 112.204394493000109, -7.687664478999977 ], [ 112.204599376000033, -7.687731837999934 ], [ 112.204672348000031, -7.687532567999938 ], [ 112.205044225000051, -7.687722013999974 ], [ 112.204888457000038, -7.688161249999951 ], [ 112.205303837000088, -7.688329646999932 ], [ 112.205679923000048, -7.688756252999951 ], [ 112.206011104000027, -7.688966748999974 ], [ 112.206247494000081, -7.689439528999969 ], [ 112.206226590000028, -7.689441809999948 ], [ 112.206222740000044, -7.689437009999949 ], [ 112.20621811, -7.689446059999966 ], [ 112.205974340000012, -7.689568179999981 ], [ 112.205728111000099, -7.68969279099997 ], [ 112.204356603000065, -7.689195487999939 ], [ 112.204423962000078, -7.688976571999945 ], [ 112.203945434000047, -7.68878291599998 ], [ 112.203934208000078, -7.688746429999981 ], [ 112.20377028900009, -7.688672275999977 ], [ 112.203752802000054, -7.688717741999938 ] ] ] ] } },
{ "type": "Feature", "properties": { "fid": 6842, "kk": null, "gid": 0.0, "bstt": null, "luas": 27070.226002298994, "bsbtt": null, "idsls": "35061500060013", "kdkab": "06", "kdkec": "150", "kdsls": "0013", "nmkab": "KEDIRI", "nmkec": "KUNJANG", "nmsls": "RT 001 RW 002 DUSUN SUGIHWARAS", "bstt_k": null, "kddesa": "006", "kdprov": "35", "khusus": null, "muatan": null, "nmdesa": "KUWIK", "nmprov": "JAWA TIMUR", "posisi": null, "rw_dki": null, "segmen": null, "subsls": null, "sumber": null, "dom_sls": null, "periode": "2025_1", "tingkat": null, "idsubsls": "3506150006001300", "nm_gedung": null, "wil_campur": null, "iddesa": "3506150006", "kdsubsls": "00" }, "geometry": { "type": "MultiPolygon", "coordinates": [ [ [ [ 112.203190331000087, -7.690597318999949 ], [ 112.203185036000036, -7.690558492999969 ], [ 112.203185036000036, -7.690516137999964 ], [ 112.203324982000026, -7.690267594999966 ], [ 112.202956716000017, -7.690027912999938 ], [ 112.202513270000054, -7.689671472999976 ], [ 112.202642374000106, -7.689416070999926 ], [ 112.202372939000043, -7.689236446999928 ], [ 112.202467497000043, -7.689017538999963 ], [ 112.202485292, -7.689047789999961 ], [ 112.202614396000058, -7.689081468999973 ], [ 112.202757533000067, -7.689148827999929 ], [ 112.202805246000025, -7.689120761999959 ], [ 112.20294277000005, -7.689171280999972 ], [ 112.20311958700006, -7.689247059999957 ], [ 112.203243078000014, -7.689044982999974 ], [ 112.203476027000079, -7.689179700999944 ], [ 112.203680910000116, -7.689370550999968 ], [ 112.204076643, -7.689597886999934 ], [ 112.205129209, -7.689989538999953 ], [ 112.204812290000064, -7.690144259999954 ], [ 112.204099610000071, -7.690490499999953 ], [ 112.203886716000056, -7.69063319299994 ], [ 112.2035835800001, -7.690836369999943 ], [ 112.203556828000046, -7.690850173999934 ], [ 112.203190331000087, -7.690597318999949 ] ] ] ] } },
{ "type": "Feature", "properties": { "fid": 6843, "kk": null, "gid": 0.0, "bstt": null, "luas": 39577.664719531589, "bsbtt": null, "idsls": "35061500060014", "kdkab": "06", "kdkec": "150", "kdsls": "0014", "nmkab": "KEDIRI", "nmkec": "KUNJANG", "nmsls": "RT 002 RW 002 DUSUN SUGIHWARAS", "bstt_k": null, "kddesa": "006", "kdprov": "35", "khusus": null, "muatan": null, "nmdesa": "KUWIK", "nmprov": "JAWA TIMUR", "posisi": null, "rw_dki": null, "segmen": null, "subsls": null, "sumber": null, "dom_sls": null, "periode": "2025_1", "tingkat": null, "idsubsls": "3506150006001400", "nm_gedung": null, "wil_campur": null, "iddesa": "3506150006", "kdsubsls": "00" }, "geometry": { "type": "MultiPolygon", "coordinates": [ [ [ [ 112.202310735000083, -7.688162925999961 ], [ 112.202163964000079, -7.688421133999952 ], [ 112.202161127000068, -7.688426123999932 ], [ 112.202340751000065, -7.688597327999958 ], [ 112.202455822000047, -7.688661879999927 ], [ 112.202354706000051, -7.688842663999935 ], [ 112.202505237000082, -7.688915827999949 ], [ 112.202458001000082, -7.689001395999981 ], [ 112.202467497000043, -7.689017538999963 ], [ 112.202372939000043, -7.689236446999928 ], [ 112.202642374000106, -7.689416070999926 ], [ 112.202513270000054, -7.689671472999976 ], [ 112.202956716000017, -7.690027912999938 ], [ 112.203324982000026, -7.690267594999966 ], [ 112.203185036000036, -7.690516137999964 ], [ 112.203185036000036, -7.690558492999969 ], [ 112.203190331000087, -7.690597318999949 ], [ 112.203556828000046, -7.690850173999934 ], [ 112.203032820000089, -7.691120549999937 ], [ 112.202760418000025, -7.691260378999971 ], [ 112.202721942000039, -7.691280128999949 ], [ 112.20223949800004, -7.690893469999935 ], [ 112.202271597000049, -7.69079856899998 ], [ 112.20204405100003, -7.690693347999968 ], [ 112.202158653000083, -7.690452471999947 ], [ 112.202020709000067, -7.690211746999978 ], [ 112.202048775000094, -7.690071415999967 ], [ 112.201987022000026, -7.690005957999972 ], [ 112.201380242000027, -7.689761571999952 ], [ 112.201523221000116, -7.689587103999941 ], [ 112.201507098000093, -7.689574644999936 ], [ 112.201672688000031, -7.689372567999953 ], [ 112.201397640000096, -7.689226623999957 ], [ 112.201069266000104, -7.689178911999932 ], [ 112.201034985000092, -7.689102074999937 ], [ 112.200988977000065, -7.688998954999931 ], [ 112.20098787400002, -7.688996481999936 ], [ 112.200988112, -7.688996371999963 ], [ 112.201091719000033, -7.688948768999978 ], [ 112.201167497000029, -7.688945961999934 ], [ 112.201552004000064, -7.688112396999941 ], [ 112.201552245000016, -7.688112518999958 ], [ 112.201845817000049, -7.688260626999977 ], [ 112.201967421000063, -7.688005676999978 ], [ 112.202310735000083, -7.688162925999961 ] ] ] ] } },
{ "type": "Feature", "properties": { "fid": 6844, "kk": null, "gid": 0.0, "bstt": null, "luas": 65535.306671704959, "bsbtt": null, "idsls": "35061500060019", "kdkab": "06", "kdkec": "150", "kdsls": "0019", "nmkab": "KEDIRI", "nmkec": "KUNJANG", "nmsls": "RT 002 RW 002 DUSUN PRAYUNGAN", "bstt_k": null, "kddesa": "006", "kdprov": "35", "khusus": null, "muatan": null, "nmdesa": "KUWIK", "nmprov": "JAWA TIMUR", "posisi": null, "rw_dki": null, "segmen": null, "subsls": null, "sumber": null, "dom_sls": null, "periode": "2025_1", "tingkat": null, "idsubsls": "3506150006001900", "nm_gedung": null, "wil_campur": null, "iddesa": "3506150006", "kdsubsls": "00" }, "geometry": { "type": "MultiPolygon", "coordinates": [ [ [ [ 112.197052342, -7.685353851999935 ], [ 112.198306853000076, -7.685567146999972 ], [ 112.199225169000101, -7.685895861999938 ], [ 112.19922181000004, -7.685901133999948 ], [ 112.199109545000056, -7.686004978999961 ], [ 112.198365792000118, -7.687806826999974 ], [ 112.198309660000064, -7.688048195999954 ], [ 112.198068324000019, -7.688828327999943 ], [ 112.198050749000117, -7.688821418999964 ], [ 112.19787744100006, -7.688721783999938 ], [ 112.197737110000048, -7.68859548599994 ], [ 112.197641685, -7.688455154999929 ], [ 112.197490128000027, -7.688093101999925 ], [ 112.19726279200006, -7.687795599999959 ], [ 112.196858639000084, -7.687789986999974 ], [ 112.196631303000117, -7.687719821999963 ], [ 112.196403967000037, -7.687512131999938 ], [ 112.19637883900009, -7.687433956999939 ], [ 112.196378707, -7.687433546999955 ], [ 112.196521845, -7.687360574999957 ], [ 112.196561137000117, -7.687256729999945 ], [ 112.196592010000018, -7.687116398999933 ], [ 112.196676209000088, -7.686782411999957 ], [ 112.196768827000028, -7.686375451999936 ], [ 112.196892318000096, -7.685878680999963 ], [ 112.197052295000049, -7.685353843999962 ], [ 112.197052342, -7.685353851999935 ] ] ] ] } },
{ "type": "Feature", "properties": { "fid": 6845, "kk": null, "gid": 0.0, "bstt": null, "luas": 41920.043650851418, "bsbtt": null, "idsls": "35061500060020", "kdkab": "06", "kdkec": "150", "kdsls": "0020", "nmkab": "KEDIRI", "nmkec": "KUNJANG", "nmsls": "RT 003 RW 002 DUSUN PRAYUNGAN", "bstt_k": null, "kddesa": "006", "kdprov": "35", "khusus": null, "muatan": null, "nmdesa": "KUWIK", "nmprov": "JAWA TIMUR", "posisi": null, "rw_dki": null, "segmen": null, "subsls": null, "sumber": null, "dom_sls": null, "periode": "2025_1", "tingkat": null, "idsubsls": "3506150006002000", "nm_gedung": null, "wil_campur": null, "iddesa": "3506150006", "kdsubsls": "00" }, "geometry": { "type": "MultiPolygon", "coordinates": [ [ [ [ 112.199443390000056, -7.685553337999977 ], [ 112.199225169000101, -7.685895861999938 ], [ 112.198306853000076, -7.685567146999972 ], [ 112.197052342, -7.685353851999935 ], [ 112.197276080000051, -7.684546433999969 ], [ 112.197763352000038, -7.682787987999973 ], [ 112.197763992000091, -7.682785679999938 ], [ 112.198241117000066, -7.683596791999946 ], [ 112.199066262000088, -7.68494396799997 ], [ 112.199313244000109, -7.685370573999933 ], [ 112.199443390000056, -7.685553337999977 ] ] ] ] } },
{ "type": "Feature", "properties": { "fid": 6846, "kk": null, "gid": 0.0, "bstt": null, "luas": 13878.194922633871, "bsbtt": null, "idsls": "35061500060023", "kdkab": "06", "kdkec": "150", "kdsls": "0023", "nmkab": "KEDIRI", "nmkec": "KUNJANG", "nmsls": "RT 003 RW 001 DUSUN KEDUNGBOGO", "bstt_k": null, "kddesa": "006", "kdprov": "35", "khusus": null, "muatan": null, "nmdesa": "KUWIK", "nmprov": "JAWA TIMUR", "posisi": null, "rw_dki": null, "segmen": null, "subsls": null, "sumber": null, "dom_sls": null, "periode": "2025_1", "tingkat": null, "idsubsls": "3506150006002300", "nm_gedung": null, "wil_campur": null, "iddesa": "3506150006", "kdsubsls": "00" }, "geometry": { "type": "MultiPolygon", "coordinates": [ [ [ [ 112.195453716000088, -7.681361638999931 ], [ 112.195226481000077, -7.681765096999925 ], [ 112.195142155000099, -7.681714079999949 ], [ 112.195142086000033, -7.681714209999939 ], [ 112.194678994000014, -7.68154300599997 ], [ 112.1946172480001, -7.681680529999937 ], [ 112.19422712800008, -7.681537392999928 ], [ 112.194123284000057, -7.68177314899998 ], [ 112.193815667000081, -7.681630171999927 ], [ 112.193817937000063, -7.681620917999965 ], [ 112.19390717400006, -7.681395658999975 ], [ 112.193721937000078, -7.681249714999979 ], [ 112.19374439, -7.681148675999964 ], [ 112.193743134000101, -7.681148063999956 ], [ 112.193324003000043, -7.680943965999973 ], [ 112.193513979000045, -7.680574213999932 ], [ 112.193932997000047, -7.680787509999959 ], [ 112.193940853000072, -7.680772589999947 ], [ 112.194453186000032, -7.681013441999937 ], [ 112.194457271000033, -7.681015361999926 ], [ 112.194572342000015, -7.681050444999926 ], [ 112.194750562000081, -7.681064477999939 ], [ 112.194790319000049, -7.681090447999964 ], [ 112.195317294, -7.681307757999946 ], [ 112.195320184000025, -7.681303507999928 ], [ 112.195453716000088, -7.681361638999931 ] ] ] ] } },
{ "type": "Feature", "properties": { "fid": 6847, "kk": null, "gid": 0.0, "bstt": null, "luas": 25958.33354784119, "bsbtt": null, "idsls": "35061500060025", "kdkab": "06", "kdkec": "150", "kdsls": "0025", "nmkab": "KEDIRI", "nmkec": "KUNJANG", "nmsls": "RT 002 RW 002 DUSUN KEDUNGBOGO", "bstt_k": null, "kddesa": "006", "kdprov": "35", "khusus": null, "muatan": null, "nmdesa": "KUWIK", "nmprov": "JAWA TIMUR", "posisi": null, "rw_dki": null, "segmen": null, "subsls": null, "sumber": null, "dom_sls": null, "periode": "2025_1", "tingkat": null, "idsubsls": "3506150006002500", "nm_gedung": null, "wil_campur": null, "iddesa": "3506150006", "kdsubsls": "00" }, "geometry": { "type": "MultiPolygon", "coordinates": [ [ [ [ 112.192359214000021, -7.681292821999932 ], [ 112.19238787900008, -7.681199660999937 ], [ 112.192408441000111, -7.681100963999938 ], [ 112.19285749900007, -7.680761362999931 ], [ 112.193098868000106, -7.680834334999929 ], [ 112.193324003000043, -7.680943965999973 ], [ 112.193743134000101, -7.681148063999956 ], [ 112.19374439, -7.681148675999964 ], [ 112.193721937000078, -7.681249714999979 ], [ 112.19390717400006, -7.681395658999975 ], [ 112.193817937000063, -7.681620917999965 ], [ 112.193815667000081, -7.681630171999927 ], [ 112.193755985000053, -7.68187348999993 ], [ 112.193986210000048, -7.68200666599995 ], [ 112.194002721000061, -7.682018920999951 ], [ 112.194003839000061, -7.682019749999938 ], [ 112.193667208000079, -7.682681790999936 ], [ 112.193577397000013, -7.682718276999935 ], [ 112.193493198000056, -7.68285580099996 ], [ 112.193494542000053, -7.682857120999927 ], [ 112.193477762000043, -7.682855098999937 ], [ 112.193382337000116, -7.682754060999969 ], [ 112.193129741, -7.682495852999978 ], [ 112.192697522000117, -7.682215190999955 ], [ 112.192690754000068, -7.682204504999959 ], [ 112.192377568000097, -7.68171 ], [ 112.192477206000035, -7.68159146499994 ], [ 112.192359214000021, -7.681292821999932 ] ] ] ] } },
{ "type": "Feature", "properties": { "fid": 6848, "kk": null, "gid": 0.0, "bstt": null, "luas": 36194.495177007338, "bsbtt": null, "idsls": "35061500060026", "kdkab": "06", "kdkec": "150", "kdsls": "0026", "nmkab": "KEDIRI", "nmkec": "KUNJANG", "nmsls": "RT 003 RW 002 DUSUN KEDUNGBOGO", "bstt_k": null, "kddesa": "006", "kdprov": "35", "khusus": null, "muatan": null, "nmdesa": "KUWIK", "nmprov": "JAWA TIMUR", "posisi": null, "rw_dki": null, "segmen": null, "subsls": null, "sumber": null, "dom_sls": null, "periode": "2025_1", "tingkat": null, "idsubsls": "3506150006002600", "nm_gedung": null, "wil_campur": null, "iddesa": "3506150006", "kdsubsls": "00" }, "geometry": { "type": "MultiPolygon", "coordinates": [ [ [ [ 112.195389182000099, -7.682357126999932 ], [ 112.196015822000049, -7.682646799999929 ], [ 112.195877902, -7.682924348999961 ], [ 112.195305220000023, -7.684076810999954 ], [ 112.195305296000015, -7.684076832999949 ], [ 112.195225859000061, -7.684232700999928 ], [ 112.195042275000105, -7.684592921999979 ], [ 112.195042519000026, -7.684593507999978 ], [ 112.195042100000023, -7.684593271999972 ], [ 112.195029821000048, -7.684578186999943 ], [ 112.194744949000096, -7.683936348999964 ], [ 112.194649524000056, -7.683784790999937 ], [ 112.194509193000044, -7.683633233999956 ], [ 112.194256598000038, -7.683470449999959 ], [ 112.193975936000015, -7.683330118999947 ], [ 112.193494542000053, -7.682857120999927 ], [ 112.193493198000056, -7.68285580099996 ], [ 112.193577397000013, -7.682718276999935 ], [ 112.193667208000079, -7.682681790999936 ], [ 112.194003839000061, -7.682019749999938 ], [ 112.194003915000053, -7.682019599999933 ], [ 112.194004002000042, -7.682019428999979 ], [ 112.194006911000088, -7.682020890999979 ], [ 112.194066645000021, -7.681901140999969 ], [ 112.194310446000031, -7.682009894999965 ], [ 112.194260973000041, -7.682148594999944 ], [ 112.194534453000074, -7.682286057999931 ], [ 112.194711270000084, -7.682426388999943 ], [ 112.195064904000105, -7.682552686999941 ], [ 112.195263330000103, -7.68263464599994 ], [ 112.195389182000099, -7.682357126999932 ] ] ] ] } },
{ "type": "Feature", "properties": { "fid": 6849, "kk": null, "gid": 0.0, "bstt": null, "luas": 646468.15525820327, "bsbtt": null, "idsls": "35061500061002", "kdkab": "06", "kdkec": "150", "kdsls": "1002", "nmkab": "KEDIRI", "nmkec": "KUNJANG", "nmsls": "SAWAH", "bstt_k": null, "kddesa": "006", "kdprov": "35", "khusus": null, "muatan": null, "nmdesa": "KUWIK", "nmprov": "JAWA TIMUR", "posisi": null, "rw_dki": null, "segmen": null, "subsls": null, "sumber": null, "dom_sls": null, "periode": "2025_1", "tingkat": null, "idsubsls": "3506150006100200", "nm_gedung": null, "wil_campur": null, "iddesa": "3506150006", "kdsubsls": "00" }, "geometry": { "type": "MultiPolygon", "coordinates": [ [ [ [ 112.207393847000048, -7.688714224999956 ], [ 112.207393790000083, -7.688714266999966 ], [ 112.207228220000047, -7.688835439999934 ], [ 112.207083400000101, -7.688941439999951 ], [ 112.206817170000022, -7.689136279999957 ], [ 112.2064300400001, -7.689419609999959 ], [ 112.206247494000081, -7.689439528999969 ], [ 112.206011104000027, -7.688966748999974 ], [ 112.205679923000048, -7.688756252999951 ], [ 112.205303837000088, -7.688329646999932 ], [ 112.204888457000038, -7.688161249999951 ], [ 112.205044225000051, -7.687722013999974 ], [ 112.204672348000031, -7.687532567999938 ], [ 112.204599376000033, -7.687731837999934 ], [ 112.204394493000109, -7.687664478999977 ], [ 112.204122251000058, -7.68750169499998 ], [ 112.203723711000066, -7.687330490999955 ], [ 112.203563734000113, -7.687209806999931 ], [ 112.203350431000104, -7.687117187999945 ], [ 112.203024864000099, -7.686769167999955 ], [ 112.203024398000025, -7.686770058999969 ], [ 112.203017365000051, -7.686752086999945 ], [ 112.202930360000096, -7.686726826999973 ], [ 112.202736703000028, -7.686704374999977 ], [ 112.202363423000065, -7.686575269999935 ], [ 112.202391489000092, -7.686432132999926 ], [ 112.202136087000099, -7.686288994999927 ], [ 112.201574764000043, -7.686081305999949 ], [ 112.201378301000091, -7.686625788999947 ], [ 112.201479339000116, -7.686788572999944 ], [ 112.201535471000057, -7.68701310199998 ], [ 112.201653349000026, -7.687344282999959 ], [ 112.201670189000083, -7.68746777399997 ], [ 112.201650542000039, -7.687706336999952 ], [ 112.201701061000108, -7.687770888999978 ], [ 112.201552245000016, -7.688112518999958 ], [ 112.201552004000064, -7.688112396999941 ], [ 112.201167497000029, -7.688945961999934 ], [ 112.201091719000033, -7.688948768999978 ], [ 112.200988112, -7.688996371999963 ], [ 112.200453915000026, -7.687641235999934 ], [ 112.200027309, -7.686608400999944 ], [ 112.199443533000021, -7.685553112999969 ], [ 112.199443390000056, -7.685553337999977 ], [ 112.199313244000109, -7.685370573999933 ], [ 112.199066262000088, -7.68494396799997 ], [ 112.198241117000066, -7.683596791999946 ], [ 112.197763992000091, -7.682785679999938 ], [ 112.197763352000038, -7.682787987999973 ], [ 112.197369529000071, -7.682103869999935 ], [ 112.197128162000013, -7.681694102999927 ], [ 112.197319012000094, -7.681593064999959 ], [ 112.197529508000116, -7.680927896999947 ], [ 112.197484602000031, -7.680860537999934 ], [ 112.197681065000097, -7.680231855999978 ], [ 112.196339502000114, -7.67982208899997 ], [ 112.196317049000072, -7.679808055999956 ], [ 112.196635951000076, -7.678873452999937 ], [ 112.196636155000078, -7.67887339899994 ], [ 112.196635820000097, -7.678874285999939 ], [ 112.198075614000118, -7.679314924999971 ], [ 112.198562604000017, -7.678125970999929 ], [ 112.199106361000077, -7.676940163999973 ], [ 112.199336498000093, -7.676418145999946 ], [ 112.199566368000092, -7.675778992999938 ], [ 112.199603466000099, -7.675808385999972 ], [ 112.199788703000081, -7.676142373999937 ], [ 112.199895354000091, -7.676484780999942 ], [ 112.200024459000019, -7.676692469999978 ], [ 112.200815925000029, -7.678039646999935 ], [ 112.201107813000021, -7.67861219599996 ], [ 112.201444607000099, -7.679016348999937 ], [ 112.20154564500001, -7.679151066999964 ], [ 112.201826307000033, -7.67964503099995 ], [ 112.202151874000037, -7.680262486999936 ], [ 112.202567254000087, -7.681396359999951 ], [ 112.202926501000093, -7.681811739999944 ], [ 112.203151030000072, -7.682137306999948 ], [ 112.203476597000076, -7.682743535999975 ], [ 112.203847071000041, -7.683282406999979 ], [ 112.204717122000034, -7.685190905999946 ], [ 112.204891132000057, -7.685449114999926 ], [ 112.204891132000057, -7.685578219999968 ], [ 112.20495849100007, -7.68574661699995 ], [ 112.205098822000082, -7.686016051999957 ], [ 112.205351418000078, -7.686122702999967 ], [ 112.205564720000098, -7.686212514999966 ], [ 112.20564330600007, -7.686437043999945 ], [ 112.205845382, -7.686863649999964 ], [ 112.206114817000071, -7.687413746999937 ], [ 112.206148497000072, -7.687570917999949 ], [ 112.206288828000083, -7.687834738999925 ], [ 112.206423545, -7.688104174999978 ], [ 112.206608782000103, -7.688323090999972 ], [ 112.206895057000111, -7.688474647999954 ], [ 112.207243077000044, -7.688536393999925 ], [ 112.207393847000048, -7.688714224999956 ] ] ] ] } },
{ "type": "Feature", "properties": { "fid": 6850, "kk": null, "gid": 0.0, "bstt": null, "luas": 21410.139221239908, "bsbtt": null, "idsls": "35061500061003", "kdkab": "06", "kdkec": "150", "kdsls": "1003", "nmkab": "KEDIRI", "nmkec": "KUNJANG", "nmsls": "KEBUN (PEKARANGAN)", "bstt_k": null, "kddesa": "006", "kdprov": "35", "khusus": null, "muatan": null, "nmdesa": "KUWIK", "nmprov": "JAWA TIMUR", "posisi": null, "rw_dki": null, "segmen": null, "subsls": null, "sumber": null, "dom_sls": null, "periode": "2025_1", "tingkat": null, "idsubsls": "3506150006100300", "nm_gedung": null, "wil_campur": null, "iddesa": "3506150006", "kdsubsls": "00" }, "geometry": { "type": "MultiPolygon", "coordinates": [ [ [ [ 112.19238787900008, -7.681199660999937 ], [ 112.192359214000021, -7.681292821999932 ], [ 112.192477206000035, -7.68159146499994 ], [ 112.192377568000097, -7.68171 ], [ 112.192690754000068, -7.682204504999959 ], [ 112.192363886000066, -7.68200785199997 ], [ 112.191811261000112, -7.681409386999974 ], [ 112.191812790000085, -7.681408519999934 ], [ 112.19221648000007, -7.681180239999946 ], [ 112.192257940000104, -7.681137279999973 ], [ 112.192317120000098, -7.681018909999977 ], [ 112.192296770000098, -7.680922729999963 ], [ 112.192304170000057, -7.680821009999931 ], [ 112.19235226, -7.680661949999944 ], [ 112.1926075, -7.68010892999996 ], [ 112.192707370000107, -7.680160719999947 ], [ 112.192710050000073, -7.68016358999995 ], [ 112.1927108000001, -7.680162109999969 ], [ 112.193075530000101, -7.68035322999998 ], [ 112.193173190000039, -7.680404399999929 ], [ 112.193224970000074, -7.680374809999932 ], [ 112.193326700000057, -7.680406249999976 ], [ 112.193376530000023, -7.680296849999934 ], [ 112.193411780000019, -7.680219439999973 ], [ 112.193470180000077, -7.680246919999945 ], [ 112.193568990000017, -7.680293429999949 ], [ 112.19370729000002, -7.680009069999926 ], [ 112.193731550000052, -7.679959179999969 ], [ 112.193733600000087, -7.679954959999975 ], [ 112.193733830000042, -7.679955112999949 ], [ 112.193750200000068, -7.679966019999938 ], [ 112.193872320000082, -7.680047439999953 ], [ 112.194049870000072, -7.680138059999933 ], [ 112.194128730000102, -7.680160889999968 ], [ 112.194331010000042, -7.680219439999973 ], [ 112.194354650000037, -7.680221259999939 ], [ 112.194381487000101, -7.680223324999929 ], [ 112.194523360000062, -7.680234239999947 ], [ 112.194640430000049, -7.68026926999994 ], [ 112.194753330000026, -7.680303049999964 ], [ 112.194757191, -7.680304203999981 ], [ 112.194453186000032, -7.681013441999937 ], [ 112.193940853000072, -7.680772589999947 ], [ 112.193932997000047, -7.680787509999959 ], [ 112.193513979000045, -7.680574213999932 ], [ 112.193324003000043, -7.680943965999973 ], [ 112.193098868000106, -7.680834334999929 ], [ 112.19285749900007, -7.680761362999931 ], [ 112.192408441000111, -7.681100963999938 ], [ 112.19238787900008, -7.681199660999937 ] ] ] ] } },
{ "type": "Feature", "properties": { "fid": 6851, "kk": null, "gid": 0.0, "bstt": null, "luas": 43344.696057645022, "bsbtt": null, "idsls": "35061500061004", "kdkab": "06", "kdkec": "150", "kdsls": "1004", "nmkab": "KEDIRI", "nmkec": "KUNJANG", "nmsls": "SAWAH", "bstt_k": null, "kddesa": "006", "kdprov": "35", "khusus": null, "muatan": null, "nmdesa": "KUWIK", "nmprov": "JAWA TIMUR", "posisi": null, "rw_dki": null, "segmen": null, "subsls": null, "sumber": null, "dom_sls": null, "periode": "2025_1", "tingkat": null, "idsubsls": "3506150006100400", "nm_gedung": null, "wil_campur": null, "iddesa": "3506150006", "kdsubsls": "00" }, "geometry": { "type": "MultiPolygon", "coordinates": [ [ [ [ 112.196977530000026, -7.672929779999947 ], [ 112.197015730000089, -7.672947909999948 ], [ 112.197019430000068, -7.672938659999943 ], [ 112.197035526000036, -7.672898418999978 ], [ 112.197833133000017, -7.673626885999965 ], [ 112.19790407500011, -7.673449227999981 ], [ 112.197991076000108, -7.673504175999938 ], [ 112.198254898000073, -7.673717477999958 ], [ 112.198524333000023, -7.673992526999939 ], [ 112.198793768000087, -7.674222669999949 ], [ 112.199001458000112, -7.674531396999953 ], [ 112.19881633600005, -7.674700367999947 ], [ 112.198165086000017, -7.675294796999935 ], [ 112.198163284000088, -7.67529381099996 ], [ 112.19805503300006, -7.675234546999945 ], [ 112.197278195000081, -7.674809251999932 ], [ 112.197233057000062, -7.674789122999925 ], [ 112.197070505000056, -7.674716633999935 ], [ 112.196871236000106, -7.674677340999949 ], [ 112.196674772000051, -7.674638048999952 ], [ 112.19620911100003, -7.674427510999976 ], [ 112.196214710000049, -7.674418419999938 ], [ 112.196271180000053, -7.674326779999944 ], [ 112.196342657000059, -7.674102923999953 ], [ 112.196411770000054, -7.673886469999957 ], [ 112.196439490000103, -7.673799649999978 ], [ 112.196585610000056, -7.673363159999951 ], [ 112.196608200000014, -7.673269829999981 ], [ 112.19661894, -7.673242099999925 ], [ 112.196618500000113, -7.673241709999957 ], [ 112.196781610000016, -7.672888669999963 ], [ 112.196786530000054, -7.672878019999928 ], [ 112.196885650000013, -7.672900049999953 ], [ 112.196940660000109, -7.672912279999935 ], [ 112.196977530000026, -7.672929779999947 ] ] ] ] } },
{ "type": "Feature", "properties": { "fid": 6852, "kk": null, "gid": 0.0, "bstt": null, "luas": 1083208.9498015228, "bsbtt": null, "idsls": "35061500061005", "kdkab": "06", "kdkec": "150", "kdsls": "1005", "nmkab": "KEDIRI", "nmkec": "KUNJANG", "nmsls": "SAWAH", "bstt_k": null, "kddesa": "006", "kdprov": "35", "khusus": null, "muatan": null, "nmdesa": "KUWIK", "nmprov": "JAWA TIMUR", "posisi": null, "rw_dki": null, "segmen": null, "subsls": null, "sumber": null, "dom_sls": null, "periode": "2025_1", "tingkat": null, "idsubsls": "3506150006100500", "nm_gedung": null, "wil_campur": null, "iddesa": "3506150006", "kdsubsls": "00" }, "geometry": { "type": "MultiPolygon", "coordinates": [ [ [ [ 112.204018793000046, -7.671076794999976 ], [ 112.204096725000113, -7.671128748999934 ], [ 112.204391133000058, -7.670561579999969 ], [ 112.204663893000088, -7.670734761999938 ], [ 112.20483274500009, -7.670968555999934 ], [ 112.20536960700008, -7.671241316999954 ], [ 112.205278687000032, -7.671466451999947 ], [ 112.205612061000011, -7.671765189999974 ], [ 112.205473516000097, -7.672085574999926 ], [ 112.206701380000027, -7.672625899999957 ], [ 112.206703110000035, -7.672622179999962 ], [ 112.207786950000013, -7.673173349999956 ], [ 112.206973140000059, -7.674815749999937 ], [ 112.206585800000084, -7.674749179999935 ], [ 112.206499660000077, -7.674734369999953 ], [ 112.206482490000099, -7.674864329999934 ], [ 112.206473770000116, -7.674930419999953 ], [ 112.206477460000087, -7.675148669999942 ], [ 112.206440470000075, -7.675329929999975 ], [ 112.206810380000093, -7.675736829999948 ], [ 112.207024930000102, -7.676012409999942 ], [ 112.207156250000025, -7.676324979999947 ], [ 112.207239480000112, -7.676476649999927 ], [ 112.207333810000023, -7.676630159999945 ], [ 112.207574250000107, -7.67724235999998 ], [ 112.207642680000049, -7.677419919999977 ], [ 112.207698170000072, -7.677540139999962 ], [ 112.207946010000114, -7.677887849999934 ], [ 112.208066230000099, -7.678052459999947 ], [ 112.208177200000023, -7.67815048999995 ], [ 112.20833626000001, -7.678265159999967 ], [ 112.208341810000093, -7.678294759999972 ], [ 112.208164250000095, -7.678840369999932 ], [ 112.207978730000036, -7.679296959999931 ], [ 112.207973652000078, -7.679309457999977 ], [ 112.20783133000009, -7.679659719999961 ], [ 112.207474370000114, -7.680445779999957 ], [ 112.207346750000056, -7.680693619999943 ], [ 112.207359700000097, -7.680948859999944 ], [ 112.20742258000007, -7.681193 ], [ 112.207122960000106, -7.681144909999944 ], [ 112.206960200000026, -7.681122719999962 ], [ 112.20677524000007, -7.681054279999955 ], [ 112.206367700000101, -7.680902569999944 ], [ 112.206268470000055, -7.680865629999971 ], [ 112.205974390000051, -7.680778699999962 ], [ 112.205991330000074, -7.680859849999933 ], [ 112.206009530000074, -7.680947009999954 ], [ 112.206109400000059, -7.681254039999942 ], [ 112.206164890000082, -7.681379799999945 ], [ 112.206218530000115, -7.68160174999997 ], [ 112.206246270000065, -7.681718269999976 ], [ 112.206286960000057, -7.681831099999954 ], [ 112.206274010000016, -7.681975359999967 ], [ 112.206168590000061, -7.682175109999946 ], [ 112.206035420000035, -7.68241 ], [ 112.205891160000078, -7.682691139999974 ], [ 112.205819020000035, -7.68290197999994 ], [ 112.205722850000029, -7.683086939999953 ], [ 112.205519400000071, -7.683436499999971 ], [ 112.205375130000107, -7.683725029999948 ], [ 112.205304850000061, -7.683876699999928 ], [ 112.205208140000082, -7.683991099999957 ], [ 112.20500152000011, -7.684235509999951 ], [ 112.205054630000063, -7.684321669999974 ], [ 112.205167980000056, -7.684505539999975 ], [ 112.205463910000049, -7.684897649999925 ], [ 112.20562852, -7.685173229999975 ], [ 112.205741340000031, -7.685348939999926 ], [ 112.205807930000105, -7.685458059999974 ], [ 112.20581543000003, -7.685487 ], [ 112.205846770000107, -7.685607879999964 ], [ 112.205937400000039, -7.68565781999996 ], [ 112.205983630000105, -7.685668909999947 ], [ 112.206011030000013, -7.685655759999975 ], [ 112.206029870000066, -7.685646719999966 ], [ 112.206122350000101, -7.685576429999969 ], [ 112.20615564000002, -7.685570889999951 ], [ 112.206198180000115, -7.685626369999966 ], [ 112.206229620000045, -7.685626369999966 ], [ 112.20637389, -7.685463609999942 ], [ 112.206488038000089, -7.685535743999935 ], [ 112.206490120000012, -7.685537059999945 ], [ 112.206976840000038, -7.685844619999955 ], [ 112.207326660000035, -7.686014829999976 ], [ 112.207327523000117, -7.686015249999969 ], [ 112.208352910000031, -7.686514159999945 ], [ 112.208355950000055, -7.686518019999937 ], [ 112.208359610000116, -7.686518069999977 ], [ 112.208629620000011, -7.686678069999971 ], [ 112.208663558000012, -7.686696838999978 ], [ 112.208666073000018, -7.686698229999934 ], [ 112.208665925000105, -7.686699186999931 ], [ 112.208667564000052, -7.68669942799994 ], [ 112.208592798000041, -7.687173027999961 ], [ 112.20858621800005, -7.687214708999932 ], [ 112.208585175000053, -7.68722242299998 ], [ 112.208566089000101, -7.687363550999976 ], [ 112.208660881000014, -7.687937076999958 ], [ 112.208647412, -7.687944706999929 ], [ 112.208383160000039, -7.688094409999962 ], [ 112.207910600000105, -7.688373689999935 ], [ 112.207786680000027, -7.688452299999938 ], [ 112.207733970000049, -7.688465249999979 ], [ 112.207488910000052, -7.688644649999958 ], [ 112.207411890000117, -7.688701019999939 ], [ 112.207393847000048, -7.688714224999956 ], [ 112.207243077000044, -7.688536393999925 ], [ 112.206895057000111, -7.688474647999954 ], [ 112.206608782000103, -7.688323090999972 ], [ 112.206423545, -7.688104174999978 ], [ 112.206288828000083, -7.687834738999925 ], [ 112.206148497000072, -7.687570917999949 ], [ 112.206114817000071, -7.687413746999937 ], [ 112.205845382, -7.686863649999964 ], [ 112.20564330600007, -7.686437043999945 ], [ 112.205564720000098, -7.686212514999966 ], [ 112.205351418000078, -7.686122702999967 ], [ 112.205098822000082, -7.686016051999957 ], [ 112.20495849100007, -7.68574661699995 ], [ 112.204891132000057, -7.685578219999968 ], [ 112.204891132000057, -7.685449114999926 ], [ 112.204717122000034, -7.685190905999946 ], [ 112.203847071000041, -7.683282406999979 ], [ 112.203476597000076, -7.682743535999975 ], [ 112.203151030000072, -7.682137306999948 ], [ 112.202926501000093, -7.681811739999944 ], [ 112.202567254000087, -7.681396359999951 ], [ 112.202151874000037, -7.680262486999936 ], [ 112.201826307000033, -7.67964503099995 ], [ 112.20154564500001, -7.679151066999964 ], [ 112.201444607000099, -7.679016348999937 ], [ 112.201107813000021, -7.67861219599996 ], [ 112.200815925000029, -7.678039646999935 ], [ 112.200024459000019, -7.676692469999978 ], [ 112.199895354000091, -7.676484780999942 ], [ 112.199788703000081, -7.676142373999937 ], [ 112.199603466000099, -7.675808385999972 ], [ 112.199566368000092, -7.675778992999938 ], [ 112.199566640000057, -7.675778236999975 ], [ 112.199117582000099, -7.67522252699996 ], [ 112.19881633600005, -7.674700367999947 ], [ 112.199001458000112, -7.674531396999953 ], [ 112.198793768000087, -7.674222669999949 ], [ 112.198524333000023, -7.673992526999939 ], [ 112.198254898000073, -7.673717477999958 ], [ 112.197991076000108, -7.673504175999938 ], [ 112.19790407500011, -7.673449227999981 ], [ 112.198443333000114, -7.672098782999967 ], [ 112.198522579000041, -7.671913875999962 ], [ 112.19870220200005, -7.671520949999945 ], [ 112.198725717000116, -7.671391619999952 ], [ 112.19874710800002, -7.67127396799998 ], [ 112.199193342000058, -7.67022056299993 ], [ 112.199319031000073, -7.669905803999939 ], [ 112.199321213000076, -7.66990033999997 ], [ 112.199327832000108, -7.669903077999948 ], [ 112.199458960000015, -7.669957309999972 ], [ 112.19984498000008, -7.670116969999981 ], [ 112.200453480000078, -7.670396249999953 ], [ 112.200814140000034, -7.670594149999943 ], [ 112.202251230000115, -7.671420339999941 ], [ 112.202258640000082, -7.671424599999966 ], [ 112.202266234000035, -7.67142901099993 ], [ 112.202303959, -7.671450921999963 ], [ 112.202540750000026, -7.671588449999945 ], [ 112.203048400000057, -7.671883289999926 ], [ 112.203484944000024, -7.672157204999962 ], [ 112.204018793000046, -7.671076794999976 ] ] ] ] } },
{ "type": "Feature", "properties": { "fid": 6853, "kk": null, "gid": 0.0, "bstt": null, "luas": 16130.059977291035, "bsbtt": null, "idsls": "35061500060004", "kdkab": "06", "kdkec": "150", "kdsls": "0004", "nmkab": "KEDIRI", "nmkec": "KUNJANG", "nmsls": "RT 004 RW 001 DUSUN KUWIK", "bstt_k": null, "kddesa": "006", "kdprov": "35", "khusus": null, "muatan": null, "nmdesa": "KUWIK", "nmprov": "JAWA TIMUR", "posisi": null, "rw_dki": null, "segmen": null, "subsls": null, "sumber": null, "dom_sls": null, "periode": "2025_1", "tingkat": null, "idsubsls": "3506150006000400", "nm_gedung": null, "wil_campur": null, "iddesa": "3506150006", "kdsubsls": "00" }, "geometry": { "type": "MultiPolygon", "coordinates": [ [ [ [ 112.197513102000016, -7.676033635999943 ], [ 112.197474603000046, -7.676013993999959 ], [ 112.197391763000041, -7.676137830999949 ], [ 112.197428112000011, -7.676272233999953 ], [ 112.197500407, -7.676160713999934 ], [ 112.197503196000071, -7.67616204199993 ], [ 112.197562135000112, -7.67616204199993 ], [ 112.197721412000078, -7.67625548999996 ], [ 112.197434669000017, -7.676899489999926 ], [ 112.196919131000072, -7.676628776999962 ], [ 112.196998706000045, -7.67643217899996 ], [ 112.196878022000078, -7.676339559999974 ], [ 112.196920121000062, -7.676241328999936 ], [ 112.196765757000094, -7.676154323999981 ], [ 112.196838729000092, -7.67593540699994 ], [ 112.196752192000076, -7.675892138999927 ], [ 112.196998706000045, -7.67527585299996 ], [ 112.197233057000062, -7.674789122999925 ], [ 112.197278195000081, -7.674809251999932 ], [ 112.19805503300006, -7.675234546999945 ], [ 112.197958569000093, -7.675444249999941 ], [ 112.197938746000091, -7.675430397999946 ], [ 112.197852180000041, -7.675595851999958 ], [ 112.197515101000022, -7.675424562999979 ], [ 112.19747110000003, -7.675495278999961 ], [ 112.197365812000044, -7.675465420999956 ], [ 112.19724326000005, -7.675699816999952 ], [ 112.197463452000079, -7.675828083999932 ], [ 112.197518513000091, -7.675750922999953 ], [ 112.197624016000077, -7.675817463999977 ], [ 112.197513102000016, -7.676033635999943 ] ] ] ] } },
{ "type": "Feature", "properties": { "fid": 6854, "kk": null, "gid": 0.0, "bstt": null, "luas": 32526.861783583834, "bsbtt": null, "idsls": "35061500060001", "kdkab": "06", "kdkec": "150", "kdsls": "0001", "nmkab": "KEDIRI", "nmkec": "KUNJANG", "nmsls": "RT 001 RW 001 DUSUN KUWIK", "bstt_k": null, "kddesa": "006", "kdprov": "35", "khusus": null, "muatan": null, "nmdesa": "KUWIK", "nmprov": "JAWA TIMUR", "posisi": null, "rw_dki": null, "segmen": null, "subsls": null, "sumber": null, "dom_sls": null, "periode": "2025_1", "tingkat": null, "idsubsls": "3506150006000100", "nm_gedung": null, "wil_campur": null, "iddesa": "3506150006", "kdsubsls": "00" }, "geometry": { "type": "MultiPolygon", "coordinates": [ [ [ [ 112.197428112000011, -7.676272233999953 ], [ 112.197391763000041, -7.676137830999949 ], [ 112.197474603000046, -7.676013993999959 ], [ 112.197513102000016, -7.676033635999943 ], [ 112.197624016000077, -7.675817463999977 ], [ 112.197518513000091, -7.675750922999953 ], [ 112.197463452000079, -7.675828083999932 ], [ 112.19724326000005, -7.675699816999952 ], [ 112.197365812000044, -7.675465420999956 ], [ 112.19747110000003, -7.675495278999961 ], [ 112.197515101000022, -7.675424562999979 ], [ 112.197852180000041, -7.675595851999958 ], [ 112.197938746000091, -7.675430397999946 ], [ 112.197958569000093, -7.675444249999941 ], [ 112.19805503300006, -7.675234546999945 ], [ 112.198163284000088, -7.67529381099996 ], [ 112.198165086000017, -7.675294796999935 ], [ 112.19881633600005, -7.674700367999947 ], [ 112.199117582000099, -7.67522252699996 ], [ 112.199566640000057, -7.675778236999975 ], [ 112.199566368000092, -7.675778992999938 ], [ 112.199336498000093, -7.676418145999946 ], [ 112.199106361000077, -7.676940163999973 ], [ 112.198481883000113, -7.676624431999926 ], [ 112.197721437000041, -7.676255432999938 ], [ 112.197721412000078, -7.67625548999996 ], [ 112.197562135000112, -7.67616204199993 ], [ 112.197503196000071, -7.67616204199993 ], [ 112.197500407, -7.676160713999934 ], [ 112.197428112000011, -7.676272233999953 ] ] ] ] } },
{ "type": "Feature", "properties": { "fid": 6855, "kk": null, "gid": 0.0, "bstt": null, "luas": 17926.462545987131, "bsbtt": null, "idsls": "35061500060005", "kdkab": "06", "kdkec": "150", "kdsls": "0005", "nmkab": "KEDIRI", "nmkec": "KUNJANG", "nmsls": "RT 005 RW 001 DUSUN KUWIK", "bstt_k": null, "kddesa": "006", "kdprov": "35", "khusus": null, "muatan": null, "nmdesa": "KUWIK", "nmprov": "JAWA TIMUR", "posisi": null, "rw_dki": null, "segmen": null, "subsls": null, "sumber": null, "dom_sls": null, "periode": "2025_1", "tingkat": null, "idsubsls": "3506150006000500", "nm_gedung": null, "wil_campur": null, "iddesa": "3506150006", "kdsubsls": "00" }, "geometry": { "type": "MultiPolygon", "coordinates": [ [ [ [ 112.19618442, -7.67604780299996 ], [ 112.196201023000071, -7.675992848999954 ], [ 112.196006878000048, -7.675921940999956 ], [ 112.196102562000078, -7.675665226999968 ], [ 112.195724068000118, -7.675541559999942 ], [ 112.195727890000057, -7.675529329999961 ], [ 112.19580140000005, -7.675294089999966 ], [ 112.196060330000023, -7.674668939999947 ], [ 112.196208650000017, -7.674428259999956 ], [ 112.19620911100003, -7.674427510999976 ], [ 112.196674772000051, -7.674638048999952 ], [ 112.196871236000106, -7.674677340999949 ], [ 112.197070505000056, -7.674716633999935 ], [ 112.197233057000062, -7.674789122999925 ], [ 112.196998706000045, -7.67527585299996 ], [ 112.196752192000076, -7.675892138999927 ], [ 112.196625426000082, -7.67582875599993 ], [ 112.196435696000094, -7.676142031999973 ], [ 112.19618442, -7.67604780299996 ] ] ] ] } },
{ "type": "Feature", "properties": { "fid": 6856, "kk": null, "gid": 0.0, "bstt": null, "luas": 24766.588107978227, "bsbtt": null, "idsls": "35061500060010", "kdkab": "06", "kdkec": "150", "kdsls": "0010", "nmkab": "KEDIRI", "nmkec": "KUNJANG", "nmsls": "RT 001 RW 001 DUSUN SUGIHWARAS", "bstt_k": null, "kddesa": "006", "kdprov": "35", "khusus": null, "muatan": null, "nmdesa": "KUWIK", "nmprov": "JAWA TIMUR", "posisi": null, "rw_dki": null, "segmen": null, "subsls": null, "sumber": null, "dom_sls": null, "periode": "2025_1", "tingkat": null, "idsubsls": "3506150006001000", "nm_gedung": null, "wil_campur": null, "iddesa": "3506150006", "kdsubsls": "00" }, "geometry": { "type": "MultiPolygon", "coordinates": [ [ [ [ 112.203024398000025, -7.686770058999969 ], [ 112.202741395000089, -7.687310844999956 ], [ 112.202741395000089, -7.687364170999956 ], [ 112.202558965000094, -7.68772622399996 ], [ 112.202310735000083, -7.688162925999961 ], [ 112.201967421000063, -7.688005676999978 ], [ 112.201845817000049, -7.688260626999977 ], [ 112.201552245000016, -7.688112518999958 ], [ 112.201701061000108, -7.687770888999978 ], [ 112.201650542000039, -7.687706336999952 ], [ 112.201670189000083, -7.68746777399997 ], [ 112.201653349000026, -7.687344282999959 ], [ 112.201535471000057, -7.68701310199998 ], [ 112.201479339000116, -7.686788572999944 ], [ 112.201378301000091, -7.686625788999947 ], [ 112.201574764000043, -7.686081305999949 ], [ 112.202136087000099, -7.686288994999927 ], [ 112.202391489000092, -7.686432132999926 ], [ 112.202363423000065, -7.686575269999935 ], [ 112.202736703000028, -7.686704374999977 ], [ 112.202930360000096, -7.686726826999973 ], [ 112.203017365000051, -7.686752086999945 ], [ 112.203024398000025, -7.686770058999969 ] ] ] ] } },
{ "type": "Feature", "properties": { "fid": 6857, "kk": null, "gid": 0.0, "bstt": null, "luas": 70765.037643097807, "bsbtt": null, "idsls": "35061500060015", "kdkab": "06", "kdkec": "150", "kdsls": "0015", "nmkab": "KEDIRI", "nmkec": "KUNJANG", "nmsls": "RT 003 RW 002 DUSUN SUGIHWARAS", "bstt_k": null, "kddesa": "006", "kdprov": "35", "khusus": null, "muatan": null, "nmdesa": "KUWIK", "nmprov": "JAWA TIMUR", "posisi": null, "rw_dki": null, "segmen": null, "subsls": null, "sumber": null, "dom_sls": null, "periode": "2025_1", "tingkat": null, "idsubsls": "3506150006001500", "nm_gedung": null, "wil_campur": null, "iddesa": "3506150006", "kdsubsls": "00" }, "geometry": { "type": "MultiPolygon", "coordinates": [ [ [ [ 112.200988977000065, -7.688998954999931 ], [ 112.201034985000092, -7.689102074999937 ], [ 112.201069266000104, -7.689178911999932 ], [ 112.201397640000096, -7.689226623999957 ], [ 112.201672688000031, -7.689372567999953 ], [ 112.201507098000093, -7.689574644999936 ], [ 112.201523221000116, -7.689587103999941 ], [ 112.201380242000027, -7.689761571999952 ], [ 112.201987022000026, -7.690005957999972 ], [ 112.202048775000094, -7.690071415999967 ], [ 112.202020709000067, -7.690211746999978 ], [ 112.202158653000083, -7.690452471999947 ], [ 112.20204405100003, -7.690693347999968 ], [ 112.202271597000049, -7.69079856899998 ], [ 112.20223949800004, -7.690893469999935 ], [ 112.202721942000039, -7.691280128999949 ], [ 112.202409190000026, -7.691440669999963 ], [ 112.20238396000002, -7.691453649999971 ], [ 112.202378308000107, -7.69145655799997 ], [ 112.202059550000058, -7.691620579999949 ], [ 112.201720245000047, -7.691796382999939 ], [ 112.201697130000071, -7.691808359999925 ], [ 112.201687825000022, -7.69181318099993 ], [ 112.201345630000105, -7.691990489999966 ], [ 112.201337250000051, -7.69198997999996 ], [ 112.201124880000066, -7.692091 ], [ 112.200049090000107, -7.692602689999944 ], [ 112.199582545000112, -7.692618392999975 ], [ 112.199617543000045, -7.692414238999959 ], [ 112.200122734000047, -7.691201780999961 ], [ 112.200133961, -7.690191398999957 ], [ 112.200336037000056, -7.689776018999964 ], [ 112.200437075000082, -7.689495357999931 ], [ 112.200448228000027, -7.689492290999965 ], [ 112.200437075000082, -7.68945711799995 ], [ 112.200366910000071, -7.689381338999965 ], [ 112.200270364000062, -7.689317894999931 ], [ 112.200988977000065, -7.688998954999931 ] ] ] ] } },
{ "type": "Feature", "properties": { "fid": 6858, "kk": null, "gid": 0.0, "bstt": null, "luas": 29720.727452717547, "bsbtt": null, "idsls": "35061500060012", "kdkab": "06", "kdkec": "150", "kdsls": "0012", "nmkab": "KEDIRI", "nmkec": "KUNJANG", "nmsls": "RT 003 RW 001 DUSUN SUGIHWARAS", "bstt_k": null, "kddesa": "006", "kdprov": "35", "khusus": null, "muatan": null, "nmdesa": "KUWIK", "nmprov": "JAWA TIMUR", "posisi": null, "rw_dki": null, "segmen": null, "subsls": null, "sumber": null, "dom_sls": null, "periode": "2025_1", "tingkat": null, "idsubsls": "3506150006001200", "nm_gedung": null, "wil_campur": null, "iddesa": "3506150006", "kdsubsls": "00" }, "geometry": { "type": "MultiPolygon", "coordinates": [ [ [ [ 112.203315842000052, -7.688116199999968 ], [ 112.203162396000039, -7.688434387999962 ], [ 112.203752802000054, -7.688717741999938 ], [ 112.20377028900009, -7.688672275999977 ], [ 112.203934208000078, -7.688746429999981 ], [ 112.203945434000047, -7.68878291599998 ], [ 112.204423962000078, -7.688976571999945 ], [ 112.204356603000065, -7.689195487999939 ], [ 112.205728111000099, -7.68969279099997 ], [ 112.20541146000005, -7.689853039999946 ], [ 112.205410368000116, -7.689853591999963 ], [ 112.20540539000001, -7.689856109999937 ], [ 112.205152210000051, -7.689978309999958 ], [ 112.205129209, -7.689989538999953 ], [ 112.204076643, -7.689597886999934 ], [ 112.203680910000116, -7.689370550999968 ], [ 112.203476027000079, -7.689179700999944 ], [ 112.203243078000014, -7.689044982999974 ], [ 112.20311958700006, -7.689247059999957 ], [ 112.20294277000005, -7.689171280999972 ], [ 112.202805246000025, -7.689120761999959 ], [ 112.202757533000067, -7.689148827999929 ], [ 112.202614396000058, -7.689081468999973 ], [ 112.202485292, -7.689047789999961 ], [ 112.202467497000043, -7.689017538999963 ], [ 112.202458001000082, -7.689001395999981 ], [ 112.202505237000082, -7.688915827999949 ], [ 112.202354706000051, -7.688842663999935 ], [ 112.202455822000047, -7.688661879999927 ], [ 112.202340751000065, -7.688597327999958 ], [ 112.202161127000068, -7.688426123999932 ], [ 112.202163964000079, -7.688421133999952 ], [ 112.202310735000083, -7.688162925999961 ], [ 112.202558965000094, -7.68772622399996 ], [ 112.202772268000103, -7.687802002999945 ], [ 112.202898566000044, -7.687911460999942 ], [ 112.203315842000052, -7.688116199999968 ] ] ] ] } },
{ "type": "Feature", "properties": { "fid": 6859, "kk": null, "gid": 0.0, "bstt": null, "luas": 81203.970548812664, "bsbtt": null, "idsls": "35061500060018", "kdkab": "06", "kdkec": "150", "kdsls": "0018", "nmkab": "KEDIRI", "nmkec": "KUNJANG", "nmsls": "RT 001 RW 002 DUSUN PRAYUNGAN", "bstt_k": null, "kddesa": "006", "kdprov": "35", "khusus": null, "muatan": null, "nmdesa": "KUWIK", "nmprov": "JAWA TIMUR", "posisi": null, "rw_dki": null, "segmen": null, "subsls": null, "sumber": null, "dom_sls": null, "periode": "2025_1", "tingkat": null, "idsubsls": "3506150006001800", "nm_gedung": null, "wil_campur": null, "iddesa": "3506150006", "kdsubsls": "00" }, "geometry": { "type": "MultiPolygon", "coordinates": [ [ [ [ 112.200988977000065, -7.688998954999931 ], [ 112.200270364000062, -7.689317894999931 ], [ 112.200268678000043, -7.689316786999939 ], [ 112.200220966000074, -7.689325206999968 ], [ 112.199797167000042, -7.689451503999976 ], [ 112.199404240000035, -7.689558155999975 ], [ 112.199084286000016, -7.68954692899996 ], [ 112.198652067000012, -7.689451503999976 ], [ 112.198545415000012, -7.689395371999979 ], [ 112.198444377000101, -7.689249427999926 ], [ 112.19824230100005, -7.688963152999975 ], [ 112.198068291000027, -7.688828434999948 ], [ 112.198068324000019, -7.688828327999943 ], [ 112.198309660000064, -7.688048195999954 ], [ 112.198365792000118, -7.687806826999974 ], [ 112.199109545000056, -7.686004978999961 ], [ 112.19922181000004, -7.685901133999948 ], [ 112.199225169000101, -7.685895861999938 ], [ 112.199443390000056, -7.685553337999977 ], [ 112.199443533000021, -7.685553112999969 ], [ 112.200027309, -7.686608400999944 ], [ 112.200453915000026, -7.687641235999934 ], [ 112.200988112, -7.688996371999963 ], [ 112.20098787400002, -7.688996481999936 ], [ 112.200988977000065, -7.688998954999931 ] ] ] ] } },
{ "type": "Feature", "properties": { "fid": 6860, "kk": null, "gid": 0.0, "bstt": null, "luas": 17007.273976854456, "bsbtt": null, "idsls": "35061500060021", "kdkab": "06", "kdkec": "150", "kdsls": "0021", "nmkab": "KEDIRI", "nmkec": "KUNJANG", "nmsls": "RT 001 RW 001 DUSUN KEDUNGBOGO", "bstt_k": null, "kddesa": "006", "kdprov": "35", "khusus": null, "muatan": null, "nmdesa": "KUWIK", "nmprov": "JAWA TIMUR", "posisi": null, "rw_dki": null, "segmen": null, "subsls": null, "sumber": null, "dom_sls": null, "periode": "2025_1", "tingkat": null, "idsubsls": "3506150006002100", "nm_gedung": null, "wil_campur": null, "iddesa": "3506150006", "kdsubsls": "00" }, "geometry": { "type": "MultiPolygon", "coordinates": [ [ [ [ 112.19599792200006, -7.680720684999926 ], [ 112.195847434000029, -7.680984529999932 ], [ 112.195601087000114, -7.680854947999933 ], [ 112.195405413000117, -7.681132756999943 ], [ 112.195364159000064, -7.681238838999946 ], [ 112.195320184000025, -7.681303507999928 ], [ 112.195317294, -7.681307757999946 ], [ 112.194790319000049, -7.681090447999964 ], [ 112.194750562000081, -7.681064477999939 ], [ 112.194572342000015, -7.681050444999926 ], [ 112.194457271000033, -7.681015361999926 ], [ 112.194453186000032, -7.681013441999937 ], [ 112.194757191, -7.680304203999981 ], [ 112.194758250000064, -7.680304519999936 ], [ 112.195050480000077, -7.679679369999974 ], [ 112.19512792, -7.679510027999982 ], [ 112.195625218000032, -7.68013362399995 ], [ 112.1957487090001, -7.680307633999973 ], [ 112.195720643000072, -7.680394638999928 ], [ 112.19599792200006, -7.680720684999926 ] ] ] ] } },
{ "type": "Feature", "properties": { "fid": 6861, "kk": null, "gid": 0.0, "bstt": null, "luas": 16528.879843474977, "bsbtt": null, "idsls": "35061500060022", "kdkab": "06", "kdkec": "150", "kdsls": "0022", "nmkab": "KEDIRI", "nmkec": "KUNJANG", "nmsls": "RT 002 RW 001 DUSUN KEDUNGBOGO", "bstt_k": null, "kddesa": "006", "kdprov": "35", "khusus": null, "muatan": null, "nmdesa": "KUWIK", "nmprov": "JAWA TIMUR", "posisi": null, "rw_dki": null, "segmen": null, "subsls": null, "sumber": null, "dom_sls": null, "periode": "2025_1", "tingkat": null, "idsubsls": "3506150006002200", "nm_gedung": null, "wil_campur": null, "iddesa": "3506150006", "kdsubsls": "00" }, "geometry": { "type": "MultiPolygon", "coordinates": [ [ [ [ 112.195453716000088, -7.681361638999931 ], [ 112.195320184000025, -7.681303507999928 ], [ 112.195364159000064, -7.681238838999946 ], [ 112.195405413000117, -7.681132756999943 ], [ 112.195601087000114, -7.680854947999933 ], [ 112.195847434000029, -7.680984529999932 ], [ 112.19599792200006, -7.680720684999926 ], [ 112.19599990200004, -7.680723013999966 ], [ 112.196225377000019, -7.680871052999976 ], [ 112.196277757000075, -7.680905443999961 ], [ 112.196406861000014, -7.681144005999954 ], [ 112.196575258000053, -7.681508865999945 ], [ 112.196579066000027, -7.681513327999937 ], [ 112.196195092000039, -7.682286036999926 ], [ 112.19612036400008, -7.682436418999941 ], [ 112.195733936000011, -7.682238567999946 ], [ 112.195805944000085, -7.682093019999968 ], [ 112.195598161000021, -7.681989959999953 ], [ 112.195226481000077, -7.681765096999925 ], [ 112.195453716000088, -7.681361638999931 ] ] ] ] } },
{ "type": "Feature", "properties": { "fid": 6862, "kk": null, "gid": 0.0, "bstt": null, "luas": 15222.831703887656, "bsbtt": null, "idsls": "35061500060024", "kdkab": "06", "kdkec": "150", "kdsls": "0024", "nmkab": "KEDIRI", "nmkec": "KUNJANG", "nmsls": "RT 001 RW 002 DUSUN KEDUNGBOGO", "bstt_k": null, "kddesa": "006", "kdprov": "35", "khusus": null, "muatan": null, "nmdesa": "KUWIK", "nmprov": "JAWA TIMUR", "posisi": null, "rw_dki": null, "segmen": null, "subsls": null, "sumber": null, "dom_sls": null, "periode": "2025_1", "tingkat": null, "idsubsls": "3506150006002400", "nm_gedung": null, "wil_campur": null, "iddesa": "3506150006", "kdsubsls": "00" }, "geometry": { "type": "MultiPolygon", "coordinates": [ [ [ [ 112.195226481000077, -7.681765096999925 ], [ 112.195598161000021, -7.681989959999953 ], [ 112.195805944000085, -7.682093019999968 ], [ 112.195733936000011, -7.682238567999946 ], [ 112.19612036400008, -7.682436418999941 ], [ 112.196015822000049, -7.682646799999929 ], [ 112.195389182000099, -7.682357126999932 ], [ 112.195263330000103, -7.68263464599994 ], [ 112.195064904000105, -7.682552686999941 ], [ 112.194711270000084, -7.682426388999943 ], [ 112.194534453000074, -7.682286057999931 ], [ 112.194260973000041, -7.682148594999944 ], [ 112.194310446000031, -7.682009894999965 ], [ 112.194066645000021, -7.681901140999969 ], [ 112.194006911000088, -7.682020890999979 ], [ 112.194004002000042, -7.682019428999979 ], [ 112.194003915000053, -7.682019599999933 ], [ 112.194003839000061, -7.682019749999938 ], [ 112.194002721000061, -7.682018920999951 ], [ 112.193986210000048, -7.68200666599995 ], [ 112.193755985000053, -7.68187348999993 ], [ 112.193815667000081, -7.681630171999927 ], [ 112.194123284000057, -7.68177314899998 ], [ 112.19422712800008, -7.681537392999928 ], [ 112.1946172480001, -7.681680529999937 ], [ 112.194678994000014, -7.68154300599997 ], [ 112.195142086000033, -7.681714209999939 ], [ 112.195142155000099, -7.681714079999949 ], [ 112.195226481000077, -7.681765096999925 ] ] ] ] } },
{ "type": "Feature", "properties": { "fid": 6863, "kk": null, "gid": 0.0, "bstt": null, "luas": 870256.7018686051, "bsbtt": null, "idsls": "35061500061001", "kdkab": "06", "kdkec": "150", "kdsls": "1001", "nmkab": "KEDIRI", "nmkec": "KUNJANG", "nmsls": "SAWAH", "bstt_k": null, "kddesa": "006", "kdprov": "35", "khusus": null, "muatan": null, "nmdesa": "KUWIK", "nmprov": "JAWA TIMUR", "posisi": null, "rw_dki": null, "segmen": null, "subsls": null, "sumber": null, "dom_sls": null, "periode": "2025_1", "tingkat": null, "idsubsls": "3506150006100100", "nm_gedung": null, "wil_campur": null, "iddesa": "3506150006", "kdsubsls": "00" }, "geometry": { "type": "MultiPolygon", "coordinates": [ [ [ [ 112.191026819000058, -7.680382742999939 ], [ 112.191181960000108, -7.68043444999995 ], [ 112.191359520000105, -7.680504739999947 ], [ 112.191514880000113, -7.680593509999937 ], [ 112.191633250000109, -7.680756279999969 ], [ 112.191685040000038, -7.680985619999944 ], [ 112.191718330000072, -7.681203869999933 ], [ 112.191810780000083, -7.681409659999929 ], [ 112.191811261000112, -7.681409386999974 ], [ 112.192363886000066, -7.68200785199997 ], [ 112.192690754000068, -7.682204504999959 ], [ 112.192697522000117, -7.682215190999955 ], [ 112.193129741, -7.682495852999978 ], [ 112.193382337000116, -7.682754060999969 ], [ 112.193477762000043, -7.682855098999937 ], [ 112.193494542000053, -7.682857120999927 ], [ 112.193975936000015, -7.683330118999947 ], [ 112.194256598000038, -7.683470449999959 ], [ 112.194509193000044, -7.683633233999956 ], [ 112.194649524000056, -7.683784790999937 ], [ 112.194744949000096, -7.683936348999964 ], [ 112.195029821000048, -7.684578186999943 ], [ 112.195042100000023, -7.684593271999972 ], [ 112.195042519000026, -7.684593507999978 ], [ 112.195202252000058, -7.684977427999968 ], [ 112.195673764000048, -7.685701534999964 ], [ 112.195825321000029, -7.686066394999955 ], [ 112.196108790000039, -7.686686657999928 ], [ 112.196164922000094, -7.686843827999951 ], [ 112.196207021000077, -7.687034677999975 ], [ 112.19631086600009, -7.687256400999956 ], [ 112.196371910000039, -7.687429007999981 ], [ 112.19637883900009, -7.687433956999939 ], [ 112.196403967000037, -7.687512131999938 ], [ 112.196631303000117, -7.687719821999963 ], [ 112.196858639000084, -7.687789986999974 ], [ 112.19726279200006, -7.687795599999959 ], [ 112.197490128000027, -7.688093101999925 ], [ 112.197641685, -7.688455154999929 ], [ 112.197737110000048, -7.68859548599994 ], [ 112.19787744100006, -7.688721783999938 ], [ 112.198050749000117, -7.688821418999964 ], [ 112.198068324000019, -7.688828327999943 ], [ 112.198068291000027, -7.688828434999948 ], [ 112.19824230100005, -7.688963152999975 ], [ 112.198444377000101, -7.689249427999926 ], [ 112.198545415000012, -7.689395371999979 ], [ 112.198652067000012, -7.689451503999976 ], [ 112.199084286000016, -7.68954692899996 ], [ 112.199404240000035, -7.689558155999975 ], [ 112.199797167000042, -7.689451503999976 ], [ 112.200220966000074, -7.689325206999968 ], [ 112.200268678000043, -7.689316786999939 ], [ 112.200270364000062, -7.689317894999931 ], [ 112.200366910000071, -7.689381338999965 ], [ 112.200437075000082, -7.68945711799995 ], [ 112.200448228000027, -7.689492290999965 ], [ 112.200437075000082, -7.689495357999931 ], [ 112.200336037000056, -7.689776018999964 ], [ 112.200133961, -7.690191398999957 ], [ 112.200122734000047, -7.691201780999961 ], [ 112.199617543000045, -7.692414238999959 ], [ 112.199582545000112, -7.692618392999975 ], [ 112.199577929000043, -7.692618547999928 ], [ 112.199560360000078, -7.692619139999977 ], [ 112.199279680000018, -7.692628579999962 ], [ 112.198541380000052, -7.69225806999998 ], [ 112.198290170000064, -7.692125499999975 ], [ 112.198237430000063, -7.69225806999998 ], [ 112.19822174, -7.692297509999946 ], [ 112.198197690000029, -7.692299359999936 ], [ 112.198078400000099, -7.69225806999998 ], [ 112.197957250000059, -7.692216129999963 ], [ 112.197844430000032, -7.692175439999971 ], [ 112.197796340000082, -7.692136599999969 ], [ 112.197759350000069, -7.692092209999942 ], [ 112.197714960000098, -7.692060769999955 ], [ 112.197385740000072, -7.691899859999978 ], [ 112.196952940000074, -7.691685309999968 ], [ 112.196928900000103, -7.691679759999943 ], [ 112.196838270000057, -7.691653869999925 ], [ 112.196751340000105, -7.691574339999931 ], [ 112.196590430000015, -7.69141897999998 ], [ 112.196459110000092, -7.69131724999994 ], [ 112.196287110000071, -7.691197029999955 ], [ 112.19607996000002, -7.691110099999946 ], [ 112.196007820000091, -7.691100849999941 ], [ 112.195898700000043, -7.691707509999958 ], [ 112.195854690000033, -7.691893319999963 ], [ 112.195447710000053, -7.691711339999927 ], [ 112.195473300000117, -7.692079269999965 ], [ 112.195351683000013, -7.692090320999966 ], [ 112.195318020000059, -7.69209337999996 ], [ 112.195066400000087, -7.692116259999978 ], [ 112.195070100000066, -7.691942399999959 ], [ 112.192806250000103, -7.691202579999981 ], [ 112.192799100000116, -7.691229939999971 ], [ 112.191078770000104, -7.690965839999933 ], [ 112.19112455000004, -7.691420099999959 ], [ 112.190879020000011, -7.691365339999948 ], [ 112.190703310000117, -7.691320949999977 ], [ 112.190235380000104, -7.691147089999959 ], [ 112.190131370000017, -7.69143207999997 ], [ 112.190066013000092, -7.691661930999942 ], [ 112.190051850000032, -7.69171173999996 ], [ 112.190050420000034, -7.691716749999955 ], [ 112.189895060000026, -7.691568789999963 ], [ 112.189668070000039, -7.691362839999954 ], [ 112.189495380000039, -7.691199599999948 ], [ 112.189379580000036, -7.691090119999956 ], [ 112.189361038000015, -7.691073082999935 ], [ 112.189843813000039, -7.689889135999977 ], [ 112.18909636, -7.689628945999971 ], [ 112.188759876000063, -7.689517827999964 ], [ 112.188949550000075, -7.68898121999996 ], [ 112.18900134, -7.688818459999936 ], [ 112.188999490000015, -7.688761129999932 ], [ 112.189006890000087, -7.688677899999959 ], [ 112.189017980000017, -7.688631659999942 ], [ 112.189045730000089, -7.688533629999938 ], [ 112.189114160000031, -7.688363479999964 ], [ 112.189132660000041, -7.688324629999954 ], [ 112.189180750000105, -7.688200709999933 ], [ 112.189217740000117, -7.688117489999968 ], [ 112.189243630000078, -7.68807494999993 ], [ 112.189258430000109, -7.688045349999925 ], [ 112.189276920000111, -7.687917729999981 ], [ 112.18930282000008, -7.687825259999954 ], [ 112.189321310000082, -7.687751269999978 ], [ 112.189365700000053, -7.68761995999995 ], [ 112.189378650000094, -7.687536729999977 ], [ 112.189352750000012, -7.687512679999941 ], [ 112.189291720000028, -7.68748863999997 ], [ 112.189245480000068, -7.687477539999975 ], [ 112.189208490000055, -7.687447949999978 ], [ 112.189153, -7.687392459999955 ], [ 112.18909197000005, -7.687344369999948 ], [ 112.189038330000017, -7.687298129999931 ], [ 112.188919960000021, -7.687194559999966 ], [ 112.188919960000021, -7.68716311999998 ], [ 112.189038330000017, -7.687074339999981 ], [ 112.189054980000037, -7.687044749999927 ], [ 112.18906977000006, -7.687004059999936 ], [ 112.18907902, -7.68694856999997 ], [ 112.189064220000091, -7.686869039999976 ], [ 112.189053130000048, -7.686804299999949 ], [ 112.189054980000037, -7.686759919999929 ], [ 112.189062150000041, -7.686691799999949 ], [ 112.189072080000074, -7.686665129999938 ], [ 112.1890758400001, -7.686612519999926 ], [ 112.189092430000073, -7.686581899999965 ], [ 112.189112770000065, -7.686526409999942 ], [ 112.189138670000034, -7.686456129999954 ], [ 112.189171070000043, -7.686349829999926 ], [ 112.189155610000057, -7.686199759999965 ], [ 112.189373100000012, -7.68563168999998 ], [ 112.189458180000088, -7.68541898999996 ], [ 112.189639430000057, -7.684951059999946 ], [ 112.189437830000088, -7.684773499999949 ], [ 112.189792950000083, -7.683933799999977 ], [ 112.190016740000033, -7.68338633999997 ], [ 112.189996400000041, -7.683356739999965 ], [ 112.189961260000018, -7.683316049999974 ], [ 112.189957560000039, -7.683275359999925 ], [ 112.189948310000091, -7.683182889999955 ], [ 112.190094420000037, -7.682740839999951 ], [ 112.190370010000038, -7.682130489999963 ], [ 112.190684430000033, -7.68142950999993 ], [ 112.190469880000023, -7.681349979999936 ], [ 112.19055311000011, -7.681146529999978 ], [ 112.19035706000011, -7.681074399999943 ], [ 112.19040472000006, -7.680955249999954 ], [ 112.190583700000047, -7.680879069999946 ], [ 112.190591090000112, -7.680875919999949 ], [ 112.190601590000028, -7.680871459999935 ], [ 112.190641890000052, -7.680854299999964 ], [ 112.190730670000107, -7.680793269999981 ], [ 112.190884180000012, -7.680652699999939 ], [ 112.19091306200005, -7.680597938999938 ], [ 112.190913810000097, -7.680596519999938 ], [ 112.190994310000065, -7.680443889999935 ], [ 112.1910266000001, -7.680382669999972 ], [ 112.191026819000058, -7.680382742999939 ] ] ] ] } }
]
}
