{
"type": "FeatureCollection",
"name": "iddesa_3506150005",
"crs": { "type": "name", "properties": { "name": "urn:ogc:def:crs:OGC:1.3:CRS84" } },
"features": [
{ "type": "Feature", "properties": { "fid": 6811, "kk": null, "gid": 0.0, "bstt": null, "luas": 27982.99922954799, "bsbtt": null, "idsls": "35061500050002", "kdkab": "06", "kdkec": "150", "kdsls": "0002", "nmkab": "KEDIRI", "nmkec": "KUNJANG", "nmsls": "RT 002 RW 001 DUSUN BALONGJERUK", "bstt_k": null, "kddesa": "005", "kdprov": "35", "khusus": null, "muatan": null, "nmdesa": "BALONGJERUK", "nmprov": "JAWA TIMUR", "posisi": null, "rw_dki": null, "segmen": null, "subsls": null, "sumber": null, "dom_sls": null, "periode": "2025_1", "tingkat": null, "idsubsls": "3506150005000200", "nm_gedung": null, "wil_campur": null, "iddesa": "3506150005", "kdsubsls": "00" }, "geometry": { "type": "MultiPolygon", "coordinates": [ [ [ [ 112.192834281000046, -7.673887443999945 ], [ 112.192642988000102, -7.673815708999939 ], [ 112.192529692000107, -7.674088327999925 ], [ 112.192160919000116, -7.673835649999944 ], [ 112.191865410000105, -7.673734743999944 ], [ 112.191711649000013, -7.673669875999963 ], [ 112.191617951000012, -7.673922139999945 ], [ 112.191512241000055, -7.673994214999937 ], [ 112.191315235000047, -7.674248881999972 ], [ 112.191070179, -7.674407446999965 ], [ 112.191014499000062, -7.674364582999942 ], [ 112.190676167000106, -7.674104129999932 ], [ 112.190676049000103, -7.674103834999926 ], [ 112.190676767000014, -7.674104330999967 ], [ 112.191088398000034, -7.673615819999952 ], [ 112.191192506000107, -7.673548549999964 ], [ 112.19147440100005, -7.673865680999938 ], [ 112.191908921000049, -7.672369 ], [ 112.192000551000092, -7.672411760999978 ], [ 112.193328321000081, -7.672893551999948 ], [ 112.193131533000042, -7.673657863999949 ], [ 112.19297296700006, -7.673614618999977 ], [ 112.192834281000046, -7.673887443999945 ] ] ] ] } },
{ "type": "Feature", "properties": { "fid": 6812, "kk": null, "gid": 0.0, "bstt": null, "luas": 120225.5363791563, "bsbtt": null, "idsls": "35061500050001", "kdkab": "06", "kdkec": "150", "kdsls": "0001", "nmkab": "KEDIRI", "nmkec": "KUNJANG", "nmsls": "RT 001 RW 001 DUSUN BALONGJERUK", "bstt_k": null, "kddesa": "005", "kdprov": "35", "khusus": null, "muatan": null, "nmdesa": "BALONGJERUK", "nmprov": "JAWA TIMUR", "posisi": null, "rw_dki": null, "segmen": null, "subsls": null, "sumber": null, "dom_sls": null, "periode": "2025_1", "tingkat": null, "idsubsls": "3506150005000100", "nm_gedung": null, "wil_campur": null, "iddesa": "3506150005", "kdsubsls": "00" }, "geometry": { "type": "MultiPolygon", "coordinates": [ [ [ [ 112.190910442000018, -7.670750074999944 ], [ 112.190913497000111, -7.670750254999973 ], [ 112.190912265000065, -7.670612303999974 ], [ 112.190605780000055, -7.670565250999971 ], [ 112.190621041000099, -7.670295962999944 ], [ 112.19108901300001, -7.67051782599998 ], [ 112.191019437000023, -7.670054452999977 ], [ 112.190153821000081, -7.670060147999948 ], [ 112.190140426000085, -7.669720820999942 ], [ 112.190144080000096, -7.669721429999981 ], [ 112.190144780000082, -7.669729459999928 ], [ 112.190163240000061, -7.669731089999971 ], [ 112.190635550000025, -7.669772659999978 ], [ 112.190707050000015, -7.669411669999931 ], [ 112.190758210000013, -7.669401179999966 ], [ 112.190919620000045, -7.669368069999962 ], [ 112.190931450000107, -7.669366099999934 ], [ 112.190963120000106, -7.669352639999943 ], [ 112.19096705100003, -7.669350968999936 ], [ 112.191062790000046, -7.669310279999934 ], [ 112.19138462, -7.669336169999951 ], [ 112.191612400000054, -7.669411169999933 ], [ 112.191613332000088, -7.669411476999926 ], [ 112.191628594, -7.669277707999981 ], [ 112.191686130000107, -7.668803536999974 ], [ 112.191741051, -7.668816097999979 ], [ 112.191744263000032, -7.668755621999935 ], [ 112.191745032000085, -7.668741144999956 ], [ 112.191745191000109, -7.668738139999959 ], [ 112.191907947, -7.668738139999959 ], [ 112.191908639000076, -7.668736545999934 ], [ 112.191979096000068, -7.668574249999949 ], [ 112.192057907000049, -7.668389027999979 ], [ 112.192108177000023, -7.668268251999962 ], [ 112.192160088000037, -7.668143531999931 ], [ 112.192161736000116, -7.668129303999933 ], [ 112.192165443000022, -7.668124754999951 ], [ 112.192234527000096, -7.667930061999925 ], [ 112.192288957000073, -7.667785612999978 ], [ 112.192301695000083, -7.667698041999927 ], [ 112.192305705000081, -7.66767047299993 ], [ 112.19235905000005, -7.667329386999938 ], [ 112.192374763000089, -7.667225050999946 ], [ 112.192384684000103, -7.667208960999972 ], [ 112.192445967000026, -7.667086395999945 ], [ 112.192592509000065, -7.666964974999928 ], [ 112.192730758000039, -7.666905192999934 ], [ 112.192731001000084, -7.666905204999978 ], [ 112.192734092000023, -7.666903864999938 ], [ 112.19274654100002, -7.666898466999953 ], [ 112.192750561000025, -7.666906187999928 ], [ 112.192754022000031, -7.666912832999969 ], [ 112.192757780000079, -7.666920047999952 ], [ 112.19278130500004, -7.666965219999952 ], [ 112.193019576000097, -7.667438097999934 ], [ 112.193088364, -7.667554828999926 ], [ 112.193157745, -7.667672565999965 ], [ 112.193302200000062, -7.66812545199997 ], [ 112.19331266100005, -7.668158249999976 ], [ 112.193373482000084, -7.668338328999937 ], [ 112.193468972, -7.668623497999931 ], [ 112.193513934000066, -7.668780941999955 ], [ 112.193523470000059, -7.668814336999958 ], [ 112.193685460000097, -7.669469339999978 ], [ 112.193822320000095, -7.669846649999954 ], [ 112.19405676000008, -7.670198299999981 ], [ 112.194057130000033, -7.670197599999938 ], [ 112.194192230000112, -7.670445899999947 ], [ 112.194447470000114, -7.670634549999932 ], [ 112.194747100000086, -7.670852799999977 ], [ 112.194856860000073, -7.67091800999998 ], [ 112.194879260000107, -7.670944669999926 ], [ 112.194887975000029, -7.670955037999931 ], [ 112.191372695000041, -7.669573594999974 ], [ 112.191423948000079, -7.670854933999976 ], [ 112.191462389000094, -7.670912594999947 ], [ 112.191520049000019, -7.672187526999949 ], [ 112.191908921000049, -7.672369 ], [ 112.19147440100005, -7.673865680999938 ], [ 112.191192506000107, -7.673548549999964 ], [ 112.191088398000034, -7.673615819999952 ], [ 112.190676767000014, -7.674104330999967 ], [ 112.190676049000103, -7.674103834999926 ], [ 112.190119385000116, -7.673719928999958 ], [ 112.190266739000094, -7.673309899999936 ], [ 112.190275617000111, -7.673197442999935 ], [ 112.189520873000106, -7.672778995999977 ], [ 112.189422317000094, -7.672957155999939 ], [ 112.189092126000105, -7.672774115999971 ], [ 112.189206734000095, -7.672604830999944 ], [ 112.189237640000101, -7.672559179999951 ], [ 112.189337260000116, -7.672355679999953 ], [ 112.189414380000017, -7.672239309999952 ], [ 112.189461120000033, -7.672133719999977 ], [ 112.189467752000041, -7.672118737999938 ], [ 112.189496320000103, -7.672054199999934 ], [ 112.189609353000037, -7.671863301999963 ], [ 112.189662780000049, -7.671773069999972 ], [ 112.189726019000091, -7.671721760999958 ], [ 112.190216464000059, -7.672321 ], [ 112.19036737700003, -7.672164391999956 ], [ 112.190341751, -7.671785684999975 ], [ 112.191304179000099, -7.671950834999961 ], [ 112.191151482, -7.670933875999935 ], [ 112.190902754000035, -7.67090382799995 ], [ 112.190910442000018, -7.670750074999944 ] ] ] ] } },
{ "type": "Feature", "properties": { "fid": 6813, "kk": null, "gid": 0.0, "bstt": null, "luas": 57714.038614346937, "bsbtt": null, "idsls": "35061500050003", "kdkab": "06", "kdkec": "150", "kdsls": "0003", "nmkab": "KEDIRI", "nmkec": "KUNJANG", "nmsls": "RT 003 RW 001 DUSUN BALONGJERUK", "bstt_k": null, "kddesa": "005", "kdprov": "35", "khusus": null, "muatan": null, "nmdesa": "BALONGJERUK", "nmprov": "JAWA TIMUR", "posisi": null, "rw_dki": null, "segmen": null, "subsls": null, "sumber": null, "dom_sls": null, "periode": "2025_1", "tingkat": null, "idsubsls": "3506150005000300", "nm_gedung": null, "wil_campur": null, "iddesa": "3506150005", "kdsubsls": "00" }, "geometry": { "type": "MultiPolygon", "coordinates": [ [ [ [ 112.192679809000083, -7.674191185999973 ], [ 112.192445316000089, -7.674672774999976 ], [ 112.192850139000029, -7.675069188999942 ], [ 112.193224931000032, -7.675333464999937 ], [ 112.193358059000047, -7.675126817999967 ], [ 112.193849153000087, -7.675457230999939 ], [ 112.193691392, -7.675709274999974 ], [ 112.193745295000099, -7.675750015999938 ], [ 112.193715043000111, -7.675773124999978 ], [ 112.19340511900009, -7.676207978999969 ], [ 112.193359918000056, -7.676273067999944 ], [ 112.192877468, -7.67558748099998 ], [ 112.192774960000065, -7.675773274999926 ], [ 112.192252815000074, -7.675106977999974 ], [ 112.191740279000101, -7.674757813999975 ], [ 112.191596128000015, -7.675055724999936 ], [ 112.191400724, -7.674969233999946 ], [ 112.190336722000097, -7.677815057999965 ], [ 112.189335265000068, -7.677466894999952 ], [ 112.189464932000078, -7.677020264999953 ], [ 112.18946500100003, -7.677020027999959 ], [ 112.189770254000109, -7.677124456999934 ], [ 112.189924669000106, -7.676797096999962 ], [ 112.189946007000117, -7.676797819999933 ], [ 112.190392370000041, -7.675756306999972 ], [ 112.191014499000062, -7.674364582999942 ], [ 112.191070179, -7.674407446999965 ], [ 112.191315235000047, -7.674248881999972 ], [ 112.191512241000055, -7.673994214999937 ], [ 112.191617951000012, -7.673922139999945 ], [ 112.191711649000013, -7.673669875999963 ], [ 112.191865410000105, -7.673734743999944 ], [ 112.192160919000116, -7.673835649999944 ], [ 112.192529692000107, -7.674088327999925 ], [ 112.192679809000083, -7.674191185999973 ] ] ] ] } },
{ "type": "Feature", "properties": { "fid": 6814, "kk": null, "gid": 0.0, "bstt": null, "luas": 22786.128060228773, "bsbtt": null, "idsls": "35061500050004", "kdkab": "06", "kdkec": "150", "kdsls": "0004", "nmkab": "KEDIRI", "nmkec": "KUNJANG", "nmsls": "RT 001 RW 002 DUSUN BALONGJERUK", "bstt_k": null, "kddesa": "005", "kdprov": "35", "khusus": null, "muatan": null, "nmdesa": "BALONGJERUK", "nmprov": "JAWA TIMUR", "posisi": null, "rw_dki": null, "segmen": null, "subsls": null, "sumber": null, "dom_sls": null, "periode": "2025_1", "tingkat": null, "idsubsls": "3506150005000400", "nm_gedung": null, "wil_campur": null, "iddesa": "3506150005", "kdsubsls": "00" }, "geometry": { "type": "MultiPolygon", "coordinates": [ [ [ [ 112.193795042000033, -7.674300565999943 ], [ 112.193596498000034, -7.674227884999937 ], [ 112.193565747000093, -7.67431437099998 ], [ 112.193750421, -7.674397214999942 ], [ 112.193633358000056, -7.674651151999967 ], [ 112.193546867, -7.674833742999965 ], [ 112.193539843000053, -7.67484464599994 ], [ 112.193535836000024, -7.674850865999929 ], [ 112.193470372000093, -7.674806936999971 ], [ 112.193349292000107, -7.675014502999943 ], [ 112.193409912000106, -7.67504632899994 ], [ 112.193358059000047, -7.675126817999967 ], [ 112.193224931000032, -7.675333464999937 ], [ 112.192850139000029, -7.675069188999942 ], [ 112.192445316000089, -7.674672774999976 ], [ 112.192679809000083, -7.674191185999973 ], [ 112.192529692000107, -7.674088327999925 ], [ 112.192642988000102, -7.673815708999939 ], [ 112.192834281000046, -7.673887443999945 ], [ 112.19297296700006, -7.673614618999977 ], [ 112.193131533000042, -7.673657863999949 ], [ 112.193328321000081, -7.672893551999948 ], [ 112.193912475000047, -7.673105516999954 ], [ 112.193614138000044, -7.67386793299994 ], [ 112.193727056000057, -7.673918385999968 ], [ 112.193649163000032, -7.674121230999958 ], [ 112.193827908000117, -7.674202794999928 ], [ 112.193795042000033, -7.674300565999943 ] ] ] ] } },
{ "type": "Feature", "properties": { "fid": 6815, "kk": null, "gid": 0.0, "bstt": null, "luas": 26425.23991283845, "bsbtt": null, "idsls": "35061500050005", "kdkab": "06", "kdkec": "150", "kdsls": "0005", "nmkab": "KEDIRI", "nmkec": "KUNJANG", "nmsls": "RT 002 RW 002 DUSUN BALONGJERUK", "bstt_k": null, "kddesa": "005", "kdprov": "35", "khusus": null, "muatan": null, "nmdesa": "BALONGJERUK", "nmprov": "JAWA TIMUR", "posisi": null, "rw_dki": null, "segmen": null, "subsls": null, "sumber": null, "dom_sls": null, "periode": "2025_1", "tingkat": null, "idsubsls": "3506150005000500", "nm_gedung": null, "wil_campur": null, "iddesa": "3506150005", "kdsubsls": "00" }, "geometry": { "type": "MultiPolygon", "coordinates": [ [ [ [ 112.193409912000106, -7.67504632899994 ], [ 112.193349292000107, -7.675014502999943 ], [ 112.193470372000093, -7.674806936999971 ], [ 112.193535836000024, -7.674850865999929 ], [ 112.193539843000053, -7.67484464599994 ], [ 112.193826760000093, -7.674988103999965 ], [ 112.194021363000047, -7.675074594999955 ], [ 112.194219175000057, -7.675181645999942 ], [ 112.19483496600003, -7.675399076999952 ], [ 112.194895877000022, -7.675216342999931 ], [ 112.195723217000022, -7.675544281999976 ], [ 112.195681180000065, -7.675678799999957 ], [ 112.195366750000062, -7.676633169999945 ], [ 112.195254021000096, -7.676944659999947 ], [ 112.194605173000014, -7.676499283999931 ], [ 112.193888024000103, -7.675640385999941 ], [ 112.19388733400001, -7.675640007999959 ], [ 112.193888024000103, -7.675640986999952 ], [ 112.193745295000099, -7.675750015999938 ], [ 112.193691392, -7.675709274999974 ], [ 112.193849153000087, -7.675457230999939 ], [ 112.193358059000047, -7.675126817999967 ], [ 112.193409912000106, -7.67504632899994 ] ] ] ] } },
{ "type": "Feature", "properties": { "fid": 6816, "kk": null, "gid": 0.0, "bstt": null, "luas": 51283.962383910533, "bsbtt": null, "idsls": "35061500050006", "kdkab": "06", "kdkec": "150", "kdsls": "0006", "nmkab": "KEDIRI", "nmkec": "KUNJANG", "nmsls": "RT 003 RW 002 DUSUN BALONGJERUK", "bstt_k": null, "kddesa": "005", "kdprov": "35", "khusus": null, "muatan": null, "nmdesa": "BALONGJERUK", "nmprov": "JAWA TIMUR", "posisi": null, "rw_dki": null, "segmen": null, "subsls": null, "sumber": null, "dom_sls": null, "periode": "2025_1", "tingkat": null, "idsubsls": "3506150005000600", "nm_gedung": null, "wil_campur": null, "iddesa": "3506150005", "kdsubsls": "00" }, "geometry": { "type": "MultiPolygon", "coordinates": [ [ [ [ 112.193750421, -7.674397214999942 ], [ 112.193565747000093, -7.67431437099998 ], [ 112.193596498000034, -7.674227884999937 ], [ 112.193795042000033, -7.674300565999943 ], [ 112.193827908000117, -7.674202794999928 ], [ 112.193649163000032, -7.674121230999958 ], [ 112.193727056000057, -7.673918385999968 ], [ 112.193614138000044, -7.67386793299994 ], [ 112.193912475000047, -7.673105516999954 ], [ 112.194242895000116, -7.673225411999965 ], [ 112.196342657000059, -7.674102923999953 ], [ 112.196271180000053, -7.674326779999944 ], [ 112.196214710000049, -7.674418419999938 ], [ 112.19620911100003, -7.674427510999976 ], [ 112.196208650000017, -7.674428259999956 ], [ 112.196060330000023, -7.674668939999947 ], [ 112.19580140000005, -7.675294089999966 ], [ 112.195727890000057, -7.675529329999961 ], [ 112.195724068000118, -7.675541559999942 ], [ 112.195723217000022, -7.675544281999976 ], [ 112.194895877000022, -7.675216342999931 ], [ 112.19483496600003, -7.675399076999952 ], [ 112.194219175000057, -7.675181645999942 ], [ 112.194021363000047, -7.675074594999955 ], [ 112.193826760000093, -7.674988103999965 ], [ 112.193539843000053, -7.67484464599994 ], [ 112.193546867, -7.674833742999965 ], [ 112.193633358000056, -7.674651151999967 ], [ 112.193750421, -7.674397214999942 ] ] ] ] } },
{ "type": "Feature", "properties": { "fid": 6817, "kk": null, "gid": 0.0, "bstt": null, "luas": 47173.341662874627, "bsbtt": null, "idsls": "35061500050007", "kdkab": "06", "kdkec": "150", "kdsls": "0007", "nmkab": "KEDIRI", "nmkec": "KUNJANG", "nmsls": "RT 004 RW 002 DUSUN BALONGJERUK", "bstt_k": null, "kddesa": "005", "kdprov": "35", "khusus": null, "muatan": null, "nmdesa": "BALONGJERUK", "nmprov": "JAWA TIMUR", "posisi": null, "rw_dki": null, "segmen": null, "subsls": null, "sumber": null, "dom_sls": null, "periode": "2025_1", "tingkat": null, "idsubsls": "3506150005000700", "nm_gedung": null, "wil_campur": null, "iddesa": "3506150005", "kdsubsls": "00" }, "geometry": { "type": "MultiPolygon", "coordinates": [ [ [ [ 112.195254021000096, -7.676944659999947 ], [ 112.195250630000032, -7.676954029999933 ], [ 112.195226190000085, -7.677021569999965 ], [ 112.195228738000083, -7.67712501099993 ], [ 112.195235440000033, -7.677397029999952 ], [ 112.195202140000106, -7.677544989999944 ], [ 112.195161450000114, -7.677833519999979 ], [ 112.195202150000114, -7.678089089999958 ], [ 112.195207690000075, -7.678123899999946 ], [ 112.195204127000011, -7.67813270399995 ], [ 112.195173045000047, -7.678209501999959 ], [ 112.195113370000058, -7.678356949999966 ], [ 112.195390800000041, -7.678821179999943 ], [ 112.195218790000013, -7.679311309999946 ], [ 112.195128820000036, -7.679508059999932 ], [ 112.19512792, -7.679510027999982 ], [ 112.195050480000077, -7.679679369999974 ], [ 112.194758250000064, -7.680304519999936 ], [ 112.194757191, -7.680304203999981 ], [ 112.194753330000026, -7.680303049999964 ], [ 112.194640430000049, -7.68026926999994 ], [ 112.194523360000062, -7.680234239999947 ], [ 112.194381487000101, -7.680223324999929 ], [ 112.195010897000088, -7.678758794999965 ], [ 112.194299754000099, -7.677842637999959 ], [ 112.193844879000039, -7.67761840299994 ], [ 112.193691118000061, -7.677560742999958 ], [ 112.193723151000086, -7.677503082999976 ], [ 112.193457274000025, -7.677400575999968 ], [ 112.193518137000069, -7.677208374999964 ], [ 112.193479697000043, -7.67718274799995 ], [ 112.193498917000056, -7.677105867999956 ], [ 112.193370783000091, -7.677038596999978 ], [ 112.19342524000001, -7.676814362999949 ], [ 112.193242649000013, -7.67674068599996 ], [ 112.193281089000038, -7.676570908999963 ], [ 112.19336437600009, -7.676279403999956 ], [ 112.193359918000056, -7.676273067999944 ], [ 112.19340511900009, -7.676207978999969 ], [ 112.193715043000111, -7.675773124999978 ], [ 112.193745295000099, -7.675750015999938 ], [ 112.193888024000103, -7.675640986999952 ], [ 112.19388733400001, -7.675640007999959 ], [ 112.193888024000103, -7.675640385999941 ], [ 112.194605173000014, -7.676499283999931 ], [ 112.195254021000096, -7.676944659999947 ] ] ] ] } },
{ "type": "Feature", "properties": { "fid": 6818, "kk": null, "gid": 0.0, "bstt": null, "luas": 16654.255184480447, "bsbtt": null, "idsls": "35061500050009", "kdkab": "06", "kdkec": "150", "kdsls": "0009", "nmkab": "KEDIRI", "nmkec": "KUNJANG", "nmsls": "RT 002 RW 003 DUSUN KETANDAN", "bstt_k": null, "kddesa": "005", "kdprov": "35", "khusus": null, "muatan": null, "nmdesa": "BALONGJERUK", "nmprov": "JAWA TIMUR", "posisi": null, "rw_dki": null, "segmen": null, "subsls": null, "sumber": null, "dom_sls": null, "periode": "2025_1", "tingkat": null, "idsubsls": "3506150005000900", "nm_gedung": null, "wil_campur": null, "iddesa": "3506150005", "kdsubsls": "00" }, "geometry": { "type": "MultiPolygon", "coordinates": [ [ [ [ 112.191360846000066, -7.679097067999976 ], [ 112.191157420000081, -7.679675703999976 ], [ 112.191263130000038, -7.679728558999955 ], [ 112.191026819000058, -7.680382742999939 ], [ 112.1910266000001, -7.680382669999972 ], [ 112.190994310000065, -7.680443889999935 ], [ 112.190913810000097, -7.680596519999938 ], [ 112.19091306200005, -7.680597938999938 ], [ 112.190093586000103, -7.680275950999942 ], [ 112.190396274000022, -7.679425541999933 ], [ 112.190590091000104, -7.678792256999941 ], [ 112.191360846000066, -7.679097067999976 ] ] ] ] } },
{ "type": "Feature", "properties": { "fid": 6819, "kk": null, "gid": 0.0, "bstt": null, "luas": 32746.284373187074, "bsbtt": null, "idsls": "35061500050010", "kdkab": "06", "kdkec": "150", "kdsls": "0010", "nmkab": "KEDIRI", "nmkec": "KUNJANG", "nmsls": "RT 003 RW 003 DUSUN KETANDAN", "bstt_k": null, "kddesa": "005", "kdprov": "35", "khusus": null, "muatan": null, "nmdesa": "BALONGJERUK", "nmprov": "JAWA TIMUR", "posisi": null, "rw_dki": null, "segmen": null, "subsls": null, "sumber": null, "dom_sls": null, "periode": "2025_1", "tingkat": null, "idsubsls": "3506150005001000", "nm_gedung": null, "wil_campur": null, "iddesa": "3506150005", "kdsubsls": "00" }, "geometry": { "type": "MultiPolygon", "coordinates": [ [ [ [ 112.193733830000042, -7.679955112999949 ], [ 112.193733600000087, -7.679954959999975 ], [ 112.193731550000052, -7.679959179999969 ], [ 112.19370729000002, -7.680009069999926 ], [ 112.193568990000017, -7.680293429999949 ], [ 112.193470180000077, -7.680246919999945 ], [ 112.193411780000019, -7.680219439999973 ], [ 112.193376530000023, -7.680296849999934 ], [ 112.193326700000057, -7.680406249999976 ], [ 112.193224970000074, -7.680374809999932 ], [ 112.193173190000039, -7.680404399999929 ], [ 112.193075530000101, -7.68035322999998 ], [ 112.1927108000001, -7.680162109999969 ], [ 112.192710050000073, -7.68016358999995 ], [ 112.192707370000107, -7.680160719999947 ], [ 112.1926075, -7.68010892999996 ], [ 112.19235226, -7.680661949999944 ], [ 112.192304170000057, -7.680821009999931 ], [ 112.192296770000098, -7.680922729999963 ], [ 112.192317120000098, -7.681018909999977 ], [ 112.192257940000104, -7.681137279999973 ], [ 112.19221648000007, -7.681180239999946 ], [ 112.191812790000085, -7.681408519999934 ], [ 112.191811261000112, -7.681409386999974 ], [ 112.191810780000083, -7.681409659999929 ], [ 112.191718330000072, -7.681203869999933 ], [ 112.191685040000038, -7.680985619999944 ], [ 112.191633250000109, -7.680756279999969 ], [ 112.191514880000113, -7.680593509999937 ], [ 112.191359520000105, -7.680504739999947 ], [ 112.191181960000108, -7.68043444999995 ], [ 112.191026819000058, -7.680382742999939 ], [ 112.191263130000038, -7.679728558999955 ], [ 112.191157420000081, -7.679675703999976 ], [ 112.191360846000066, -7.679097067999976 ], [ 112.192619598000078, -7.67959486899997 ], [ 112.192930323000041, -7.679761442999961 ], [ 112.193727556000113, -7.679948838999962 ], [ 112.193733830000042, -7.679955112999949 ] ] ] ] } },
{ "type": "Feature", "properties": { "fid": 6820, "kk": null, "gid": 0.0, "bstt": null, "luas": 29196.155854368822, "bsbtt": null, "idsls": "35061500050011", "kdkab": "06", "kdkec": "150", "kdsls": "0011", "nmkab": "KEDIRI", "nmkec": "KUNJANG", "nmsls": "RT 001 RW 004 DUSUN GRESIKAN", "bstt_k": null, "kddesa": "005", "kdprov": "35", "khusus": null, "muatan": null, "nmdesa": "BALONGJERUK", "nmprov": "JAWA TIMUR", "posisi": null, "rw_dki": null, "segmen": null, "subsls": null, "sumber": null, "dom_sls": null, "periode": "2025_1", "tingkat": null, "idsubsls": "3506150005001100", "nm_gedung": null, "wil_campur": null, "iddesa": "3506150005", "kdsubsls": "00" }, "geometry": { "type": "MultiPolygon", "coordinates": [ [ [ [ 112.189464932000078, -7.677020264999953 ], [ 112.189335265000068, -7.677466894999952 ], [ 112.190336722000097, -7.677815057999965 ], [ 112.190061725000078, -7.678550577999943 ], [ 112.190062173000115, -7.678550788999928 ], [ 112.189998659000025, -7.678701184999966 ], [ 112.189583024000058, -7.678617096999972 ], [ 112.189472509000097, -7.678780467999957 ], [ 112.18951094900001, -7.679433950999965 ], [ 112.189515754000013, -7.679630956999972 ], [ 112.189516530000105, -7.67963119999996 ], [ 112.189479866000056, -7.679645671999936 ], [ 112.189393376000112, -7.679645671999936 ], [ 112.189203578000047, -7.67949671699995 ], [ 112.188908069000036, -7.679057056999966 ], [ 112.188907282000059, -7.679053335999981 ], [ 112.188667818000113, -7.677920668999946 ], [ 112.188809623000111, -7.677291406999927 ], [ 112.188821578000102, -7.677238355999975 ], [ 112.188955982000039, -7.676815943999941 ], [ 112.188956119000068, -7.676815513999941 ], [ 112.189464932000078, -7.677020264999953 ] ] ] ] } },
{ "type": "Feature", "properties": { "fid": 6821, "kk": null, "gid": 0.0, "bstt": null, "luas": 23521.281688450981, "bsbtt": null, "idsls": "35061500050012", "kdkab": "06", "kdkec": "150", "kdsls": "0012", "nmkab": "KEDIRI", "nmkec": "KUNJANG", "nmsls": "RT 002 RW 004 DUSUN GRESIKAN", "bstt_k": null, "kddesa": "005", "kdprov": "35", "khusus": null, "muatan": null, "nmdesa": "BALONGJERUK", "nmprov": "JAWA TIMUR", "posisi": null, "rw_dki": null, "segmen": null, "subsls": null, "sumber": null, "dom_sls": null, "periode": "2025_1", "tingkat": null, "idsubsls": "3506150005001200", "nm_gedung": null, "wil_campur": null, "iddesa": "3506150005", "kdsubsls": "00" }, "geometry": { "type": "MultiPolygon", "coordinates": [ [ [ [ 112.188824825000097, -7.676790684999958 ], [ 112.188955982000039, -7.676815943999941 ], [ 112.188821578000102, -7.677238355999975 ], [ 112.188809623000111, -7.677291406999927 ], [ 112.18837966600006, -7.677186701999972 ], [ 112.18799526500004, -7.67713144399994 ], [ 112.187740599000108, -7.678431202999946 ], [ 112.187726183000109, -7.678488862999927 ], [ 112.187723488000074, -7.678487854999958 ], [ 112.186981405000097, -7.678210171999979 ], [ 112.187135166000076, -7.676538023999967 ], [ 112.18813461000002, -7.676711004999959 ], [ 112.188211491000061, -7.676672564999933 ], [ 112.188824825000097, -7.676790684999958 ] ] ] ] } },
{ "type": "Feature", "properties": { "fid": 6822, "kk": null, "gid": 0.0, "bstt": null, "luas": 23044.636303547624, "bsbtt": null, "idsls": "35061500050013", "kdkab": "06", "kdkec": "150", "kdsls": "0013", "nmkab": "KEDIRI", "nmkec": "KUNJANG", "nmsls": "RT 003 RW 004 DUSUN GRESIKAN", "bstt_k": null, "kddesa": "005", "kdprov": "35", "khusus": null, "muatan": null, "nmdesa": "BALONGJERUK", "nmprov": "JAWA TIMUR", "posisi": null, "rw_dki": null, "segmen": null, "subsls": null, "sumber": null, "dom_sls": null, "periode": "2025_1", "tingkat": null, "idsubsls": "3506150005001300", "nm_gedung": null, "wil_campur": null, "iddesa": "3506150005", "kdsubsls": "00" }, "geometry": { "type": "MultiPolygon", "coordinates": [ [ [ [ 112.188907282000059, -7.679053335999981 ], [ 112.188601899000105, -7.679019817999972 ], [ 112.188395283000091, -7.679298508999977 ], [ 112.187953221000043, -7.679154358999938 ], [ 112.187746605000029, -7.679053452999938 ], [ 112.187674529000105, -7.678921314999968 ], [ 112.187723488000074, -7.678487854999958 ], [ 112.187726183000109, -7.678488862999927 ], [ 112.187740599000108, -7.678431202999946 ], [ 112.18799526500004, -7.67713144399994 ], [ 112.18837966600006, -7.677186701999972 ], [ 112.188809623000111, -7.677291406999927 ], [ 112.188667818000113, -7.677920668999946 ], [ 112.188907282000059, -7.679053335999981 ] ] ] ] } },
{ "type": "Feature", "properties": { "fid": 6823, "kk": null, "gid": 0.0, "bstt": null, "luas": 1193949.1287793664, "bsbtt": null, "idsls": "35061500051001", "kdkab": "06", "kdkec": "150", "kdsls": "1001", "nmkab": "KEDIRI", "nmkec": "KUNJANG", "nmsls": "SAWAH", "bstt_k": null, "kddesa": "005", "kdprov": "35", "khusus": null, "muatan": null, "nmdesa": "BALONGJERUK", "nmprov": "JAWA TIMUR", "posisi": null, "rw_dki": null, "segmen": null, "subsls": null, "sumber": null, "dom_sls": null, "periode": "2025_1", "tingkat": null, "idsubsls": "3506150005100100", "nm_gedung": null, "wil_campur": null, "iddesa": "3506150005", "kdsubsls": "00" }, "geometry": { "type": "MultiPolygon", "coordinates": [ [ [ [ 112.184747190000053, -7.671440648999976 ], [ 112.184908080000014, -7.671565208999937 ], [ 112.185167579000108, -7.671715717999973 ], [ 112.185347528000079, -7.671896850999929 ], [ 112.185364798000023, -7.671914234999974 ], [ 112.18539346700004, -7.672195942999963 ], [ 112.18539360300008, -7.672195872999964 ], [ 112.185395077000067, -7.672204965999981 ], [ 112.185395821000043, -7.672209552999959 ], [ 112.185481637000066, -7.672738752999976 ], [ 112.185414367000021, -7.673113544999978 ], [ 112.185270217000038, -7.673392235999927 ], [ 112.185260606000043, -7.673555606999969 ], [ 112.18508762600004, -7.673632486999963 ], [ 112.185126066000066, -7.673786247999942 ], [ 112.185452807000047, -7.673988058999953 ], [ 112.185769939000011, -7.674420510999937 ], [ 112.185770109000032, -7.674420253999926 ], [ 112.186070161000089, -7.674730454999974 ], [ 112.186142120000113, -7.674804848999941 ], [ 112.18634428900009, -7.675013855999964 ], [ 112.18679596100003, -7.67550396799993 ], [ 112.187079458000085, -7.675691363999931 ], [ 112.187401394000062, -7.675782659999925 ], [ 112.187674785000013, -7.675950530999955 ], [ 112.187680686000022, -7.675964048999958 ], [ 112.18820443300001, -7.676179674999958 ], [ 112.188598445000025, -7.67609798899997 ], [ 112.188836294000112, -7.67621571199993 ], [ 112.188901162000093, -7.676347849999956 ], [ 112.188905967000096, -7.67654725899996 ], [ 112.188824825000097, -7.676790684999958 ], [ 112.188211491000061, -7.676672564999933 ], [ 112.18813461000002, -7.676711004999959 ], [ 112.187135166000076, -7.676538023999967 ], [ 112.186981405000097, -7.678210171999979 ], [ 112.187723488000074, -7.678487854999958 ], [ 112.187674529000105, -7.678921314999968 ], [ 112.187746605000029, -7.679053452999938 ], [ 112.187953221000043, -7.679154358999938 ], [ 112.188395283000091, -7.679298508999977 ], [ 112.188601899000105, -7.679019817999972 ], [ 112.188907282000059, -7.679053335999981 ], [ 112.188908069000036, -7.679057056999966 ], [ 112.189203578000047, -7.67949671699995 ], [ 112.189393376000112, -7.679645671999936 ], [ 112.189479866000056, -7.679645671999936 ], [ 112.189516530000105, -7.67963119999996 ], [ 112.189837690000104, -7.679731861999926 ], [ 112.18972717500003, -7.680048993999947 ], [ 112.189659905000099, -7.680332489999955 ], [ 112.189573414000051, -7.68062559599997 ], [ 112.18935900800011, -7.680995261999954 ], [ 112.189294723000103, -7.681106098999976 ], [ 112.18893434600011, -7.681543355999963 ], [ 112.188588385000116, -7.682288133999975 ], [ 112.188280863000045, -7.683153037999944 ], [ 112.187564915000053, -7.685017386999959 ], [ 112.18697389700003, -7.686540578999939 ], [ 112.186675986000068, -7.687290161999954 ], [ 112.186325219000082, -7.688241556999969 ], [ 112.18631907200006, -7.688239025999962 ], [ 112.185799362000012, -7.68969169899998 ], [ 112.185774307000088, -7.689684720999935 ], [ 112.185757996, -7.689680177999946 ], [ 112.185399239000049, -7.689580267999929 ], [ 112.184996070000011, -7.689467989999969 ], [ 112.184936510000057, -7.689217499999927 ], [ 112.184774420000053, -7.68900162999995 ], [ 112.184700440000029, -7.688894349999941 ], [ 112.184574670000075, -7.688531839999939 ], [ 112.184526580000011, -7.688383879999947 ], [ 112.184397110000077, -7.688295099999948 ], [ 112.184382320000054, -7.688284 ], [ 112.184360120000065, -7.688095349999969 ], [ 112.18423805000009, -7.68779571999994 ], [ 112.184152970000014, -7.687588569999946 ], [ 112.184067890000051, -7.687392519999946 ], [ 112.18405068800007, -7.687338977999957 ], [ 112.184049940000023, -7.687336649999963 ], [ 112.184027600000036, -7.687267149999968 ], [ 112.184027357000105, -7.687266392999959 ], [ 112.184001310000099, -7.687185369999952 ], [ 112.184006670000031, -7.687038 ], [ 112.184008710000057, -7.686981919999937 ], [ 112.184017805000053, -7.686572722999927 ], [ 112.184023510000088, -7.686316079999926 ], [ 112.18402720000006, -7.686249499999974 ], [ 112.183968020000066, -7.686160719999975 ], [ 112.183886640000082, -7.686064539999961 ], [ 112.183885350000082, -7.686062929999935 ], [ 112.183720350000044, -7.685800659999927 ], [ 112.183549560000074, -7.685489149999967 ], [ 112.183307, -7.685348389999945 ], [ 112.183253440000044, -7.685112389999972 ], [ 112.183209590000047, -7.684919179999952 ], [ 112.183062820000032, -7.684428769999954 ], [ 112.182636740000021, -7.684333599999945 ], [ 112.182301460000076, -7.684240579999937 ], [ 112.182252406000089, -7.68392560999996 ], [ 112.182238995000034, -7.683839501999955 ], [ 112.182235830000081, -7.683819179999944 ], [ 112.181908420000013, -7.683501039999953 ], [ 112.181670260000033, -7.683279209999966 ], [ 112.18110472, -7.683230659999936 ], [ 112.180274430000054, -7.683021799999949 ], [ 112.179848230000061, -7.682910852999953 ], [ 112.17984411000009, -7.682909779999932 ], [ 112.179831950000107, -7.682906609999975 ], [ 112.17941962000009, -7.682878069999958 ], [ 112.179319620000115, -7.682868069999927 ], [ 112.179219620000026, -7.682868069999927 ], [ 112.179039620000026, -7.682858069999952 ], [ 112.178159620000088, -7.682798069999933 ], [ 112.177671840000016, -7.682785559999957 ], [ 112.177632480000057, -7.682784549999951 ], [ 112.177379620000011, -7.682778069999927 ], [ 112.176629630000093, -7.682528069999933 ], [ 112.176379620000034, -7.68237806999997 ], [ 112.176269620000085, -7.682248069999957 ], [ 112.175543940000011, -7.681278689999942 ], [ 112.175706390000073, -7.68115346999997 ], [ 112.175798870000108, -7.681020299999943 ], [ 112.176205770000024, -7.680857539999977 ], [ 112.17627605000007, -7.680868639999971 ], [ 112.176350030000094, -7.680839039999967 ], [ 112.17642401, -7.68082794999998 ], [ 112.176538690000029, -7.680779859999973 ], [ 112.176601570000116, -7.68074656999994 ], [ 112.176664460000097, -7.680694779999953 ], [ 112.176838310000107, -7.68070586999994 ], [ 112.177082450000057, -7.680713269999956 ], [ 112.177215620000084, -7.68070586999994 ], [ 112.177271110000106, -7.680694779999953 ], [ 112.177367280000112, -7.680591199999981 ], [ 112.177437570000052, -7.680461729999934 ], [ 112.177533740000058, -7.680358159999969 ], [ 112.177629920000072, -7.680184299999951 ], [ 112.177666910000084, -7.680151009999975 ], [ 112.177737190000016, -7.680017839999948 ], [ 112.177814880000028, -7.680027089999953 ], [ 112.177898110000115, -7.680017839999948 ], [ 112.177968390000046, -7.680023389999974 ], [ 112.178179240000077, -7.680106619999947 ], [ 112.17824027000006, -7.680123269999967 ], [ 112.178329050000116, -7.680145459999949 ], [ 112.178375290000076, -7.680143609999959 ], [ 112.178428930000109, -7.680128819999936 ], [ 112.178501060000031, -7.680101069999978 ], [ 112.178822880000098, -7.679912419999937 ], [ 112.179829040000072, -7.677526499999942 ], [ 112.179925210000079, -7.677526499999942 ], [ 112.17998440000008, -7.677559789999975 ], [ 112.180069480000043, -7.677593079999951 ], [ 112.180136060000109, -7.677600479999967 ], [ 112.18023224, -7.677655969999932 ], [ 112.180291420000117, -7.67770035999996 ], [ 112.18035061, -7.677733649999936 ], [ 112.180409790000112, -7.677729949999957 ], [ 112.180513370000085, -7.677748439999959 ], [ 112.180646540000112, -7.677807629999961 ], [ 112.181120020000094, -7.678018479999935 ], [ 112.181467740000016, -7.678081359999965 ], [ 112.181722980000018, -7.67813684999993 ], [ 112.182052200000044, -7.678207129999976 ], [ 112.182126180000068, -7.678214529999934 ], [ 112.182263221000085, -7.678209046999939 ], [ 112.182311130000016, -7.678207129999976 ], [ 112.182297310000081, -7.67802402999996 ], [ 112.182296340000107, -7.678011079999976 ], [ 112.1823507040001, -7.678027016999977 ], [ 112.182397009000056, -7.678040590999956 ], [ 112.182466171000101, -7.678060864999964 ], [ 112.182467763000091, -7.67806133199997 ], [ 112.182779406, -7.676861801999962 ], [ 112.18298762400002, -7.676060359999951 ], [ 112.182822835000024, -7.675996703999942 ], [ 112.182773639000061, -7.675977862999957 ], [ 112.182772068000077, -7.675969488999954 ], [ 112.183001303000083, -7.675325747999977 ], [ 112.183079808000116, -7.675296439999954 ], [ 112.183108069000014, -7.675248289999956 ], [ 112.183121915000015, -7.675235742999973 ], [ 112.183125401000098, -7.675232583999957 ], [ 112.18312610800001, -7.675229453999975 ], [ 112.183185006000031, -7.675141105999955 ], [ 112.183185006000031, -7.674923125999953 ], [ 112.183200576000104, -7.674788186999933 ], [ 112.183334368000033, -7.674229405999938 ], [ 112.183377035000035, -7.674051209999959 ], [ 112.183788557000071, -7.673271867999972 ], [ 112.183963503000086, -7.672940553999979 ], [ 112.1842541420001, -7.672338515999968 ], [ 112.184664137000027, -7.671362830999954 ], [ 112.184664151000106, -7.67136279999994 ], [ 112.18466546500008, -7.671364031999929 ], [ 112.184747190000053, -7.671440648999976 ] ] ] ] } },
{ "type": "Feature", "properties": { "fid": 6824, "kk": null, "gid": 0.0, "bstt": null, "luas": 172308.15021543021, "bsbtt": null, "idsls": "35061500051004", "kdkab": "06", "kdkec": "150", "kdsls": "1004", "nmkab": "KEDIRI", "nmkec": "KUNJANG", "nmsls": "SAWAH", "bstt_k": null, "kddesa": "005", "kdprov": "35", "khusus": null, "muatan": null, "nmdesa": "BALONGJERUK", "nmprov": "JAWA TIMUR", "posisi": null, "rw_dki": null, "segmen": null, "subsls": null, "sumber": null, "dom_sls": null, "periode": "2025_1", "tingkat": null, "idsubsls": "3506150005100400", "nm_gedung": null, "wil_campur": null, "iddesa": "3506150005", "kdsubsls": "00" }, "geometry": { "type": "MultiPolygon", "coordinates": [ [ [ [ 112.193359918000056, -7.676273067999944 ], [ 112.19336437600009, -7.676279403999956 ], [ 112.193281089000038, -7.676570908999963 ], [ 112.193242649000013, -7.67674068599996 ], [ 112.19342524000001, -7.676814362999949 ], [ 112.193370783000091, -7.677038596999978 ], [ 112.193498917000056, -7.677105867999956 ], [ 112.193479697000043, -7.67718274799995 ], [ 112.193518137000069, -7.677208374999964 ], [ 112.193457274000025, -7.677400575999968 ], [ 112.193723151000086, -7.677503082999976 ], [ 112.193691118000061, -7.677560742999958 ], [ 112.193844879000039, -7.67761840299994 ], [ 112.194299754000099, -7.677842637999959 ], [ 112.195010897000088, -7.678758794999965 ], [ 112.194381487000101, -7.680223324999929 ], [ 112.194354650000037, -7.680221259999939 ], [ 112.194331010000042, -7.680219439999973 ], [ 112.194128730000102, -7.680160889999968 ], [ 112.194049870000072, -7.680138059999933 ], [ 112.193872320000082, -7.680047439999953 ], [ 112.193750200000068, -7.679966019999938 ], [ 112.193733830000042, -7.679955112999949 ], [ 112.193727556000113, -7.679948838999962 ], [ 112.192930323000041, -7.679761442999961 ], [ 112.192619598000078, -7.67959486899997 ], [ 112.191360846000066, -7.679097067999976 ], [ 112.190590091000104, -7.678792256999941 ], [ 112.190497380000011, -7.678755591999959 ], [ 112.190062173000115, -7.678550788999928 ], [ 112.190061725000078, -7.678550577999943 ], [ 112.190336722000097, -7.677815057999965 ], [ 112.191400724, -7.674969233999946 ], [ 112.191596128000015, -7.675055724999936 ], [ 112.191740279000101, -7.674757813999975 ], [ 112.192252815000074, -7.675106977999974 ], [ 112.192774960000065, -7.675773274999926 ], [ 112.192877468, -7.67558748099998 ], [ 112.193359918000056, -7.676273067999944 ] ] ] ] } },
{ "type": "Feature", "properties": { "fid": 6825, "kk": null, "gid": 0.0, "bstt": null, "luas": 150003.91633559403, "bsbtt": null, "idsls": "35061500051005", "kdkab": "06", "kdkec": "150", "kdsls": "1005", "nmkab": "KEDIRI", "nmkec": "KUNJANG", "nmsls": "SAWAH", "bstt_k": null, "kddesa": "005", "kdprov": "35", "khusus": null, "muatan": null, "nmdesa": "BALONGJERUK", "nmprov": "JAWA TIMUR", "posisi": null, "rw_dki": null, "segmen": null, "subsls": null, "sumber": null, "dom_sls": null, "periode": "2025_1", "tingkat": null, "idsubsls": "3506150005100500", "nm_gedung": null, "wil_campur": null, "iddesa": "3506150005", "kdsubsls": "00" }, "geometry": { "type": "MultiPolygon", "coordinates": [ [ [ [ 112.194887975000029, -7.670955037999931 ], [ 112.194888220000053, -7.67095532999997 ], [ 112.19500848000007, -7.671018809999964 ], [ 112.195135500000106, -7.671085839999932 ], [ 112.195590490000086, -7.671563029999959 ], [ 112.195890120000058, -7.671921839999925 ], [ 112.196117910000112, -7.672226319999936 ], [ 112.196541680000109, -7.672598199999925 ], [ 112.196559660000048, -7.672703279999951 ], [ 112.196616990000052, -7.672784659999934 ], [ 112.196676180000054, -7.672840139999948 ], [ 112.196740910000017, -7.672867889999964 ], [ 112.196786530000054, -7.672878019999928 ], [ 112.196781610000016, -7.672888669999963 ], [ 112.196618500000113, -7.673241709999957 ], [ 112.19661894, -7.673242099999925 ], [ 112.196608200000014, -7.673269829999981 ], [ 112.196585610000056, -7.673363159999951 ], [ 112.196439490000103, -7.673799649999978 ], [ 112.196411770000054, -7.673886469999957 ], [ 112.196342657000059, -7.674102923999953 ], [ 112.194242895000116, -7.673225411999965 ], [ 112.193912475000047, -7.673105516999954 ], [ 112.193328321000081, -7.672893551999948 ], [ 112.192000551000092, -7.672411760999978 ], [ 112.191908921000049, -7.672369 ], [ 112.191520049000019, -7.672187526999949 ], [ 112.191462389000094, -7.670912594999947 ], [ 112.191423948000079, -7.670854933999976 ], [ 112.191372695000041, -7.669573594999974 ], [ 112.194887975000029, -7.670955037999931 ] ] ] ] } },
{ "type": "Feature", "properties": { "fid": 6826, "kk": null, "gid": 0.0, "bstt": null, "luas": 19076.153809265867, "bsbtt": null, "idsls": "35061500050008", "kdkab": "06", "kdkec": "150", "kdsls": "0008", "nmkab": "KEDIRI", "nmkec": "KUNJANG", "nmsls": "RT 001 RW 003 DUSUN KETANDAN", "bstt_k": null, "kddesa": "005", "kdprov": "35", "khusus": null, "muatan": null, "nmdesa": "BALONGJERUK", "nmprov": "JAWA TIMUR", "posisi": null, "rw_dki": null, "segmen": null, "subsls": null, "sumber": null, "dom_sls": null, "periode": "2025_1", "tingkat": null, "idsubsls": "3506150005000800", "nm_gedung": null, "wil_campur": null, "iddesa": "3506150005", "kdsubsls": "00" }, "geometry": { "type": "MultiPolygon", "coordinates": [ [ [ [ 112.189597083000081, -7.680994100999953 ], [ 112.18935900800011, -7.680995261999954 ], [ 112.189573414000051, -7.68062559599997 ], [ 112.189659905000099, -7.680332489999955 ], [ 112.18972717500003, -7.680048993999947 ], [ 112.189837690000104, -7.679731861999926 ], [ 112.189516530000105, -7.67963119999996 ], [ 112.189515754000013, -7.679630956999972 ], [ 112.18951094900001, -7.679433950999965 ], [ 112.189472509000097, -7.678780467999957 ], [ 112.189583024000058, -7.678617096999972 ], [ 112.189998659000025, -7.678701184999966 ], [ 112.190062173000115, -7.678550788999928 ], [ 112.190497380000011, -7.678755591999959 ], [ 112.190590091000104, -7.678792256999941 ], [ 112.190396274000022, -7.679425541999933 ], [ 112.190093586000103, -7.680275950999942 ], [ 112.190093558000058, -7.680276030999948 ], [ 112.190087425000115, -7.680274156999928 ], [ 112.189904674000104, -7.680956209999977 ], [ 112.189770875000022, -7.68096289999994 ], [ 112.189769219000027, -7.680967953999925 ], [ 112.189613056000098, -7.680972758999928 ], [ 112.189597083000081, -7.680994100999953 ] ] ] ] } },
{ "type": "Feature", "properties": { "fid": 6827, "kk": null, "gid": 0.0, "bstt": null, "luas": 13688.227790682726, "bsbtt": null, "idsls": "35061500050014", "kdkab": "06", "kdkec": "150", "kdsls": "0014", "nmkab": "KEDIRI", "nmkec": "KUNJANG", "nmsls": "RT 001 RW 005 DUSUN JLODANG", "bstt_k": null, "kddesa": "005", "kdprov": "35", "khusus": null, "muatan": null, "nmdesa": "BALONGJERUK", "nmprov": "JAWA TIMUR", "posisi": null, "rw_dki": null, "segmen": null, "subsls": null, "sumber": null, "dom_sls": null, "periode": "2025_1", "tingkat": null, "idsubsls": "3506150005001400", "nm_gedung": null, "wil_campur": null, "iddesa": "3506150005", "kdsubsls": "00" }, "geometry": { "type": "MultiPolygon", "coordinates": [ [ [ [ 112.187825275000023, -7.673779447999948 ], [ 112.18783023800006, -7.673670580999953 ], [ 112.187762458000066, -7.673660220999977 ], [ 112.187748015000011, -7.673858638999945 ], [ 112.187728345000096, -7.673855246999949 ], [ 112.187721041000032, -7.673903935999931 ], [ 112.187581549000015, -7.673878412999954 ], [ 112.187590489000058, -7.673831478999944 ], [ 112.186775990000115, -7.673691048999956 ], [ 112.186662368000043, -7.673642353999981 ], [ 112.186691025000073, -7.673501674999955 ], [ 112.186555364000014, -7.673467353999968 ], [ 112.186588594000114, -7.673248986999965 ], [ 112.186693061000028, -7.672684869999955 ], [ 112.186868110000091, -7.672744079999973 ], [ 112.18710486000009, -7.672873549999963 ], [ 112.187263920000078, -7.672977129999936 ], [ 112.187422980000065, -7.673047409999981 ], [ 112.187685610000017, -7.673176879999971 ], [ 112.187792890000082, -7.67324715999996 ], [ 112.187870570000086, -7.673287849999952 ], [ 112.188025930000094, -7.67337662999995 ], [ 112.188155400000028, -7.673435809999944 ], [ 112.18828102000009, -7.673513119999939 ], [ 112.188296776000016, -7.673522809999952 ], [ 112.188181727000028, -7.673726611999939 ], [ 112.18818145900002, -7.673727085999928 ], [ 112.187924060000114, -7.673696019999966 ], [ 112.187919567000108, -7.673788876999936 ], [ 112.187825275000023, -7.673779447999948 ] ] ] ] } },
{ "type": "Feature", "properties": { "fid": 6828, "kk": null, "gid": 0.0, "bstt": null, "luas": 37884.70592197599, "bsbtt": null, "idsls": "35061500050016", "kdkab": "06", "kdkec": "150", "kdsls": "0016", "nmkab": "KEDIRI", "nmkec": "KUNJANG", "nmsls": "RT 003 RW 005 DUSUN JLODANG", "bstt_k": null, "kddesa": "005", "kdprov": "35", "khusus": null, "muatan": null, "nmdesa": "BALONGJERUK", "nmprov": "JAWA TIMUR", "posisi": null, "rw_dki": null, "segmen": null, "subsls": null, "sumber": null, "dom_sls": null, "periode": "2025_1", "tingkat": null, "idsubsls": "3506150005001600", "nm_gedung": null, "wil_campur": null, "iddesa": "3506150005", "kdsubsls": "00" }, "geometry": { "type": "MultiPolygon", "coordinates": [ [ [ [ 112.186662368000043, -7.673642353999981 ], [ 112.186775990000115, -7.673691048999956 ], [ 112.187590489000058, -7.673831478999944 ], [ 112.187581549000015, -7.673878412999954 ], [ 112.187721041000032, -7.673903935999931 ], [ 112.187728345000096, -7.673855246999949 ], [ 112.187748015000011, -7.673858638999945 ], [ 112.187762458000066, -7.673660220999977 ], [ 112.18783023800006, -7.673670580999953 ], [ 112.187825275000023, -7.673779447999948 ], [ 112.187919567000108, -7.673788876999936 ], [ 112.187924060000114, -7.673696019999966 ], [ 112.18818145900002, -7.673727085999928 ], [ 112.188181727000028, -7.673726611999939 ], [ 112.188223053000115, -7.67376454999993 ], [ 112.188126952000061, -7.67399519099996 ], [ 112.188083707000033, -7.67423544299993 ], [ 112.188155782000081, -7.67445166899995 ], [ 112.188006827000095, -7.67458140399998 ], [ 112.1878290410001, -7.674600623999936 ], [ 112.187819431000094, -7.674773604999928 ], [ 112.187992412000085, -7.675129176999974 ], [ 112.188006827000095, -7.675311767999972 ], [ 112.187848261000113, -7.675652923999962 ], [ 112.187780991000068, -7.67584992999997 ], [ 112.18767528, -7.675950834999981 ], [ 112.187674785000013, -7.675950530999955 ], [ 112.187401394000062, -7.675782659999925 ], [ 112.187079458000085, -7.675691363999931 ], [ 112.18679596100003, -7.67550396799993 ], [ 112.18634428900009, -7.675013855999964 ], [ 112.186142120000113, -7.674804848999941 ], [ 112.186330930000054, -7.674286305999942 ], [ 112.186241913000117, -7.674254259999941 ], [ 112.186288976000014, -7.674109585999929 ], [ 112.186274471000047, -7.674105233999967 ], [ 112.186302228000045, -7.674020294999934 ], [ 112.186531535000086, -7.674036108999928 ], [ 112.186531556000091, -7.67403599499994 ], [ 112.186571640000011, -7.674040892999926 ], [ 112.186660511000014, -7.673641557999929 ], [ 112.186662368000043, -7.673642353999981 ] ] ] ] } },
{ "type": "Feature", "properties": { "fid": 6829, "kk": null, "gid": 0.0, "bstt": null, "luas": 272073.85299111804, "bsbtt": null, "idsls": "35061500051002", "kdkab": "06", "kdkec": "150", "kdsls": "1002", "nmkab": "KEDIRI", "nmkec": "KUNJANG", "nmsls": "SAWAH", "bstt_k": null, "kddesa": "005", "kdprov": "35", "khusus": null, "muatan": null, "nmdesa": "BALONGJERUK", "nmprov": "JAWA TIMUR", "posisi": null, "rw_dki": null, "segmen": null, "subsls": null, "sumber": null, "dom_sls": null, "periode": "2025_1", "tingkat": null, "idsubsls": "3506150005100200", "nm_gedung": null, "wil_campur": null, "iddesa": "3506150005", "kdsubsls": "00" }, "geometry": { "type": "MultiPolygon", "coordinates": [ [ [ [ 112.190087425000115, -7.680274156999928 ], [ 112.190093558000058, -7.680276030999948 ], [ 112.190093586000103, -7.680275950999942 ], [ 112.19091306200005, -7.680597938999938 ], [ 112.190884180000012, -7.680652699999939 ], [ 112.190730670000107, -7.680793269999981 ], [ 112.190641890000052, -7.680854299999964 ], [ 112.190601590000028, -7.680871459999935 ], [ 112.190591090000112, -7.680875919999949 ], [ 112.190583700000047, -7.680879069999946 ], [ 112.19040472000006, -7.680955249999954 ], [ 112.19035706000011, -7.681074399999943 ], [ 112.19055311000011, -7.681146529999978 ], [ 112.190469880000023, -7.681349979999936 ], [ 112.190684430000033, -7.68142950999993 ], [ 112.190370010000038, -7.682130489999963 ], [ 112.190094420000037, -7.682740839999951 ], [ 112.189948310000091, -7.683182889999955 ], [ 112.189957560000039, -7.683275359999925 ], [ 112.189961260000018, -7.683316049999974 ], [ 112.189996400000041, -7.683356739999965 ], [ 112.190016740000033, -7.68338633999997 ], [ 112.189792950000083, -7.683933799999977 ], [ 112.189437830000088, -7.684773499999949 ], [ 112.189639430000057, -7.684951059999946 ], [ 112.189458180000088, -7.68541898999996 ], [ 112.189373100000012, -7.68563168999998 ], [ 112.189155610000057, -7.686199759999965 ], [ 112.189171070000043, -7.686349829999926 ], [ 112.189138670000034, -7.686456129999954 ], [ 112.189112770000065, -7.686526409999942 ], [ 112.189092430000073, -7.686581899999965 ], [ 112.1890758400001, -7.686612519999926 ], [ 112.189072080000074, -7.686665129999938 ], [ 112.189062150000041, -7.686691799999949 ], [ 112.189054980000037, -7.686759919999929 ], [ 112.189053130000048, -7.686804299999949 ], [ 112.189064220000091, -7.686869039999976 ], [ 112.18907902, -7.68694856999997 ], [ 112.18906977000006, -7.687004059999936 ], [ 112.189054980000037, -7.687044749999927 ], [ 112.189038330000017, -7.687074339999981 ], [ 112.188919960000021, -7.68716311999998 ], [ 112.188919960000021, -7.687194559999966 ], [ 112.189038330000017, -7.687298129999931 ], [ 112.18909197000005, -7.687344369999948 ], [ 112.189153, -7.687392459999955 ], [ 112.189208490000055, -7.687447949999978 ], [ 112.189245480000068, -7.687477539999975 ], [ 112.189291720000028, -7.68748863999997 ], [ 112.189352750000012, -7.687512679999941 ], [ 112.189378650000094, -7.687536729999977 ], [ 112.189365700000053, -7.68761995999995 ], [ 112.189321310000082, -7.687751269999978 ], [ 112.18930282000008, -7.687825259999954 ], [ 112.189276920000111, -7.687917729999981 ], [ 112.189258430000109, -7.688045349999925 ], [ 112.189243630000078, -7.68807494999993 ], [ 112.189217740000117, -7.688117489999968 ], [ 112.189180750000105, -7.688200709999933 ], [ 112.189132660000041, -7.688324629999954 ], [ 112.189114160000031, -7.688363479999964 ], [ 112.189045730000089, -7.688533629999938 ], [ 112.189017980000017, -7.688631659999942 ], [ 112.189006890000087, -7.688677899999959 ], [ 112.188999490000015, -7.688761129999932 ], [ 112.18900134, -7.688818459999936 ], [ 112.188949550000075, -7.68898121999996 ], [ 112.188759876000063, -7.689517827999964 ], [ 112.18909636, -7.689628945999971 ], [ 112.189843813000039, -7.689889135999977 ], [ 112.189361038000015, -7.691073082999935 ], [ 112.189332443000012, -7.691046807999953 ], [ 112.18926989800002, -7.691177634999974 ], [ 112.189239677000046, -7.691240848999939 ], [ 112.187403943000049, -7.690568749999954 ], [ 112.186882753000077, -7.690377931999933 ], [ 112.186883336000051, -7.690376207999975 ], [ 112.186966761, -7.690129290999948 ], [ 112.18627382000011, -7.689876019999929 ], [ 112.185997840000027, -7.689768384999979 ], [ 112.185805830000049, -7.689693499999976 ], [ 112.185799362000012, -7.68969169899998 ], [ 112.18631907200006, -7.688239025999962 ], [ 112.186325219000082, -7.688241556999969 ], [ 112.186675986000068, -7.687290161999954 ], [ 112.18697389700003, -7.686540578999939 ], [ 112.187564915000053, -7.685017386999959 ], [ 112.188280863000045, -7.683153037999944 ], [ 112.188588385000116, -7.682288133999975 ], [ 112.18893434600011, -7.681543355999963 ], [ 112.189294723000103, -7.681106098999976 ], [ 112.18935900800011, -7.680995261999954 ], [ 112.189597083000081, -7.680994100999953 ], [ 112.189613056000098, -7.680972758999928 ], [ 112.189769219000027, -7.680967953999925 ], [ 112.189770875000022, -7.68096289999994 ], [ 112.189904674000104, -7.680956209999977 ], [ 112.190087425000115, -7.680274156999928 ] ] ] ] } },
{ "type": "Feature", "properties": { "fid": 6830, "kk": null, "gid": 0.0, "bstt": null, "luas": 32688.507461738998, "bsbtt": null, "idsls": "35061500050015", "kdkab": "06", "kdkec": "150", "kdsls": "0015", "nmkab": "KEDIRI", "nmkec": "KUNJANG", "nmsls": "RT 002 RW 005 DUSUN JLODANG", "bstt_k": null, "kddesa": "005", "kdprov": "35", "khusus": null, "muatan": null, "nmdesa": "BALONGJERUK", "nmprov": "JAWA TIMUR", "posisi": null, "rw_dki": null, "segmen": null, "subsls": null, "sumber": null, "dom_sls": null, "periode": "2025_1", "tingkat": null, "idsubsls": "3506150005001500", "nm_gedung": null, "wil_campur": null, "iddesa": "3506150005", "kdsubsls": "00" }, "geometry": { "type": "MultiPolygon", "coordinates": [ [ [ [ 112.185395077000067, -7.672204965999981 ], [ 112.186261452000053, -7.672234923999952 ], [ 112.186445504000062, -7.672013694999976 ], [ 112.186535190000086, -7.67205974999996 ], [ 112.186668360000112, -7.672340879999979 ], [ 112.18660918, -7.672400069999981 ], [ 112.186546290000024, -7.672477749999928 ], [ 112.186494500000094, -7.672592419999944 ], [ 112.186616580000077, -7.672659 ], [ 112.186693061000028, -7.672684869999955 ], [ 112.186588594000114, -7.673248986999965 ], [ 112.186555364000014, -7.673467353999968 ], [ 112.186691025000073, -7.673501674999955 ], [ 112.186662368000043, -7.673642353999981 ], [ 112.186660511000014, -7.673641557999929 ], [ 112.186571640000011, -7.674040892999926 ], [ 112.186531556000091, -7.67403599499994 ], [ 112.186531535000086, -7.674036108999928 ], [ 112.186302228000045, -7.674020294999934 ], [ 112.186274471000047, -7.674105233999967 ], [ 112.186288976000014, -7.674109585999929 ], [ 112.186241913000117, -7.674254259999941 ], [ 112.186330930000054, -7.674286305999942 ], [ 112.186142120000113, -7.674804848999941 ], [ 112.186070161000089, -7.674730454999974 ], [ 112.185770109000032, -7.674420253999926 ], [ 112.185769939000011, -7.674420510999937 ], [ 112.185452807000047, -7.673988058999953 ], [ 112.185126066000066, -7.673786247999942 ], [ 112.18508762600004, -7.673632486999963 ], [ 112.185260606000043, -7.673555606999969 ], [ 112.185270217000038, -7.673392235999927 ], [ 112.185414367000021, -7.673113544999978 ], [ 112.185481637000066, -7.672738752999976 ], [ 112.185395821000043, -7.672209552999959 ], [ 112.185395077000067, -7.672204965999981 ] ] ] ] } },
{ "type": "Feature", "properties": { "fid": 6831, "kk": null, "gid": 0.0, "bstt": null, "luas": 33371.262179794401, "bsbtt": null, "idsls": "35061500051006", "kdkab": "06", "kdkec": "150", "kdsls": "1006", "nmkab": "KEDIRI", "nmkec": "KUNJANG", "nmsls": "SAWAH", "bstt_k": null, "kddesa": "005", "kdprov": "35", "khusus": null, "muatan": null, "nmdesa": "BALONGJERUK", "nmprov": "JAWA TIMUR", "posisi": null, "rw_dki": null, "segmen": null, "subsls": null, "sumber": null, "dom_sls": null, "periode": "2025_1", "tingkat": null, "idsubsls": "3506150005100600", "nm_gedung": null, "wil_campur": null, "iddesa": "3506150005", "kdsubsls": "00" }, "geometry": { "type": "MultiPolygon", "coordinates": [ [ [ [ 112.19108901300001, -7.67051782599998 ], [ 112.190621041000099, -7.670295962999944 ], [ 112.190605780000055, -7.670565250999971 ], [ 112.190912265000065, -7.670612303999974 ], [ 112.190913497000111, -7.670750254999973 ], [ 112.190910442000018, -7.670750074999944 ], [ 112.190902754000035, -7.67090382799995 ], [ 112.191151482, -7.670933875999935 ], [ 112.191304179000099, -7.671950834999961 ], [ 112.190341751, -7.671785684999975 ], [ 112.19036737700003, -7.672164391999956 ], [ 112.190216464000059, -7.672321 ], [ 112.189726019000091, -7.671721760999958 ], [ 112.189725060000114, -7.671720569999934 ], [ 112.189473440000029, -7.67140956999998 ], [ 112.189473572000111, -7.671409213999937 ], [ 112.189474960000098, -7.671405469999968 ], [ 112.189584410000066, -7.671109949999959 ], [ 112.189747170000032, -7.670577279999975 ], [ 112.189777560000039, -7.670462239999949 ], [ 112.189798960000076, -7.670381219999967 ], [ 112.18992843, -7.669715389999965 ], [ 112.189932720000115, -7.669686199999944 ], [ 112.190140426000085, -7.669720820999942 ], [ 112.190153821000081, -7.670060147999948 ], [ 112.191019437000023, -7.670054452999977 ], [ 112.19108901300001, -7.67051782599998 ] ] ] ] } },
{ "type": "Feature", "properties": { "fid": 6832, "kk": null, "gid": 0.0, "bstt": null, "luas": 106218.0492171597, "bsbtt": null, "idsls": "35061500051003", "kdkab": "06", "kdkec": "150", "kdsls": "1003", "nmkab": "KEDIRI", "nmkec": "KUNJANG", "nmsls": "SAWAH", "bstt_k": null, "kddesa": "005", "kdprov": "35", "khusus": null, "muatan": null, "nmdesa": "BALONGJERUK", "nmprov": "JAWA TIMUR", "posisi": null, "rw_dki": null, "segmen": null, "subsls": null, "sumber": null, "dom_sls": null, "periode": "2025_1", "tingkat": null, "idsubsls": "3506150005100300", "nm_gedung": null, "wil_campur": null, "iddesa": "3506150005", "kdsubsls": "00" }, "geometry": { "type": "MultiPolygon", "coordinates": [ [ [ [ 112.189092126000105, -7.672774115999971 ], [ 112.189422317000094, -7.672957155999939 ], [ 112.189520873000106, -7.672778995999977 ], [ 112.190275617000111, -7.673197442999935 ], [ 112.190266739000094, -7.673309899999936 ], [ 112.190119385000116, -7.673719928999958 ], [ 112.190676049000103, -7.674103834999926 ], [ 112.190676167000106, -7.674104129999932 ], [ 112.191014499000062, -7.674364582999942 ], [ 112.190392370000041, -7.675756306999972 ], [ 112.189946007000117, -7.676797819999933 ], [ 112.189924669000106, -7.676797096999962 ], [ 112.189770254000109, -7.677124456999934 ], [ 112.18946500100003, -7.677020027999959 ], [ 112.189464932000078, -7.677020264999953 ], [ 112.188956119000068, -7.676815513999941 ], [ 112.188955982000039, -7.676815943999941 ], [ 112.188824825000097, -7.676790684999958 ], [ 112.188905967000096, -7.67654725899996 ], [ 112.188901162000093, -7.676347849999956 ], [ 112.188836294000112, -7.67621571199993 ], [ 112.188598445000025, -7.67609798899997 ], [ 112.18820443300001, -7.676179674999958 ], [ 112.187680686000022, -7.675964048999958 ], [ 112.187674785000013, -7.675950530999955 ], [ 112.18767528, -7.675950834999981 ], [ 112.187780991000068, -7.67584992999997 ], [ 112.187848261000113, -7.675652923999962 ], [ 112.188006827000095, -7.675311767999972 ], [ 112.187992412000085, -7.675129176999974 ], [ 112.187819431000094, -7.674773604999928 ], [ 112.1878290410001, -7.674600623999936 ], [ 112.188006827000095, -7.67458140399998 ], [ 112.188155782000081, -7.67445166899995 ], [ 112.188083707000033, -7.67423544299993 ], [ 112.188126952000061, -7.67399519099996 ], [ 112.188223053000115, -7.67376454999993 ], [ 112.188181727000028, -7.673726611999939 ], [ 112.188296776000016, -7.673522809999952 ], [ 112.188299670000106, -7.673524589999943 ], [ 112.18838844000004, -7.673502399999961 ], [ 112.188425430000052, -7.673450609999975 ], [ 112.188506820000043, -7.673302649999926 ], [ 112.188641010000083, -7.673005239999952 ], [ 112.188643555000112, -7.672999597999933 ], [ 112.188643680000041, -7.672999319999974 ], [ 112.188743560000034, -7.673036309999929 ], [ 112.188898920000042, -7.673091799999952 ], [ 112.189035790000048, -7.672855049999953 ], [ 112.189038910000022, -7.67285271999998 ], [ 112.189092126000105, -7.672774115999971 ] ] ] ] } }
]
}
