{
"type": "FeatureCollection",
"name": "iddesa_3506150004",
"crs": { "type": "name", "properties": { "name": "urn:ogc:def:crs:OGC:1.3:CRS84" } },
"features": [
{ "type": "Feature", "properties": { "fid": 6793, "kk": null, "gid": 0.0, "bstt": null, "luas": 35369.886846029505, "bsbtt": null, "idsls": "35061500040008", "kdkab": "06", "kdkec": "150", "kdsls": "0008", "nmkab": "KEDIRI", "nmkec": "KUNJANG", "nmsls": "RT 002 RW 002 DUSUN WONOREJO", "bstt_k": null, "kddesa": "004", "kdprov": "35", "khusus": null, "muatan": null, "nmdesa": "WONOREJO", "nmprov": "JAWA TIMUR", "posisi": null, "rw_dki": null, "segmen": null, "subsls": null, "sumber": null, "dom_sls": null, "periode": "2025_1", "tingkat": null, "idsubsls": "3506150004000800", "nm_gedung": null, "wil_campur": null, "iddesa": "3506150004", "kdsubsls": "00" }, "geometry": { "type": "MultiPolygon", "coordinates": [ [ [ [ 112.184511882000038, -7.668628794999961 ], [ 112.184584436000023, -7.668644384999936 ], [ 112.184805010000105, -7.668644384999936 ], [ 112.185124194000082, -7.668896098999937 ], [ 112.185591292000026, -7.66919582099996 ], [ 112.185936426000012, -7.669433261999927 ], [ 112.185938194000073, -7.669436403999953 ], [ 112.185689902000036, -7.669989887999975 ], [ 112.185381098000107, -7.670571165999945 ], [ 112.185268146000112, -7.670790423999961 ], [ 112.184723835000113, -7.670527212999957 ], [ 112.184723677000079, -7.670527453999966 ], [ 112.184609656000021, -7.670233329999974 ], [ 112.184392974000048, -7.670181429999957 ], [ 112.183953123000038, -7.670015350999961 ], [ 112.183735823, -7.669886580999957 ], [ 112.183829450000076, -7.669631236999976 ], [ 112.183834484000045, -7.669617506999941 ], [ 112.183930498000109, -7.66936579299994 ], [ 112.183966828000052, -7.669272372999956 ], [ 112.184034298000029, -7.668922048999946 ], [ 112.183984993000081, -7.668509445999973 ], [ 112.183985784000015, -7.668509445999973 ], [ 112.18411474200002, -7.668509445999973 ], [ 112.18427044200007, -7.66857691499996 ], [ 112.184511882000038, -7.668628794999961 ] ] ] ] } },
{ "type": "Feature", "properties": { "fid": 6794, "kk": null, "gid": 0.0, "bstt": null, "luas": 14656.7883689804, "bsbtt": null, "idsls": "35061500040007", "kdkab": "06", "kdkec": "150", "kdsls": "0007", "nmkab": "KEDIRI", "nmkec": "KUNJANG", "nmsls": "RT 001 RW 002 DUSUN WONOREJO", "bstt_k": null, "kddesa": "004", "kdprov": "35", "khusus": null, "muatan": null, "nmdesa": "WONOREJO", "nmprov": "JAWA TIMUR", "posisi": null, "rw_dki": null, "segmen": null, "subsls": null, "sumber": null, "dom_sls": null, "periode": "2025_1", "tingkat": null, "idsubsls": "3506150004000700", "nm_gedung": null, "wil_campur": null, "iddesa": "3506150004", "kdsubsls": "00" }, "geometry": { "type": "MultiPolygon", "coordinates": [ [ [ [ 112.183829450000076, -7.669631236999976 ], [ 112.183510786000056, -7.669260503999965 ], [ 112.183339447000094, -7.669235671999957 ], [ 112.183192494000082, -7.669344772999978 ], [ 112.18319279100001, -7.669341950999979 ], [ 112.182858037000074, -7.669300430999954 ], [ 112.182857776000105, -7.669303963999937 ], [ 112.182857470000044, -7.669301566999934 ], [ 112.182932724000011, -7.668924643999958 ], [ 112.183018359000016, -7.668449760999977 ], [ 112.183194818000061, -7.667967092999959 ], [ 112.183197216000053, -7.667968525999981 ], [ 112.183672297000044, -7.668252541999948 ], [ 112.184000563000041, -7.668475710999928 ], [ 112.183985784000015, -7.668509445999973 ], [ 112.183984993000081, -7.668509445999973 ], [ 112.184034298000029, -7.668922048999946 ], [ 112.183966828000052, -7.669272372999956 ], [ 112.183930498000109, -7.66936579299994 ], [ 112.183834484000045, -7.669617506999941 ], [ 112.183829450000076, -7.669631236999976 ] ] ] ] } },
{ "type": "Feature", "properties": { "fid": 6795, "kk": null, "gid": 0.0, "bstt": null, "luas": 17483.880940372164, "bsbtt": null, "idsls": "35061500040003", "kdkab": "06", "kdkec": "150", "kdsls": "0003", "nmkab": "KEDIRI", "nmkec": "KUNJANG", "nmsls": "RT 003 RW 001 DUSUN WONOREJO", "bstt_k": null, "kddesa": "004", "kdprov": "35", "khusus": null, "muatan": null, "nmdesa": "WONOREJO", "nmprov": "JAWA TIMUR", "posisi": null, "rw_dki": null, "segmen": null, "subsls": null, "sumber": null, "dom_sls": null, "periode": "2025_1", "tingkat": null, "idsubsls": "3506150004000300", "nm_gedung": null, "wil_campur": null, "iddesa": "3506150004", "kdsubsls": "00" }, "geometry": { "type": "MultiPolygon", "coordinates": [ [ [ [ 112.186529236000069, -7.669113053999979 ], [ 112.186825210000052, -7.669359304999944 ], [ 112.187528452000038, -7.66987570799995 ], [ 112.187979980000023, -7.670236411999952 ], [ 112.188556068000025, -7.670685344999981 ], [ 112.189342350000061, -7.67129257299996 ], [ 112.189473572000111, -7.671409213999937 ], [ 112.189473440000029, -7.67140956999998 ], [ 112.189725060000114, -7.671720569999934 ], [ 112.189726019000091, -7.671721760999958 ], [ 112.189662780000049, -7.671773069999972 ], [ 112.189609353000037, -7.671863301999963 ], [ 112.189408523000111, -7.671742803999962 ], [ 112.189258013000085, -7.671632516999978 ], [ 112.189182758000015, -7.671602673999928 ], [ 112.189072471000031, -7.671592293999936 ], [ 112.189071557000034, -7.671592605999933 ], [ 112.188981971000089, -7.671497900999952 ], [ 112.188743232000093, -7.671077512999943 ], [ 112.188634242000035, -7.670932193999931 ], [ 112.18844221300003, -7.670789468999942 ], [ 112.18817492900007, -7.670635066999978 ], [ 112.188174511000057, -7.670635014999959 ], [ 112.188077293000106, -7.670563380999965 ], [ 112.18785152800001, -7.670495910999932 ], [ 112.187617979000038, -7.670503695999969 ], [ 112.187404699000012, -7.670470290999958 ], [ 112.187402595000094, -7.670469960999981 ], [ 112.187402509000094, -7.670470142999932 ], [ 112.187379240000041, -7.670368755999959 ], [ 112.187215756000114, -7.670246791999944 ], [ 112.186779797000099, -7.66991203799995 ], [ 112.186395739000091, -7.669678488999978 ], [ 112.18628013600005, -7.669616745999974 ], [ 112.186281559, -7.669613613999957 ], [ 112.186387954000111, -7.669347627999969 ], [ 112.18650083600005, -7.669089425999971 ], [ 112.186529236000069, -7.669113053999979 ] ] ] ] } },
{ "type": "Feature", "properties": { "fid": 6796, "kk": null, "gid": 0.0, "bstt": null, "luas": 9991.5665792534473, "bsbtt": null, "idsls": "35061500040004", "kdkab": "06", "kdkec": "150", "kdsls": "0004", "nmkab": "KEDIRI", "nmkec": "KUNJANG", "nmsls": "RT 004 RW 001 DUSUN WONOREJO", "bstt_k": null, "kddesa": "004", "kdprov": "35", "khusus": null, "muatan": null, "nmdesa": "WONOREJO", "nmprov": "JAWA TIMUR", "posisi": null, "rw_dki": null, "segmen": null, "subsls": null, "sumber": null, "dom_sls": null, "periode": "2025_1", "tingkat": null, "idsubsls": "3506150004000400", "nm_gedung": null, "wil_campur": null, "iddesa": "3506150004", "kdsubsls": "00" }, "geometry": { "type": "MultiPolygon", "coordinates": [ [ [ [ 112.189609353000037, -7.671863301999963 ], [ 112.189496320000103, -7.672054199999934 ], [ 112.189467752000041, -7.672118737999938 ], [ 112.189461120000033, -7.672133719999977 ], [ 112.189414380000017, -7.672239309999952 ], [ 112.189337260000116, -7.672355679999953 ], [ 112.189237640000101, -7.672559179999951 ], [ 112.189206734000095, -7.672604830999944 ], [ 112.189092126000105, -7.672774115999971 ], [ 112.189038910000022, -7.67285271999998 ], [ 112.189035790000048, -7.672855049999953 ], [ 112.188898920000042, -7.673091799999952 ], [ 112.188743560000034, -7.673036309999929 ], [ 112.188643680000041, -7.672999319999974 ], [ 112.188643555000112, -7.672999597999933 ], [ 112.188495086000103, -7.67290406199993 ], [ 112.188546986, -7.672696462999966 ], [ 112.188578126000039, -7.672621207999953 ], [ 112.188687115000107, -7.672348733999968 ], [ 112.188876550000032, -7.67196467499997 ], [ 112.188876250000021, -7.671964628999945 ], [ 112.189072796, -7.671593915999949 ], [ 112.189071557000034, -7.671592605999933 ], [ 112.189072471000031, -7.671592293999936 ], [ 112.189182758000015, -7.671602673999928 ], [ 112.189258013000085, -7.671632516999978 ], [ 112.189408523000111, -7.671742803999962 ], [ 112.189609353000037, -7.671863301999963 ] ] ] ] } },
{ "type": "Feature", "properties": { "fid": 6797, "kk": null, "gid": 0.0, "bstt": null, "luas": 12142.461190845832, "bsbtt": null, "idsls": "35061500040005", "kdkab": "06", "kdkec": "150", "kdsls": "0005", "nmkab": "KEDIRI", "nmkec": "KUNJANG", "nmsls": "RT 005 RW 001 DUSUN WONOREJO", "bstt_k": null, "kddesa": "004", "kdprov": "35", "khusus": null, "muatan": null, "nmdesa": "WONOREJO", "nmprov": "JAWA TIMUR", "posisi": null, "rw_dki": null, "segmen": null, "subsls": null, "sumber": null, "dom_sls": null, "periode": "2025_1", "tingkat": null, "idsubsls": "3506150004000500", "nm_gedung": null, "wil_campur": null, "iddesa": "3506150004", "kdsubsls": "00" }, "geometry": { "type": "MultiPolygon", "coordinates": [ [ [ [ 112.18793185200002, -7.671804147999978 ], [ 112.1879843480001, -7.671702396999933 ], [ 112.187885685000083, -7.671657838999977 ], [ 112.187905025000077, -7.671619803999931 ], [ 112.187776584000062, -7.67155113299998 ], [ 112.187796932000083, -7.67152426499996 ], [ 112.187834892000069, -7.671402571999977 ], [ 112.187857672000064, -7.67141074999995 ], [ 112.187991055000111, -7.671204898999974 ], [ 112.187937321000049, -7.671148261999974 ], [ 112.188074530000108, -7.670910270999968 ], [ 112.188043667000102, -7.670893762999981 ], [ 112.188175902000012, -7.670636039999977 ], [ 112.188174511000057, -7.670635014999959 ], [ 112.18817492900007, -7.670635066999978 ], [ 112.18844221300003, -7.670789468999942 ], [ 112.188634242000035, -7.670932193999931 ], [ 112.188743232000093, -7.671077512999943 ], [ 112.188981971000089, -7.671497900999952 ], [ 112.189071557000034, -7.671592605999933 ], [ 112.189072796, -7.671593915999949 ], [ 112.188876250000021, -7.671964628999945 ], [ 112.18865857000003, -7.671930939999982 ], [ 112.188513251000018, -7.671876445999942 ], [ 112.188155142000028, -7.671746695999957 ], [ 112.188148330000104, -7.671743289999938 ], [ 112.188086052000017, -7.67186784699993 ], [ 112.187959410000076, -7.671815699999968 ], [ 112.187960049000026, -7.671814083999948 ], [ 112.18793185200002, -7.671804147999978 ] ] ] ] } },
{ "type": "Feature", "properties": { "fid": 6798, "kk": null, "gid": 0.0, "bstt": null, "luas": 24894.422622135215, "bsbtt": null, "idsls": "35061500040006", "kdkab": "06", "kdkec": "150", "kdsls": "0006", "nmkab": "KEDIRI", "nmkec": "KUNJANG", "nmsls": "RT 006 RW 001 DUSUN WONOREJO", "bstt_k": null, "kddesa": "004", "kdprov": "35", "khusus": null, "muatan": null, "nmdesa": "WONOREJO", "nmprov": "JAWA TIMUR", "posisi": null, "rw_dki": null, "segmen": null, "subsls": null, "sumber": null, "dom_sls": null, "periode": "2025_1", "tingkat": null, "idsubsls": "3506150004000600", "nm_gedung": null, "wil_campur": null, "iddesa": "3506150004", "kdsubsls": "00" }, "geometry": { "type": "MultiPolygon", "coordinates": [ [ [ [ 112.181499243000076, -7.66282371099993 ], [ 112.181499213000052, -7.662823699999933 ], [ 112.181265041000074, -7.663239752999971 ], [ 112.181014053000013, -7.663685682999926 ], [ 112.180811644000073, -7.66418392099996 ], [ 112.180598488000101, -7.66452602399994 ], [ 112.180391256, -7.664858618999972 ], [ 112.179991627000049, -7.664708108999946 ], [ 112.179929348000087, -7.665024697999968 ], [ 112.179747698000028, -7.664972797999951 ], [ 112.179169500000057, -7.666423277999968 ], [ 112.179098750000094, -7.666411219999929 ], [ 112.179002580000088, -7.666385319999961 ], [ 112.178728840000076, -7.666357579999953 ], [ 112.178728893000084, -7.666357448999975 ], [ 112.178729370000042, -7.666356279999945 ], [ 112.179365090000033, -7.664796559999957 ], [ 112.179671146000032, -7.664081199999941 ], [ 112.18018698000003, -7.664283839999939 ], [ 112.180338650000067, -7.66435182999993 ], [ 112.18034789, -7.664355969999974 ], [ 112.1806136780001, -7.663754838999978 ], [ 112.18062348, -7.663732669999945 ], [ 112.180881298000031, -7.663108362999935 ], [ 112.18094287100007, -7.662881027999958 ], [ 112.181015190000039, -7.662661475999926 ], [ 112.181019033000098, -7.662659984999948 ], [ 112.181498171000044, -7.662819570999943 ], [ 112.181499243000076, -7.66282371099993 ] ] ] ] } },
{ "type": "Feature", "properties": { "fid": 6799, "kk": null, "gid": 0.0, "bstt": null, "luas": 23562.873860199732, "bsbtt": null, "idsls": "35061500040002", "kdkab": "06", "kdkec": "150", "kdsls": "0002", "nmkab": "KEDIRI", "nmkec": "KUNJANG", "nmsls": "RT 002 RW 001 DUSUN WONOREJO", "bstt_k": null, "kddesa": "004", "kdprov": "35", "khusus": null, "muatan": null, "nmdesa": "WONOREJO", "nmprov": "JAWA TIMUR", "posisi": null, "rw_dki": null, "segmen": null, "subsls": null, "sumber": null, "dom_sls": null, "periode": "2025_1", "tingkat": null, "idsubsls": "3506150004000200", "nm_gedung": null, "wil_campur": null, "iddesa": "3506150004", "kdsubsls": "00" }, "geometry": { "type": "MultiPolygon", "coordinates": [ [ [ [ 112.184665521000056, -7.668364118999932 ], [ 112.184665467000059, -7.668364074999943 ], [ 112.18489159100011, -7.667796455999962 ], [ 112.184905223000101, -7.667214853999951 ], [ 112.184905241000024, -7.667214058999946 ], [ 112.18539829000008, -7.66735418899998 ], [ 112.185278920000087, -7.668148255999938 ], [ 112.186156027000038, -7.66882295299996 ], [ 112.186296156000026, -7.668246864999958 ], [ 112.186675025000113, -7.668537503999971 ], [ 112.186529236000069, -7.669113053999979 ], [ 112.18650083600005, -7.669089425999971 ], [ 112.186387954000111, -7.669347627999969 ], [ 112.186281559, -7.669613613999957 ], [ 112.18628013600005, -7.669616745999974 ], [ 112.185939021000081, -7.669434559999956 ], [ 112.185938194000073, -7.669436403999953 ], [ 112.185936426000012, -7.669433261999927 ], [ 112.185591292000026, -7.66919582099996 ], [ 112.185124194000082, -7.668896098999937 ], [ 112.184805010000105, -7.668644384999936 ], [ 112.184584436000023, -7.668644384999936 ], [ 112.184511882000038, -7.668628794999961 ], [ 112.184567788000095, -7.668592455999942 ], [ 112.184665521000056, -7.668364118999932 ] ] ] ] } },
{ "type": "Feature", "properties": { "fid": 6800, "kk": null, "gid": 0.0, "bstt": null, "luas": 27331.764517381591, "bsbtt": null, "idsls": "35061500040009", "kdkab": "06", "kdkec": "150", "kdsls": "0009", "nmkab": "KEDIRI", "nmkec": "KUNJANG", "nmsls": "RT 003 RW 002 DUSUN WONOREJO", "bstt_k": null, "kddesa": "004", "kdprov": "35", "khusus": null, "muatan": null, "nmdesa": "WONOREJO", "nmprov": "JAWA TIMUR", "posisi": null, "rw_dki": null, "segmen": null, "subsls": null, "sumber": null, "dom_sls": null, "periode": "2025_1", "tingkat": null, "idsubsls": "3506150004000900", "nm_gedung": null, "wil_campur": null, "iddesa": "3506150004", "kdsubsls": "00" }, "geometry": { "type": "MultiPolygon", "coordinates": [ [ [ [ 112.187319528000103, -7.670821 ], [ 112.187125288000061, -7.671226314999956 ], [ 112.186489159000075, -7.67093446399997 ], [ 112.186424284000054, -7.671020098999975 ], [ 112.186099910000053, -7.670833259999938 ], [ 112.186058390000085, -7.670879968999941 ], [ 112.185766731000058, -7.671267328999932 ], [ 112.185598347000109, -7.671028045999947 ], [ 112.185494547000076, -7.670950195999978 ], [ 112.185276568000063, -7.670794496999974 ], [ 112.185268146000112, -7.670790423999961 ], [ 112.185381098000107, -7.670571165999945 ], [ 112.185689902000036, -7.669989887999975 ], [ 112.185938194000073, -7.669436403999953 ], [ 112.185939021000081, -7.669434559999956 ], [ 112.18628013600005, -7.669616745999974 ], [ 112.186395739000091, -7.669678488999978 ], [ 112.186779797000099, -7.66991203799995 ], [ 112.187215756000114, -7.670246791999944 ], [ 112.187379240000041, -7.670368755999959 ], [ 112.187402509000094, -7.670470142999932 ], [ 112.187402595000094, -7.670469960999981 ], [ 112.187404699000012, -7.670470290999958 ], [ 112.187318581000113, -7.670820612999933 ], [ 112.187319528000103, -7.670821 ] ] ] ] } },
{ "type": "Feature", "properties": { "fid": 6801, "kk": null, "gid": 0.0, "bstt": null, "luas": 48961.95568687073, "bsbtt": null, "idsls": "35061500040011", "kdkab": "06", "kdkec": "150", "kdsls": "0011", "nmkab": "KEDIRI", "nmkec": "KUNJANG", "nmsls": "RT 005 RW 002 DUSUN WONOREJO", "bstt_k": null, "kddesa": "004", "kdprov": "35", "khusus": null, "muatan": null, "nmdesa": "WONOREJO", "nmprov": "JAWA TIMUR", "posisi": null, "rw_dki": null, "segmen": null, "subsls": null, "sumber": null, "dom_sls": null, "periode": "2025_1", "tingkat": null, "idsubsls": "3506150004001100", "nm_gedung": null, "wil_campur": null, "iddesa": "3506150004", "kdsubsls": "00" }, "geometry": { "type": "MultiPolygon", "coordinates": [ [ [ [ 112.187125288000061, -7.671226314999956 ], [ 112.187210845000095, -7.671265567999967 ], [ 112.187433735000013, -7.671367827999973 ], [ 112.187776584000062, -7.67155113299998 ], [ 112.187905025000077, -7.671619803999931 ], [ 112.187885685000083, -7.671657838999977 ], [ 112.1879843480001, -7.671702396999933 ], [ 112.18793185200002, -7.671804147999978 ], [ 112.187960049000026, -7.671814083999948 ], [ 112.187959410000076, -7.671815699999968 ], [ 112.188086052000017, -7.67186784699993 ], [ 112.188148330000104, -7.671743289999938 ], [ 112.188155142000028, -7.671746695999957 ], [ 112.188513251000018, -7.671876445999942 ], [ 112.18865857000003, -7.671930939999982 ], [ 112.188876250000021, -7.671964628999945 ], [ 112.188876550000032, -7.67196467499997 ], [ 112.188687115000107, -7.672348733999968 ], [ 112.188578126000039, -7.672621207999953 ], [ 112.188546986, -7.672696462999966 ], [ 112.188495086000103, -7.67290406199993 ], [ 112.188643555000112, -7.672999597999933 ], [ 112.188641010000083, -7.673005239999952 ], [ 112.188506820000043, -7.673302649999926 ], [ 112.188425430000052, -7.673450609999975 ], [ 112.18838844000004, -7.673502399999961 ], [ 112.188299670000106, -7.673524589999943 ], [ 112.188296776000016, -7.673522809999952 ], [ 112.18828102000009, -7.673513119999939 ], [ 112.188155400000028, -7.673435809999944 ], [ 112.188025930000094, -7.67337662999995 ], [ 112.187870570000086, -7.673287849999952 ], [ 112.187792890000082, -7.67324715999996 ], [ 112.187685610000017, -7.673176879999971 ], [ 112.187422980000065, -7.673047409999981 ], [ 112.187263920000078, -7.672977129999936 ], [ 112.18710486000009, -7.672873549999963 ], [ 112.186868110000091, -7.672744079999973 ], [ 112.186693061000028, -7.672684869999955 ], [ 112.186616580000077, -7.672659 ], [ 112.186494500000094, -7.672592419999944 ], [ 112.186546290000024, -7.672477749999928 ], [ 112.18660918, -7.672400069999981 ], [ 112.186668360000112, -7.672340879999979 ], [ 112.186535190000086, -7.67205974999996 ], [ 112.186445504000062, -7.672013694999976 ], [ 112.186398330000088, -7.671989469999971 ], [ 112.18625217400006, -7.671947351999961 ], [ 112.186091395000062, -7.671728692999977 ], [ 112.185766731000058, -7.671267328999932 ], [ 112.186058390000085, -7.670879968999941 ], [ 112.186099910000053, -7.670833259999938 ], [ 112.186424284000054, -7.671020098999975 ], [ 112.186489159000075, -7.67093446399997 ], [ 112.187125288000061, -7.671226314999956 ] ] ] ] } },
{ "type": "Feature", "properties": { "fid": 6802, "kk": null, "gid": 0.0, "bstt": null, "luas": 25732.09186744925, "bsbtt": null, "idsls": "35061500040012", "kdkab": "06", "kdkec": "150", "kdsls": "0012", "nmkab": "KEDIRI", "nmkec": "KUNJANG", "nmsls": "RT 001 RW 001 DUSUN TAMBAKREJO", "bstt_k": null, "kddesa": "004", "kdprov": "35", "khusus": null, "muatan": null, "nmdesa": "WONOREJO", "nmprov": "JAWA TIMUR", "posisi": null, "rw_dki": null, "segmen": null, "subsls": null, "sumber": null, "dom_sls": null, "periode": "2025_1", "tingkat": null, "idsubsls": "3506150004001200", "nm_gedung": null, "wil_campur": null, "iddesa": "3506150004", "kdsubsls": "00" }, "geometry": { "type": "MultiPolygon", "coordinates": [ [ [ [ 112.184759655000107, -7.67101805599998 ], [ 112.184604758000091, -7.671331820999967 ], [ 112.184313945000099, -7.671179946999928 ], [ 112.183177241000067, -7.670586316999959 ], [ 112.183177470000032, -7.670584729999973 ], [ 112.183173360000069, -7.670582569999965 ], [ 112.183107190000101, -7.670547739999961 ], [ 112.183101530000044, -7.670545799999957 ], [ 112.183072029000073, -7.670535726999958 ], [ 112.182858037000074, -7.670133422999982 ], [ 112.182811328000071, -7.669967343999929 ], [ 112.182826897000041, -7.669720819999952 ], [ 112.182857776000105, -7.669303963999937 ], [ 112.182858037000074, -7.669300430999954 ], [ 112.18319279100001, -7.669341950999979 ], [ 112.183192494000082, -7.669344772999978 ], [ 112.183339447000094, -7.669235671999957 ], [ 112.183510786000056, -7.669260503999965 ], [ 112.183829450000076, -7.669631236999976 ], [ 112.183735823, -7.669886580999957 ], [ 112.183953123000038, -7.670015350999961 ], [ 112.184392974000048, -7.670181429999957 ], [ 112.184609656000021, -7.670233329999974 ], [ 112.184723677000079, -7.670527453999966 ], [ 112.184511046000011, -7.670851586999959 ], [ 112.184759655000107, -7.67101805599998 ] ] ] ] } },
{ "type": "Feature", "properties": { "fid": 6803, "kk": null, "gid": 0.0, "bstt": null, "luas": 18144.075979099867, "bsbtt": null, "idsls": "35061500040013", "kdkab": "06", "kdkec": "150", "kdsls": "0013", "nmkab": "KEDIRI", "nmkec": "KUNJANG", "nmsls": "RT 002 RW 001 DUSUN TAMBAKREJO", "bstt_k": null, "kddesa": "004", "kdprov": "35", "khusus": null, "muatan": null, "nmdesa": "WONOREJO", "nmprov": "JAWA TIMUR", "posisi": null, "rw_dki": null, "segmen": null, "subsls": null, "sumber": null, "dom_sls": null, "periode": "2025_1", "tingkat": null, "idsubsls": "3506150004001300", "nm_gedung": null, "wil_campur": null, "iddesa": "3506150004", "kdsubsls": "00" }, "geometry": { "type": "MultiPolygon", "coordinates": [ [ [ [ 112.18625217400006, -7.671947351999961 ], [ 112.186398330000088, -7.671989469999971 ], [ 112.186445504000062, -7.672013694999976 ], [ 112.186261452000053, -7.672234923999952 ], [ 112.185395077000067, -7.672204965999981 ], [ 112.18539360300008, -7.672195872999964 ], [ 112.18539346700004, -7.672195942999963 ], [ 112.185364798000023, -7.671914234999974 ], [ 112.185347528000079, -7.671896850999929 ], [ 112.185167579000108, -7.671715717999973 ], [ 112.184908080000014, -7.671565208999937 ], [ 112.184747190000053, -7.671440648999976 ], [ 112.18466546500008, -7.671364031999929 ], [ 112.184664151000106, -7.67136279999994 ], [ 112.184664137000027, -7.671362830999954 ], [ 112.184604758000091, -7.671331820999967 ], [ 112.184759655000107, -7.67101805599998 ], [ 112.184511046000011, -7.670851586999959 ], [ 112.184723677000079, -7.670527453999966 ], [ 112.184723835000113, -7.670527212999957 ], [ 112.185268146000112, -7.670790423999961 ], [ 112.185276568000063, -7.670794496999974 ], [ 112.185494547000076, -7.670950195999978 ], [ 112.185598347000109, -7.671028045999947 ], [ 112.185766731000058, -7.671267328999932 ], [ 112.186091395000062, -7.671728692999977 ], [ 112.18625217400006, -7.671947351999961 ] ] ] ] } },
{ "type": "Feature", "properties": { "fid": 6804, "kk": null, "gid": 0.0, "bstt": null, "luas": 150804.74535902825, "bsbtt": null, "idsls": "35061500041001", "kdkab": "06", "kdkec": "150", "kdsls": "1001", "nmkab": "KEDIRI", "nmkec": "KUNJANG", "nmsls": "PERSAWAHAN TAMBAK REJO 1", "bstt_k": null, "kddesa": "004", "kdprov": "35", "khusus": null, "muatan": null, "nmdesa": "WONOREJO", "nmprov": "JAWA TIMUR", "posisi": null, "rw_dki": null, "segmen": null, "subsls": null, "sumber": null, "dom_sls": null, "periode": "2025_1", "tingkat": null, "idsubsls": "3506150004100100", "nm_gedung": null, "wil_campur": null, "iddesa": "3506150004", "kdsubsls": "00" }, "geometry": { "type": "MultiPolygon", "coordinates": [ [ [ [ 112.182112698000083, -7.67715721299993 ], [ 112.182119519000025, -7.67716130499997 ], [ 112.182196720000093, -7.677168441999981 ], [ 112.182263221000085, -7.678209046999939 ], [ 112.182126180000068, -7.678214529999934 ], [ 112.182052200000044, -7.678207129999976 ], [ 112.181722980000018, -7.67813684999993 ], [ 112.181467740000016, -7.678081359999965 ], [ 112.181120020000094, -7.678018479999935 ], [ 112.180646540000112, -7.677807629999961 ], [ 112.180513370000085, -7.677748439999959 ], [ 112.180409790000112, -7.677729949999957 ], [ 112.18035061, -7.677733649999936 ], [ 112.180291420000117, -7.67770035999996 ], [ 112.18023224, -7.677655969999932 ], [ 112.180136060000109, -7.677600479999967 ], [ 112.180069480000043, -7.677593079999951 ], [ 112.17998440000008, -7.677559789999975 ], [ 112.179925210000079, -7.677526499999942 ], [ 112.179829040000072, -7.677526499999942 ], [ 112.178822880000098, -7.679912419999937 ], [ 112.178501060000031, -7.680101069999978 ], [ 112.178428930000109, -7.680128819999936 ], [ 112.178375290000076, -7.680143609999959 ], [ 112.178329050000116, -7.680145459999949 ], [ 112.17824027000006, -7.680123269999967 ], [ 112.178179240000077, -7.680106619999947 ], [ 112.177968390000046, -7.680023389999974 ], [ 112.177898110000115, -7.680017839999948 ], [ 112.177814880000028, -7.680027089999953 ], [ 112.177737190000016, -7.680017839999948 ], [ 112.177666910000084, -7.680151009999975 ], [ 112.177629920000072, -7.680184299999951 ], [ 112.177533740000058, -7.680358159999969 ], [ 112.177437570000052, -7.680461729999934 ], [ 112.177367280000112, -7.680591199999981 ], [ 112.177271110000106, -7.680694779999953 ], [ 112.177215620000084, -7.68070586999994 ], [ 112.177082450000057, -7.680713269999956 ], [ 112.176838310000107, -7.68070586999994 ], [ 112.176664460000097, -7.680694779999953 ], [ 112.176601570000116, -7.68074656999994 ], [ 112.176538690000029, -7.680779859999973 ], [ 112.17642401, -7.68082794999998 ], [ 112.176350030000094, -7.680839039999967 ], [ 112.17627605000007, -7.680868639999971 ], [ 112.176205770000024, -7.680857539999977 ], [ 112.175798870000108, -7.681020299999943 ], [ 112.175706390000073, -7.68115346999997 ], [ 112.175543940000011, -7.681278689999942 ], [ 112.175471150000021, -7.68118144999994 ], [ 112.174929630000065, -7.680458069999929 ], [ 112.174701820000109, -7.680108019999977 ], [ 112.174519630000077, -7.679828069999928 ], [ 112.174109410000028, -7.679378779999979 ], [ 112.174342170000045, -7.679170339999928 ], [ 112.174342260000117, -7.679170389999967 ], [ 112.174375460000078, -7.679188839999938 ], [ 112.174401360000047, -7.67920732999994 ], [ 112.174445750000018, -7.679255419999947 ], [ 112.174519730000043, -7.679340499999967 ], [ 112.174564120000014, -7.679381189999958 ], [ 112.1746270000001, -7.679429279999965 ], [ 112.17467879000003, -7.679510659999949 ], [ 112.174749070000075, -7.67955134999994 ], [ 112.174789760000067, -7.679606829999955 ], [ 112.174848950000069, -7.679677119999951 ], [ 112.17488964000006, -7.679706709999948 ], [ 112.175015410000015, -7.679725209999958 ], [ 112.175093090000018, -7.67976589999995 ], [ 112.17513378000001, -7.679776989999937 ], [ 112.175241050000068, -7.67974739999994 ], [ 112.17532613000003, -7.679695609999953 ], [ 112.175396420000084, -7.67963272999998 ], [ 112.175485190000018, -7.679610529999934 ], [ 112.175536980000061, -7.679584639999973 ], [ 112.175585070000011, -7.679584639999973 ], [ 112.17573488000005, -7.679623479999975 ], [ 112.175834760000043, -7.679490309999949 ], [ 112.175897640000017, -7.67939967999996 ], [ 112.176199120000092, -7.67931090999997 ], [ 112.176286050000044, -7.679277609999929 ], [ 112.176363730000048, -7.679114849999962 ], [ 112.176559780000048, -7.678737549999937 ], [ 112.176925990000086, -7.678134589999956 ], [ 112.177105400000073, -7.678199329999927 ], [ 112.177153490000023, -7.678193779999958 ], [ 112.177249670000037, -7.678182679999964 ], [ 112.177307, -7.678182679999964 ], [ 112.177406880000035, -7.678219669999976 ], [ 112.177516, -7.678288099999975 ], [ 112.177558540000064, -7.678328799999974 ], [ 112.177599230000055, -7.678382429999942 ], [ 112.177641770000037, -7.678413869999929 ], [ 112.177697260000059, -7.678460109999946 ], [ 112.177778640000042, -7.678511899999933 ], [ 112.177835970000046, -7.678530399999943 ], [ 112.178041270000108, -7.678478609999956 ], [ 112.178115260000027, -7.678339889999961 ], [ 112.17813005000005, -7.678293649999944 ], [ 112.178154100000029, -7.678265909999936 ], [ 112.178204030000074, -7.678217819999929 ], [ 112.178287260000047, -7.67812349999997 ], [ 112.178329800000029, -7.678053209999973 ], [ 112.17849071, -7.677781329999959 ], [ 112.178668270000117, -7.677463209999928 ], [ 112.178697860000057, -7.677404019999926 ], [ 112.178753350000079, -7.677248659999975 ], [ 112.178812540000081, -7.677161729999966 ], [ 112.178849530000093, -7.677141379999966 ], [ 112.178869870000085, -7.677148779999925 ], [ 112.178901310000015, -7.677185769999937 ], [ 112.178921660000015, -7.677202419999958 ], [ 112.178960500000017, -7.677233859999944 ], [ 112.179017840000029, -7.677272699999946 ], [ 112.179052980000051, -7.677283799999941 ], [ 112.179078870000012, -7.677252359999954 ], [ 112.179110310000056, -7.677196869999932 ], [ 112.179176900000016, -7.677004519999969 ], [ 112.179308210000045, -7.676651249999964 ], [ 112.179385900000057, -7.676433009999926 ], [ 112.179470970000011, -7.676240649999954 ], [ 112.179715120000083, -7.676340529999948 ], [ 112.179833490000078, -7.676366419999965 ], [ 112.180055430000039, -7.676414509999972 ], [ 112.180269980000048, -7.676466299999959 ], [ 112.180547410000031, -7.676547679999942 ], [ 112.180869230000098, -7.676625359999946 ], [ 112.180865540000013, -7.676777019999975 ], [ 112.181028300000094, -7.676839909999956 ], [ 112.181146670000089, -7.67689538999997 ], [ 112.181209550000062, -7.676936079999962 ], [ 112.181265040000085, -7.676973069999974 ], [ 112.181379710000101, -7.677013759999966 ], [ 112.181512880000014, -7.677069249999931 ], [ 112.181657140000084, -7.677098839999928 ], [ 112.1818273, -7.677128439999933 ], [ 112.182019660000037, -7.67715802999993 ], [ 112.182112130000064, -7.677161729999966 ], [ 112.18211253000004, -7.677158559999953 ], [ 112.182112698000083, -7.67715721299993 ] ] ] ] } },
{ "type": "Feature", "properties": { "fid": 6805, "kk": null, "gid": 0.0, "bstt": null, "luas": 92874.226104194706, "bsbtt": null, "idsls": "35061500041002", "kdkab": "06", "kdkec": "150", "kdsls": "1002", "nmkab": "KEDIRI", "nmkec": "KUNJANG", "nmsls": "PERSAWAHAN TAMBAK REJO 2", "bstt_k": null, "kddesa": "004", "kdprov": "35", "khusus": null, "muatan": null, "nmdesa": "WONOREJO", "nmprov": "JAWA TIMUR", "posisi": null, "rw_dki": null, "segmen": null, "subsls": null, "sumber": null, "dom_sls": null, "periode": "2025_1", "tingkat": null, "idsubsls": "3506150004100200", "nm_gedung": null, "wil_campur": null, "iddesa": "3506150004", "kdsubsls": "00" }, "geometry": { "type": "MultiPolygon", "coordinates": [ [ [ [ 112.184604758000091, -7.671331820999967 ], [ 112.184664137000027, -7.671362830999954 ], [ 112.1842541420001, -7.672338515999968 ], [ 112.183963503000086, -7.672940553999979 ], [ 112.183788557000071, -7.673271867999972 ], [ 112.183377035000035, -7.674051209999959 ], [ 112.183334368000033, -7.674229405999938 ], [ 112.183200576000104, -7.674788186999933 ], [ 112.183185006000031, -7.674923125999953 ], [ 112.183185006000031, -7.675141105999955 ], [ 112.18312610800001, -7.675229453999975 ], [ 112.183125401000098, -7.675232583999957 ], [ 112.183121915000015, -7.675235742999973 ], [ 112.183108069000014, -7.675248289999956 ], [ 112.183079808000116, -7.675296439999954 ], [ 112.183001303000083, -7.675325747999977 ], [ 112.182772068000077, -7.675969488999954 ], [ 112.182773639000061, -7.675977862999957 ], [ 112.182822835000024, -7.675996703999942 ], [ 112.18298762400002, -7.676060359999951 ], [ 112.182779406, -7.676861801999962 ], [ 112.182467763000091, -7.67806133199997 ], [ 112.182466171000101, -7.678060864999964 ], [ 112.182397009000056, -7.678040590999956 ], [ 112.1823507040001, -7.678027016999977 ], [ 112.182296340000107, -7.678011079999976 ], [ 112.182297310000081, -7.67802402999996 ], [ 112.182311130000016, -7.678207129999976 ], [ 112.182263221000085, -7.678209046999939 ], [ 112.182196720000093, -7.677168441999981 ], [ 112.182119519000025, -7.67716130499997 ], [ 112.182112698000083, -7.67715721299993 ], [ 112.182115830000043, -7.677132139999969 ], [ 112.182105360000037, -7.675899579999964 ], [ 112.182104730000106, -7.675826349999966 ], [ 112.182112130000064, -7.675304779999976 ], [ 112.182126930000095, -7.674394799999959 ], [ 112.182153786000072, -7.674320430999956 ], [ 112.182175020000045, -7.674261629999933 ], [ 112.182176280000022, -7.674256769999943 ], [ 112.182537530000104, -7.672859679999931 ], [ 112.182617187, -7.672604555999953 ], [ 112.182643066000082, -7.672521672999949 ], [ 112.182692340000017, -7.672363859999962 ], [ 112.182811260000108, -7.671982989999947 ], [ 112.182933330000083, -7.671772139999973 ], [ 112.183070200000088, -7.671328249999931 ], [ 112.183142914000086, -7.670824245999938 ], [ 112.183177241000067, -7.670586316999959 ], [ 112.184313945000099, -7.671179946999928 ], [ 112.184604758000091, -7.671331820999967 ] ] ] ] } },
{ "type": "Feature", "properties": { "fid": 6806, "kk": null, "gid": 0.0, "bstt": null, "luas": 164397.03428846333, "bsbtt": null, "idsls": "35061500041003", "kdkab": "06", "kdkec": "150", "kdsls": "1003", "nmkab": "KEDIRI", "nmkec": "KUNJANG", "nmsls": "PERSAWAHAN WONOREJO (SAWAH KULON OMAH)", "bstt_k": null, "kddesa": "004", "kdprov": "35", "khusus": null, "muatan": null, "nmdesa": "WONOREJO", "nmprov": "JAWA TIMUR", "posisi": null, "rw_dki": null, "segmen": null, "subsls": null, "sumber": null, "dom_sls": null, "periode": "2025_1", "tingkat": null, "idsubsls": "3506150004100300", "nm_gedung": null, "wil_campur": null, "iddesa": "3506150004", "kdsubsls": "00" }, "geometry": { "type": "MultiPolygon", "coordinates": [ [ [ [ 112.183455596000044, -7.666754619999949 ], [ 112.183455844000036, -7.666754813999944 ], [ 112.183437774000026, -7.666767720999928 ], [ 112.183318405000023, -7.666946774999928 ], [ 112.183193845, -7.667112853999981 ], [ 112.183108211000103, -7.667286718999947 ], [ 112.183123781000063, -7.667463177999934 ], [ 112.183256125000071, -7.66772008199996 ], [ 112.183197216000053, -7.667968525999981 ], [ 112.183194818000061, -7.667967092999959 ], [ 112.183018359000016, -7.668449760999977 ], [ 112.182932724000011, -7.668924643999958 ], [ 112.182857470000044, -7.669301566999934 ], [ 112.182857776000105, -7.669303963999937 ], [ 112.182826897000041, -7.669720819999952 ], [ 112.182811328000071, -7.669967343999929 ], [ 112.182858037000074, -7.670133422999982 ], [ 112.183072029000073, -7.670535726999958 ], [ 112.183101530000044, -7.670545799999957 ], [ 112.183107190000101, -7.670547739999961 ], [ 112.183173360000069, -7.670582569999965 ], [ 112.183177470000032, -7.670584729999973 ], [ 112.183177241000067, -7.670586316999959 ], [ 112.183142914000086, -7.670824245999938 ], [ 112.182630749000054, -7.670671220999964 ], [ 112.182292520000033, -7.670477946999938 ], [ 112.182291123000027, -7.670475504999956 ], [ 112.181854461000057, -7.670350744999951 ], [ 112.181888306000019, -7.670236617999933 ], [ 112.18176977600001, -7.670194971999933 ], [ 112.18161280400011, -7.670153325999934 ], [ 112.180744651000055, -7.67004280499998 ], [ 112.180543429000068, -7.670016414999964 ], [ 112.180730250000011, -7.669177652999963 ], [ 112.180845340000019, -7.66921091599994 ], [ 112.180896520000033, -7.668860019999954 ], [ 112.18103708000001, -7.668427229999963 ], [ 112.181070370000043, -7.66804991999993 ], [ 112.181044480000082, -7.66779097999995 ], [ 112.181014890000029, -7.667717 ], [ 112.180866920000085, -7.667643019999957 ], [ 112.18079664000004, -7.667569039999933 ], [ 112.180741150000017, -7.667491359999929 ], [ 112.180667170000106, -7.667398879999951 ], [ 112.180607761000033, -7.667353331999948 ], [ 112.180556200000069, -7.667313799999931 ], [ 112.180415630000084, -7.667243519999943 ], [ 112.180415630000084, -7.667147339999929 ], [ 112.180378640000072, -7.667014169999959 ], [ 112.180334250000101, -7.666918 ], [ 112.180252870000118, -7.66686250999993 ], [ 112.18019369000001, -7.666836609999962 ], [ 112.18005682, -7.666840319999949 ], [ 112.179979140000114, -7.66679591999997 ], [ 112.179897760000017, -7.666684949999933 ], [ 112.179816380000034, -7.66660356999995 ], [ 112.179698010000038, -7.666529589999925 ], [ 112.179568540000105, -7.666488899999933 ], [ 112.179424270000027, -7.666466699999944 ], [ 112.179169500000057, -7.666423277999968 ], [ 112.179747698000028, -7.664972797999951 ], [ 112.179929348000087, -7.665024697999968 ], [ 112.179991627000049, -7.664708108999946 ], [ 112.180391256, -7.664858618999972 ], [ 112.180598488000101, -7.66452602399994 ], [ 112.183455596000044, -7.666754619999949 ] ] ] ] } },
{ "type": "Feature", "properties": { "fid": 6807, "kk": null, "gid": 0.0, "bstt": null, "luas": 107950.12077339896, "bsbtt": null, "idsls": "35061500041004", "kdkab": "06", "kdkec": "150", "kdsls": "1004", "nmkab": "KEDIRI", "nmkec": "KUNJANG", "nmsls": "PERSAWAHAN WONOREJO (KULON KALI)", "bstt_k": null, "kddesa": "004", "kdprov": "35", "khusus": null, "muatan": null, "nmdesa": "WONOREJO", "nmprov": "JAWA TIMUR", "posisi": null, "rw_dki": null, "segmen": null, "subsls": null, "sumber": null, "dom_sls": null, "periode": "2025_1", "tingkat": null, "idsubsls": "3506150004100400", "nm_gedung": null, "wil_campur": null, "iddesa": "3506150004", "kdsubsls": "00" }, "geometry": { "type": "MultiPolygon", "coordinates": [ [ [ [ 112.18192134800006, -7.661731452999959 ], [ 112.182057770000029, -7.661749449999945 ], [ 112.182366680000086, -7.661790179999969 ], [ 112.182723640000063, -7.66183456999994 ], [ 112.18312499000001, -7.661899309999967 ], [ 112.183315500000049, -7.661932599999943 ], [ 112.183650440000065, -7.662020119999966 ], [ 112.18365433200006, -7.662021136999954 ], [ 112.183636940000042, -7.662086357999954 ], [ 112.183626560000107, -7.662120092999942 ], [ 112.183540925000102, -7.662236867999979 ], [ 112.183437126000058, -7.662382186999935 ], [ 112.183364466000057, -7.662530101999948 ], [ 112.183335921000094, -7.662678015999973 ], [ 112.183393011000021, -7.662890804999961 ], [ 112.183460481000111, -7.663103593999949 ], [ 112.183434531000103, -7.663259293999943 ], [ 112.183351491000053, -7.663544742999932 ], [ 112.183206172000041, -7.663861331999954 ], [ 112.183154272000024, -7.663882091999938 ], [ 112.183107562000032, -7.664229819999946 ], [ 112.183143892000089, -7.664344 ], [ 112.183211361000076, -7.664515268999935 ], [ 112.183226931000036, -7.664608688999976 ], [ 112.183237311000084, -7.664899327999933 ], [ 112.1832165510001, -7.665101736999929 ], [ 112.18331516100011, -7.665288575999966 ], [ 112.183507190000114, -7.665475415999936 ], [ 112.183699220000108, -7.66565187499998 ], [ 112.183745929000111, -7.665776433999952 ], [ 112.183782259000054, -7.665989223999929 ], [ 112.183813399000087, -7.666113782999957 ], [ 112.183813399000087, -7.666279862999943 ], [ 112.18377706900003, -7.666404421999971 ], [ 112.183568173000026, -7.666663271999937 ], [ 112.183455596000044, -7.666754619999949 ], [ 112.180598488000101, -7.66452602399994 ], [ 112.180811644000073, -7.66418392099996 ], [ 112.181014053000013, -7.663685682999926 ], [ 112.181265041000074, -7.663239752999971 ], [ 112.181499213000052, -7.662823699999933 ], [ 112.181499243000076, -7.66282371099993 ], [ 112.181581136000091, -7.662854892999974 ], [ 112.181596340000056, -7.662812059999965 ], [ 112.181812740000055, -7.662094429999968 ], [ 112.181913580000014, -7.661756839999953 ], [ 112.18192117000001, -7.661731429999975 ], [ 112.18192134800006, -7.661731452999959 ] ] ] ] } },
{ "type": "Feature", "properties": { "fid": 6808, "kk": null, "gid": 0.0, "bstt": null, "luas": 525048.97438473313, "bsbtt": null, "idsls": "35061500041005", "kdkab": "06", "kdkec": "150", "kdsls": "1005", "nmkab": "KEDIRI", "nmkec": "KUNJANG", "nmsls": "PERSAWAHAN MUJUR NGALOR", "bstt_k": null, "kddesa": "004", "kdprov": "35", "khusus": null, "muatan": null, "nmdesa": "WONOREJO", "nmprov": "JAWA TIMUR", "posisi": null, "rw_dki": null, "segmen": null, "subsls": null, "sumber": null, "dom_sls": null, "periode": "2025_1", "tingkat": null, "idsubsls": "3506150004100500", "nm_gedung": null, "wil_campur": null, "iddesa": "3506150004", "kdsubsls": "00" }, "geometry": { "type": "MultiPolygon", "coordinates": [ [ [ [ 112.184110335000014, -7.659967891999941 ], [ 112.184339220000084, -7.660066399999948 ], [ 112.184561170000052, -7.660173669999949 ], [ 112.184657340000058, -7.66025505999994 ], [ 112.184797910000043, -7.66031793999997 ], [ 112.184864490000109, -7.660362329999941 ], [ 112.18497917000002, -7.660380819999943 ], [ 112.185071650000054, -7.660380819999943 ], [ 112.185271400000033, -7.66043260999993 ], [ 112.185319480000089, -7.660454809999976 ], [ 112.185423060000062, -7.660539889999939 ], [ 112.185552530000109, -7.660595369999953 ], [ 112.185722690000034, -7.660636059999945 ], [ 112.185874350000063, -7.660632359999966 ], [ 112.186181370000099, -7.660713739999949 ], [ 112.186499500000082, -7.660798819999968 ], [ 112.18648840000003, -7.660887599999967 ], [ 112.186606770000026, -7.660883899999931 ], [ 112.186691850000102, -7.660909799999956 ], [ 112.186799120000046, -7.660946789999969 ], [ 112.18694339000001, -7.660935689999974 ], [ 112.187000850000118, -7.66069865999998 ], [ 112.187002570000118, -7.660691549999967 ], [ 112.187102450000111, -7.660676749999936 ], [ 112.18713549000006, -7.660677379999981 ], [ 112.187241870000094, -7.660679409999943 ], [ 112.18729665, -7.660680449999973 ], [ 112.187405780000063, -7.660650859999976 ], [ 112.187444580000033, -7.660643799999946 ], [ 112.187607110000044, -7.660745729999974 ], [ 112.187958520000052, -7.660963979999963 ], [ 112.188187870000093, -7.661069399999974 ], [ 112.18818852000004, -7.661071209999932 ], [ 112.18818766000004, -7.661074479999968 ], [ 112.188184890000116, -7.661068679999971 ], [ 112.187863070000049, -7.662072989999956 ], [ 112.187783540000055, -7.662331919999929 ], [ 112.187681810000072, -7.662707379999972 ], [ 112.18780568000011, -7.662738809999951 ], [ 112.187805650000087, -7.662738959999956 ], [ 112.188328990000059, -7.66298084999994 ], [ 112.187882280000053, -7.665241619999961 ], [ 112.187877750000098, -7.665238759999966 ], [ 112.187868620000017, -7.665330039999958 ], [ 112.187592100000074, -7.665200609999943 ], [ 112.187520900000095, -7.665167279999935 ], [ 112.187548650000053, -7.665526099999965 ], [ 112.187650370000028, -7.665722149999965 ], [ 112.187741, -7.665870109999958 ], [ 112.187977740000065, -7.666230779999978 ], [ 112.188140500000031, -7.666434229999936 ], [ 112.18855480000002, -7.666565539999965 ], [ 112.190188700000022, -7.667068279999967 ], [ 112.190189706000069, -7.667068590999975 ], [ 112.190189800000098, -7.667068619999952 ], [ 112.190126920000012, -7.667664179999974 ], [ 112.190085840000052, -7.668157089999966 ], [ 112.190041840000049, -7.668685129999972 ], [ 112.190087530000028, -7.668957349999971 ], [ 112.19007962, -7.66906806999998 ], [ 112.190119620000019, -7.669438069999956 ], [ 112.190144080000096, -7.669721429999981 ], [ 112.190140426000085, -7.669720820999942 ], [ 112.189932720000115, -7.669686199999944 ], [ 112.18992843, -7.669715389999965 ], [ 112.189798960000076, -7.670381219999967 ], [ 112.189777560000039, -7.670462239999949 ], [ 112.189747170000032, -7.670577279999975 ], [ 112.189584410000066, -7.671109949999959 ], [ 112.189474960000098, -7.671405469999968 ], [ 112.189473572000111, -7.671409213999937 ], [ 112.189342350000061, -7.67129257299996 ], [ 112.188556068000025, -7.670685344999981 ], [ 112.187979980000023, -7.670236411999952 ], [ 112.187528452000038, -7.66987570799995 ], [ 112.186825210000052, -7.669359304999944 ], [ 112.186529236000069, -7.669113053999979 ], [ 112.186675025000113, -7.668537503999971 ], [ 112.186296156000026, -7.668246864999958 ], [ 112.186156027000038, -7.66882295299996 ], [ 112.185278920000087, -7.668148255999938 ], [ 112.18539829000008, -7.66735418899998 ], [ 112.184905241000024, -7.667214058999946 ], [ 112.184905223000101, -7.667214853999951 ], [ 112.184852044000081, -7.667185513999925 ], [ 112.18460811500006, -7.667169943999966 ], [ 112.18458476, -7.66704797999995 ], [ 112.184301906000087, -7.667029814999978 ], [ 112.184291526000038, -7.667385327999966 ], [ 112.183455939000055, -7.666754745999981 ], [ 112.183455844000036, -7.666754813999944 ], [ 112.183455596000044, -7.666754619999949 ], [ 112.183568173000026, -7.666663271999937 ], [ 112.18377706900003, -7.666404421999971 ], [ 112.183813399000087, -7.666279862999943 ], [ 112.183813399000087, -7.666113782999957 ], [ 112.183782259000054, -7.665989223999929 ], [ 112.183745929000111, -7.665776433999952 ], [ 112.183699220000108, -7.66565187499998 ], [ 112.183507190000114, -7.665475415999936 ], [ 112.18331516100011, -7.665288575999966 ], [ 112.1832165510001, -7.665101736999929 ], [ 112.183237311000084, -7.664899327999933 ], [ 112.183226931000036, -7.664608688999976 ], [ 112.183211361000076, -7.664515268999935 ], [ 112.183143892000089, -7.664344 ], [ 112.183107562000032, -7.664229819999946 ], [ 112.183154272000024, -7.663882091999938 ], [ 112.183206172000041, -7.663861331999954 ], [ 112.183351491000053, -7.663544742999932 ], [ 112.183434531000103, -7.663259293999943 ], [ 112.183460481000111, -7.663103593999949 ], [ 112.183393011000021, -7.662890804999961 ], [ 112.183335921000094, -7.662678015999973 ], [ 112.183364466000057, -7.662530101999948 ], [ 112.183437126000058, -7.662382186999935 ], [ 112.183540925000102, -7.662236867999979 ], [ 112.183626560000107, -7.662120092999942 ], [ 112.183636940000042, -7.662086357999954 ], [ 112.18365433200006, -7.662021136999954 ], [ 112.183683560000077, -7.662028769999949 ], [ 112.183779730000083, -7.661866009999926 ], [ 112.183851870000012, -7.661731 ], [ 112.183896250000089, -7.661586729999954 ], [ 112.183883310000056, -7.661446169999977 ], [ 112.183824120000054, -7.66129264999995 ], [ 112.18371685000011, -7.661159489999932 ], [ 112.18361402000005, -7.661048379999954 ], [ 112.183659620000071, -7.660948069999961 ], [ 112.183890800000086, -7.660503499999948 ], [ 112.183919620000097, -7.660448079999981 ], [ 112.184104010000055, -7.659965169999964 ], [ 112.184110335000014, -7.659967891999941 ] ] ] ] } },
{ "type": "Feature", "properties": { "fid": 6809, "kk": null, "gid": 0.0, "bstt": null, "luas": 26448.871495026255, "bsbtt": null, "idsls": "35061500040001", "kdkab": "06", "kdkec": "150", "kdsls": "0001", "nmkab": "KEDIRI", "nmkec": "KUNJANG", "nmsls": "RT 001 RW 001 DUSUN WONOREJO", "bstt_k": null, "kddesa": "004", "kdprov": "35", "khusus": null, "muatan": null, "nmdesa": "WONOREJO", "nmprov": "JAWA TIMUR", "posisi": null, "rw_dki": null, "segmen": null, "subsls": null, "sumber": null, "dom_sls": null, "periode": "2025_1", "tingkat": null, "idsubsls": "3506150004000100", "nm_gedung": null, "wil_campur": null, "iddesa": "3506150004", "kdsubsls": "00" }, "geometry": { "type": "MultiPolygon", "coordinates": [ [ [ [ 112.184665521000056, -7.668364118999932 ], [ 112.184567788000095, -7.668592455999942 ], [ 112.184511882000038, -7.668628794999961 ], [ 112.18427044200007, -7.66857691499996 ], [ 112.18411474200002, -7.668509445999973 ], [ 112.183985784000015, -7.668509445999973 ], [ 112.184000563000041, -7.668475710999928 ], [ 112.183672297000044, -7.668252541999948 ], [ 112.183197216000053, -7.667968525999981 ], [ 112.183256125000071, -7.66772008199996 ], [ 112.183123781000063, -7.667463177999934 ], [ 112.183108211000103, -7.667286718999947 ], [ 112.183193845, -7.667112853999981 ], [ 112.183318405000023, -7.666946774999928 ], [ 112.183437774000026, -7.666767720999928 ], [ 112.183455844000036, -7.666754813999944 ], [ 112.183455939000055, -7.666754745999981 ], [ 112.184291526000038, -7.667385327999966 ], [ 112.184301906000087, -7.667029814999978 ], [ 112.18458476, -7.66704797999995 ], [ 112.18460811500006, -7.667169943999966 ], [ 112.184852044000081, -7.667185513999925 ], [ 112.184905223000101, -7.667214853999951 ], [ 112.18489159100011, -7.667796455999962 ], [ 112.184665467000059, -7.668364074999943 ], [ 112.184665521000056, -7.668364118999932 ] ] ] ] } },
{ "type": "Feature", "properties": { "fid": 6810, "kk": null, "gid": 0.0, "bstt": null, "luas": 8445.4365771542361, "bsbtt": null, "idsls": "35061500040010", "kdkab": "06", "kdkec": "150", "kdsls": "0010", "nmkab": "KEDIRI", "nmkec": "KUNJANG", "nmsls": "RT 004 RW 002 DUSUN WONOREJO", "bstt_k": null, "kddesa": "004", "kdprov": "35", "khusus": null, "muatan": null, "nmdesa": "WONOREJO", "nmprov": "JAWA TIMUR", "posisi": null, "rw_dki": null, "segmen": null, "subsls": null, "sumber": null, "dom_sls": null, "periode": "2025_1", "tingkat": null, "idsubsls": "3506150004001000", "nm_gedung": null, "wil_campur": null, "iddesa": "3506150004", "kdsubsls": "00" }, "geometry": { "type": "MultiPolygon", "coordinates": [ [ [ [ 112.187404699000012, -7.670470290999958 ], [ 112.187617979000038, -7.670503695999969 ], [ 112.18785152800001, -7.670495910999932 ], [ 112.188077293000106, -7.670563380999965 ], [ 112.188174511000057, -7.670635014999959 ], [ 112.188175902000012, -7.670636039999977 ], [ 112.188043667000102, -7.670893762999981 ], [ 112.188074530000108, -7.670910270999968 ], [ 112.187937321000049, -7.671148261999974 ], [ 112.187991055000111, -7.671204898999974 ], [ 112.187857672000064, -7.67141074999995 ], [ 112.187834892000069, -7.671402571999977 ], [ 112.187796932000083, -7.67152426499996 ], [ 112.187776584000062, -7.67155113299998 ], [ 112.187433735000013, -7.671367827999973 ], [ 112.187210845000095, -7.671265567999967 ], [ 112.187125288000061, -7.671226314999956 ], [ 112.187319528000103, -7.670821 ], [ 112.187318581000113, -7.670820612999933 ], [ 112.187404699000012, -7.670470290999958 ] ] ] ] } }
]
}
