{
"type": "FeatureCollection",
"name": "iddesa_3506150003",
"crs": { "type": "name", "properties": { "name": "urn:ogc:def:crs:OGC:1.3:CRS84" } },
"features": [
{ "type": "Feature", "properties": { "fid": 6757, "kk": null, "gid": 0.0, "bstt": null, "luas": 12248.053921912622, "bsbtt": null, "idsls": "35061500030004", "kdkab": "06", "kdkec": "150", "kdsls": "0004", "nmkab": "KEDIRI", "nmkec": "KUNJANG", "nmsls": "RT 002 RW 002 DUSUN WANGKAL", "bstt_k": null, "kddesa": "003", "kdprov": "35", "khusus": null, "muatan": null, "nmdesa": "TENGGERLOR", "nmprov": "JAWA TIMUR", "posisi": null, "rw_dki": null, "segmen": null, "subsls": null, "sumber": null, "dom_sls": null, "periode": "2025_1", "tingkat": null, "idsubsls": "3506150003000400", "nm_gedung": null, "wil_campur": null, "iddesa": "3506150003", "kdsubsls": "00" }, "geometry": { "type": "MultiPolygon", "coordinates": [ [ [ [ 112.171844232000012, -7.658620369999937 ], [ 112.171988390000024, -7.658672299999978 ], [ 112.172044269000025, -7.658690925999963 ], [ 112.171956982000097, -7.659178707999956 ], [ 112.171828841000092, -7.65941897099998 ], [ 112.17168468300008, -7.660130151999965 ], [ 112.17213378800011, -7.660228735999965 ], [ 112.17210310400003, -7.660389127999963 ], [ 112.171889796000073, -7.660328182999933 ], [ 112.171742553000058, -7.660358742999961 ], [ 112.171099033000019, -7.660173730999929 ], [ 112.171185128000047, -7.659815 ], [ 112.171262033000062, -7.659494563999942 ], [ 112.171353429000078, -7.659207997999943 ], [ 112.171570059000032, -7.658528772999944 ], [ 112.171570768000038, -7.658526550999966 ], [ 112.171573355000078, -7.658527381999932 ], [ 112.171607157000039, -7.65853823499998 ], [ 112.171690610000041, -7.658565029999977 ], [ 112.171844232000012, -7.658620369999937 ] ] ] ] } },
{ "type": "Feature", "properties": { "fid": 6758, "kk": null, "gid": 0.0, "bstt": null, "luas": 28660.506857998549, "bsbtt": null, "idsls": "35061500030005", "kdkab": "06", "kdkec": "150", "kdsls": "0005", "nmkab": "KEDIRI", "nmkec": "KUNJANG", "nmsls": "RT 001 RW 001 DUSUN BABADAN", "bstt_k": null, "kddesa": "003", "kdprov": "35", "khusus": null, "muatan": null, "nmdesa": "TENGGERLOR", "nmprov": "JAWA TIMUR", "posisi": null, "rw_dki": null, "segmen": null, "subsls": null, "sumber": null, "dom_sls": null, "periode": "2025_1", "tingkat": null, "idsubsls": "3506150003000500", "nm_gedung": null, "wil_campur": null, "iddesa": "3506150003", "kdsubsls": "00" }, "geometry": { "type": "MultiPolygon", "coordinates": [ [ [ [ 112.178594310000108, -7.649471170999959 ], [ 112.178535855000064, -7.649613133999935 ], [ 112.17874921900011, -7.649688742999956 ], [ 112.178546382000036, -7.650291151999966 ], [ 112.178546213000118, -7.650291654999933 ], [ 112.17530745900001, -7.648891717999959 ], [ 112.175422785000023, -7.648590587999934 ], [ 112.175420614000018, -7.648589756999968 ], [ 112.175506685000073, -7.648359110999934 ], [ 112.175767564000012, -7.648502740999959 ], [ 112.176036659000033, -7.648602049999965 ], [ 112.176424284000063, -7.648714172999973 ], [ 112.176574850000065, -7.648733393999976 ], [ 112.176575960000037, -7.648730249999971 ], [ 112.176800297000113, -7.648784399999954 ], [ 112.176928438, -7.648848470999951 ], [ 112.17724251900006, -7.648992088999933 ], [ 112.177275604000101, -7.648918283999933 ], [ 112.177403399000013, -7.648962734999941 ], [ 112.17739907400005, -7.649049244999958 ], [ 112.177543513000046, -7.649093539999967 ], [ 112.177613990000054, -7.649109556999974 ], [ 112.177662043000055, -7.649151202999974 ], [ 112.177764555000067, -7.649180034999972 ], [ 112.17792152800007, -7.649224883999977 ], [ 112.177969580000081, -7.649218476999977 ], [ 112.178059279000081, -7.649260122999976 ], [ 112.178389241000104, -7.649353023999936 ], [ 112.178421276000108, -7.649378652999928 ], [ 112.178491753000117, -7.649397873999931 ], [ 112.178501364000113, -7.649436315999935 ], [ 112.178594310000108, -7.649471170999959 ] ] ] ] } },
{ "type": "Feature", "properties": { "fid": 6759, "kk": null, "gid": 0.0, "bstt": null, "luas": 28082.367577168756, "bsbtt": null, "idsls": "35061500030001", "kdkab": "06", "kdkec": "150", "kdsls": "0001", "nmkab": "KEDIRI", "nmkec": "KUNJANG", "nmsls": "RT 001 RW 001 DUSUN WANGKAL", "bstt_k": null, "kddesa": "003", "kdprov": "35", "khusus": null, "muatan": null, "nmdesa": "TENGGERLOR", "nmprov": "JAWA TIMUR", "posisi": null, "rw_dki": null, "segmen": null, "subsls": null, "sumber": null, "dom_sls": null, "periode": "2025_1", "tingkat": null, "idsubsls": "3506150003000100", "nm_gedung": null, "wil_campur": null, "iddesa": "3506150003", "kdsubsls": "00" }, "geometry": { "type": "MultiPolygon", "coordinates": [ [ [ [ 112.171099033000019, -7.660173730999929 ], [ 112.171742553000058, -7.660358742999961 ], [ 112.171889796000073, -7.660328182999933 ], [ 112.17210310400003, -7.660389127999963 ], [ 112.172095406000039, -7.660429367999939 ], [ 112.172644937000086, -7.660611479999943 ], [ 112.172667362000084, -7.660473728999932 ], [ 112.172808533000079, -7.659614421999947 ], [ 112.172814723000101, -7.659576743999935 ], [ 112.172847521000108, -7.659585854999932 ], [ 112.173160703, -7.659672849999936 ], [ 112.172917236000103, -7.660441693999928 ], [ 112.173458630000027, -7.660643514999947 ], [ 112.173410577000027, -7.660797283999955 ], [ 112.17331126800002, -7.660768451999957 ], [ 112.173120441000037, -7.661442502999932 ], [ 112.17311734000009, -7.66144130999993 ], [ 112.17286243, -7.661343149999936 ], [ 112.172506880000014, -7.661206249999964 ], [ 112.172502660000077, -7.661206689999972 ], [ 112.172503650000067, -7.661203929999942 ], [ 112.172499709000022, -7.661202356999979 ], [ 112.171977540000057, -7.660993879999978 ], [ 112.171715880000079, -7.660889399999974 ], [ 112.17168799, -7.660959789999936 ], [ 112.171687540000107, -7.660959969999965 ], [ 112.171686260000115, -7.660959469999966 ], [ 112.171611240000061, -7.661123479999958 ], [ 112.171631580000053, -7.66114196999996 ], [ 112.17162049, -7.661171569999965 ], [ 112.171659330000011, -7.661195609999936 ], [ 112.171518760000026, -7.661572919999969 ], [ 112.171502605000114, -7.661567074999937 ], [ 112.170714110000063, -7.661281806999966 ], [ 112.170985516000087, -7.660646718999942 ], [ 112.171005212000068, -7.660564651999948 ], [ 112.171099033000019, -7.660173730999929 ] ] ] ] } },
{ "type": "Feature", "properties": { "fid": 6760, "kk": null, "gid": 0.0, "bstt": null, "luas": 6384.5185632495268, "bsbtt": null, "idsls": "35061500030002", "kdkab": "06", "kdkec": "150", "kdsls": "0002", "nmkab": "KEDIRI", "nmkec": "KUNJANG", "nmsls": "RT 002 RW 001 DUSUN WANGKAL", "bstt_k": null, "kddesa": "003", "kdprov": "35", "khusus": null, "muatan": null, "nmdesa": "TENGGERLOR", "nmprov": "JAWA TIMUR", "posisi": null, "rw_dki": null, "segmen": null, "subsls": null, "sumber": null, "dom_sls": null, "periode": "2025_1", "tingkat": null, "idsubsls": "3506150003000200", "nm_gedung": null, "wil_campur": null, "iddesa": "3506150003", "kdsubsls": "00" }, "geometry": { "type": "MultiPolygon", "coordinates": [ [ [ [ 112.172249576000013, -7.65962628099993 ], [ 112.17242925700009, -7.659657508999942 ], [ 112.172452233000058, -7.659546457999966 ], [ 112.172808533000079, -7.659614421999947 ], [ 112.172667362000084, -7.660473728999932 ], [ 112.172644937000086, -7.660611479999943 ], [ 112.172095406000039, -7.660429367999939 ], [ 112.17210310400003, -7.660389127999963 ], [ 112.17213378800011, -7.660228735999965 ], [ 112.172236446000056, -7.659692112999949 ], [ 112.172237507000091, -7.659692289999953 ], [ 112.172249576000013, -7.65962628099993 ] ] ] ] } },
{ "type": "Feature", "properties": { "fid": 6761, "kk": null, "gid": 0.0, "bstt": null, "luas": 12807.878180830594, "bsbtt": null, "idsls": "35061500030003", "kdkab": "06", "kdkec": "150", "kdsls": "0003", "nmkab": "KEDIRI", "nmkec": "KUNJANG", "nmsls": "RT 001 RW 002 DUSUN WANGKAL", "bstt_k": null, "kddesa": "003", "kdprov": "35", "khusus": null, "muatan": null, "nmdesa": "TENGGERLOR", "nmprov": "JAWA TIMUR", "posisi": null, "rw_dki": null, "segmen": null, "subsls": null, "sumber": null, "dom_sls": null, "periode": "2025_1", "tingkat": null, "idsubsls": "3506150003000300", "nm_gedung": null, "wil_campur": null, "iddesa": "3506150003", "kdsubsls": "00" }, "geometry": { "type": "MultiPolygon", "coordinates": [ [ [ [ 112.17242925700009, -7.659657508999942 ], [ 112.172249576000013, -7.65962628099993 ], [ 112.172237507000091, -7.659692289999953 ], [ 112.172236446000056, -7.659692112999949 ], [ 112.17213378800011, -7.660228735999965 ], [ 112.17168468300008, -7.660130151999965 ], [ 112.171828841000092, -7.65941897099998 ], [ 112.171956982000097, -7.659178707999956 ], [ 112.172044269000025, -7.658690925999963 ], [ 112.172343500000011, -7.658790669999973 ], [ 112.17248222, -7.658829509999975 ], [ 112.172535860000039, -7.658846159999939 ], [ 112.172571680000033, -7.658830669999929 ], [ 112.172559283000055, -7.658820540999955 ], [ 112.172879594000051, -7.658893594999938 ], [ 112.172959682000055, -7.658941646999949 ], [ 112.172847521000108, -7.659585854999932 ], [ 112.172814723000101, -7.659576743999935 ], [ 112.172808533000079, -7.659614421999947 ], [ 112.172452233000058, -7.659546457999966 ], [ 112.17242925700009, -7.659657508999942 ] ] ] ] } },
{ "type": "Feature", "properties": { "fid": 6762, "kk": null, "gid": 0.0, "bstt": null, "luas": 15538.980028601503, "bsbtt": null, "idsls": "35061500030006", "kdkab": "06", "kdkec": "150", "kdsls": "0006", "nmkab": "KEDIRI", "nmkec": "KUNJANG", "nmsls": "RT 002 RW 001 DUSUN BABADAN", "bstt_k": null, "kddesa": "003", "kdprov": "35", "khusus": null, "muatan": null, "nmdesa": "TENGGERLOR", "nmprov": "JAWA TIMUR", "posisi": null, "rw_dki": null, "segmen": null, "subsls": null, "sumber": null, "dom_sls": null, "periode": "2025_1", "tingkat": null, "idsubsls": "3506150003000600", "nm_gedung": null, "wil_campur": null, "iddesa": "3506150003", "kdsubsls": "00" }, "geometry": { "type": "MultiPolygon", "coordinates": [ [ [ [ 112.178535855000064, -7.649613133999935 ], [ 112.178594310000108, -7.649471170999959 ], [ 112.178501364000113, -7.649436315999935 ], [ 112.178491753000117, -7.649397873999931 ], [ 112.178421276000108, -7.649378652999928 ], [ 112.178389241000104, -7.649353023999936 ], [ 112.178059279000081, -7.649260122999976 ], [ 112.177969580000081, -7.649218476999977 ], [ 112.17792152800007, -7.649224883999977 ], [ 112.177764555000067, -7.649180034999972 ], [ 112.177662043000055, -7.649151202999974 ], [ 112.177613990000054, -7.649109556999974 ], [ 112.177543513000046, -7.649093539999967 ], [ 112.17739907400005, -7.649049244999958 ], [ 112.177403399000013, -7.648962734999941 ], [ 112.177275604000101, -7.648918283999933 ], [ 112.17724251900006, -7.648992088999933 ], [ 112.176928438, -7.648848470999951 ], [ 112.176800297000113, -7.648784399999954 ], [ 112.176575960000037, -7.648730249999971 ], [ 112.176670955000077, -7.648461095999949 ], [ 112.176725379000118, -7.648256207999964 ], [ 112.17734349300008, -7.64846164599993 ], [ 112.177473236000083, -7.648488875999931 ], [ 112.17747337600008, -7.648488434999933 ], [ 112.177755145000106, -7.648596193999936 ], [ 112.177918524, -7.648666670999944 ], [ 112.177976188000116, -7.648708316999944 ], [ 112.178043461000016, -7.648689095999941 ], [ 112.178187620000017, -7.648733944999947 ], [ 112.178328574000034, -7.648772386999951 ], [ 112.178456715000038, -7.648804421999955 ], [ 112.178533599000048, -7.648794811999949 ], [ 112.178578449000042, -7.648846067999955 ], [ 112.178671351000048, -7.648878102999959 ], [ 112.178825119000066, -7.648995031999959 ], [ 112.178955642, -7.649034699999959 ], [ 112.178906158000018, -7.649191246999976 ], [ 112.178906189000031, -7.649191256999927 ], [ 112.178793898000094, -7.649546015999931 ], [ 112.178757245000043, -7.649661812999966 ], [ 112.178758156000072, -7.649662200999956 ], [ 112.17874921900011, -7.649688742999956 ], [ 112.178535855000064, -7.649613133999935 ] ] ] ] } },
{ "type": "Feature", "properties": { "fid": 6763, "kk": null, "gid": 0.0, "bstt": null, "luas": 23081.07299750422, "bsbtt": null, "idsls": "35061500030007", "kdkab": "06", "kdkec": "150", "kdsls": "0007", "nmkab": "KEDIRI", "nmkec": "KUNJANG", "nmsls": "RT 003 RW 001 DUSUN BABADAN", "bstt_k": null, "kddesa": "003", "kdprov": "35", "khusus": null, "muatan": null, "nmdesa": "TENGGERLOR", "nmprov": "JAWA TIMUR", "posisi": null, "rw_dki": null, "segmen": null, "subsls": null, "sumber": null, "dom_sls": null, "periode": "2025_1", "tingkat": null, "idsubsls": "3506150003000700", "nm_gedung": null, "wil_campur": null, "iddesa": "3506150003", "kdsubsls": "00" }, "geometry": { "type": "MultiPolygon", "coordinates": [ [ [ [ 112.176306955000086, -7.646664155999929 ], [ 112.176189691000104, -7.647000312999978 ], [ 112.176289705000045, -7.64704476299994 ], [ 112.17617580000001, -7.64735869499998 ], [ 112.176276726000083, -7.647410279999974 ], [ 112.176270516000045, -7.647432015999925 ], [ 112.176271102000101, -7.647432310999932 ], [ 112.176188826000043, -7.647580128999948 ], [ 112.176170318000118, -7.647706395999933 ], [ 112.176019702000076, -7.64767193299997 ], [ 112.17599747700001, -7.647831676999942 ], [ 112.175811340000109, -7.647787225999934 ], [ 112.175758555000016, -7.647973362999949 ], [ 112.176047484000037, -7.648045594999928 ], [ 112.17609888000004, -7.647871959999975 ], [ 112.176144495000017, -7.647882567999943 ], [ 112.17614439700003, -7.64788323199997 ], [ 112.176344573000051, -7.647941413999945 ], [ 112.176301367000065, -7.64812773999995 ], [ 112.176725415000078, -7.648256070999935 ], [ 112.176725379000118, -7.648256207999964 ], [ 112.176670955000077, -7.648461095999949 ], [ 112.176575960000037, -7.648730249999971 ], [ 112.176574850000065, -7.648733393999976 ], [ 112.176424284000063, -7.648714172999973 ], [ 112.176036659000033, -7.648602049999965 ], [ 112.175767564000012, -7.648502740999959 ], [ 112.175506685000073, -7.648359110999934 ], [ 112.175420614000018, -7.648589756999968 ], [ 112.175012735000109, -7.648433614999931 ], [ 112.175013552000109, -7.648431603999938 ], [ 112.175091964000103, -7.64823854499997 ], [ 112.175091622000082, -7.648238450999941 ], [ 112.175117250000085, -7.648167973999932 ], [ 112.175732423000113, -7.646470994999959 ], [ 112.176306955000086, -7.646664155999929 ] ] ] ] } },
{ "type": "Feature", "properties": { "fid": 6764, "kk": null, "gid": 0.0, "bstt": null, "luas": 12038.976361199842, "bsbtt": null, "idsls": "35061500030008", "kdkab": "06", "kdkec": "150", "kdsls": "0008", "nmkab": "KEDIRI", "nmkec": "KUNJANG", "nmsls": "RT 001 RW 002 DUSUN BABADAN", "bstt_k": null, "kddesa": "003", "kdprov": "35", "khusus": null, "muatan": null, "nmdesa": "TENGGERLOR", "nmprov": "JAWA TIMUR", "posisi": null, "rw_dki": null, "segmen": null, "subsls": null, "sumber": null, "dom_sls": null, "periode": "2025_1", "tingkat": null, "idsubsls": "3506150003000800", "nm_gedung": null, "wil_campur": null, "iddesa": "3506150003", "kdsubsls": "00" }, "geometry": { "type": "MultiPolygon", "coordinates": [ [ [ [ 112.177077371000109, -7.647641917999977 ], [ 112.177152497000066, -7.647630259999971 ], [ 112.177273347000096, -7.647678877999965 ], [ 112.177250647000051, -7.647761422999963 ], [ 112.177348357000028, -7.647801116999972 ], [ 112.177366415000051, -7.647744164999949 ], [ 112.177515046000053, -7.647795560999953 ], [ 112.177481399000044, -7.647909961999972 ], [ 112.177637684000047, -7.64797247599995 ], [ 112.17747337600008, -7.648488434999933 ], [ 112.177473236000083, -7.648488875999931 ], [ 112.17734349300008, -7.64846164599993 ], [ 112.176725379000118, -7.648256207999964 ], [ 112.176725415000078, -7.648256070999935 ], [ 112.176301367000065, -7.64812773999995 ], [ 112.176344573000051, -7.647941413999945 ], [ 112.17614439700003, -7.64788323199997 ], [ 112.176144495000017, -7.647882567999943 ], [ 112.17609888000004, -7.647871959999975 ], [ 112.176047484000037, -7.648045594999928 ], [ 112.175758555000016, -7.647973362999949 ], [ 112.175811340000109, -7.647787225999934 ], [ 112.17599747700001, -7.647831676999942 ], [ 112.176019702000076, -7.64767193299997 ], [ 112.176170318000118, -7.647706395999933 ], [ 112.176188826000043, -7.647580128999948 ], [ 112.176271102000101, -7.647432310999932 ], [ 112.176376314000095, -7.647485178999943 ], [ 112.176906150000036, -7.647689753999941 ], [ 112.176948302000028, -7.647595532999958 ], [ 112.177077371000109, -7.647641917999977 ] ] ] ] } },
{ "type": "Feature", "properties": { "fid": 6765, "kk": null, "gid": 0.0, "bstt": null, "luas": 12038.942437042573, "bsbtt": null, "idsls": "35061500030009", "kdkab": "06", "kdkec": "150", "kdsls": "0009", "nmkab": "KEDIRI", "nmkec": "KUNJANG", "nmsls": "RT 002 RW 002 DUSUN BABADAN", "bstt_k": null, "kddesa": "003", "kdprov": "35", "khusus": null, "muatan": null, "nmdesa": "TENGGERLOR", "nmprov": "JAWA TIMUR", "posisi": null, "rw_dki": null, "segmen": null, "subsls": null, "sumber": null, "dom_sls": null, "periode": "2025_1", "tingkat": null, "idsubsls": "3506150003000900", "nm_gedung": null, "wil_campur": null, "iddesa": "3506150003", "kdsubsls": "00" }, "geometry": { "type": "MultiPolygon", "coordinates": [ [ [ [ 112.178955642, -7.649034699999959 ], [ 112.178825119000066, -7.648995031999959 ], [ 112.178671351000048, -7.648878102999959 ], [ 112.178578449000042, -7.648846067999955 ], [ 112.178533599000048, -7.648794811999949 ], [ 112.178456715000038, -7.648804421999955 ], [ 112.178328574000034, -7.648772386999951 ], [ 112.178187620000017, -7.648733944999947 ], [ 112.178043461000016, -7.648689095999941 ], [ 112.177976188000116, -7.648708316999944 ], [ 112.177918524, -7.648666670999944 ], [ 112.177755145000106, -7.648596193999936 ], [ 112.17747337600008, -7.648488434999933 ], [ 112.177637684000047, -7.64797247599995 ], [ 112.177776168000037, -7.648027869999964 ], [ 112.177888291000045, -7.648005445999956 ], [ 112.17797478600005, -7.648018259999958 ], [ 112.178199032000066, -7.648101550999968 ], [ 112.178215050000063, -7.648139992999972 ], [ 112.178426482000077, -7.64820406399997 ], [ 112.178612286000089, -7.648232894999978 ], [ 112.178769258000102, -7.648280947999979 ], [ 112.178945451000118, -7.648258522999981 ], [ 112.179008690000046, -7.648268507999944 ], [ 112.179037165000068, -7.648197847999938 ], [ 112.179215592000105, -7.648236524999959 ], [ 112.179188919000012, -7.648296965999975 ], [ 112.179188841000041, -7.648296953999932 ], [ 112.178955642, -7.649034699999959 ] ] ] ] } },
{ "type": "Feature", "properties": { "fid": 6766, "kk": null, "gid": 0.0, "bstt": null, "luas": 13984.840530961877, "bsbtt": null, "idsls": "35061500030012", "kdkab": "06", "kdkec": "150", "kdsls": "0012", "nmkab": "KEDIRI", "nmkec": "KUNJANG", "nmsls": "RT 002 RW 003 DUSUN BABADAN", "bstt_k": null, "kddesa": "003", "kdprov": "35", "khusus": null, "muatan": null, "nmdesa": "TENGGERLOR", "nmprov": "JAWA TIMUR", "posisi": null, "rw_dki": null, "segmen": null, "subsls": null, "sumber": null, "dom_sls": null, "periode": "2025_1", "tingkat": null, "idsubsls": "3506150003001200", "nm_gedung": null, "wil_campur": null, "iddesa": "3506150003", "kdsubsls": "00" }, "geometry": { "type": "MultiPolygon", "coordinates": [ [ [ [ 112.179705037000076, -7.649218898999948 ], [ 112.179780377000043, -7.649252863999948 ], [ 112.179819160000079, -7.649191246999976 ], [ 112.179823783000074, -7.649189489999969 ], [ 112.1798205, -7.649198829999932 ], [ 112.180379070000072, -7.649515099999974 ], [ 112.180595138000058, -7.649622561999934 ], [ 112.180429480000043, -7.649903678999976 ], [ 112.180266136000114, -7.650304030999962 ], [ 112.180266101000029, -7.650304117999951 ], [ 112.178758156000072, -7.649662200999956 ], [ 112.178757245000043, -7.649661812999966 ], [ 112.178793898000094, -7.649546015999931 ], [ 112.178906189000031, -7.649191256999927 ], [ 112.179213696000033, -7.649288953999928 ], [ 112.179528190000042, -7.649416674999941 ], [ 112.179635924000081, -7.649187741999981 ], [ 112.179705037000076, -7.649218898999948 ] ] ] ] } },
{ "type": "Feature", "properties": { "fid": 6767, "kk": null, "gid": 0.0, "bstt": null, "luas": 46012.791400594484, "bsbtt": null, "idsls": "35061500030014", "kdkab": "06", "kdkec": "150", "kdsls": "0014", "nmkab": "KEDIRI", "nmkec": "KUNJANG", "nmsls": "RT 001 RW 001 DUSUN TENGGERLOR", "bstt_k": null, "kddesa": "003", "kdprov": "35", "khusus": null, "muatan": null, "nmdesa": "TENGGERLOR", "nmprov": "JAWA TIMUR", "posisi": null, "rw_dki": null, "segmen": null, "subsls": null, "sumber": null, "dom_sls": null, "periode": "2025_1", "tingkat": null, "idsubsls": "3506150003001400", "nm_gedung": null, "wil_campur": null, "iddesa": "3506150003", "kdsubsls": "00" }, "geometry": { "type": "MultiPolygon", "coordinates": [ [ [ [ 112.178039736000073, -7.662428254999952 ], [ 112.178267646000108, -7.662513210999975 ], [ 112.178188676000104, -7.662801069999944 ], [ 112.178466492000098, -7.662876079999933 ], [ 112.178522294000118, -7.662708672999941 ], [ 112.178691773000082, -7.662778757999945 ], [ 112.178635921000023, -7.662980392999941 ], [ 112.178783376000069, -7.663023322999948 ], [ 112.178788932000089, -7.663001096999949 ], [ 112.17890283700001, -7.663026100999957 ], [ 112.178975069000103, -7.662992762999977 ], [ 112.179036188000055, -7.662817738999934 ], [ 112.179286223000076, -7.66289274899998 ], [ 112.179208834000065, -7.663107862999937 ], [ 112.179130323000095, -7.663326096999981 ], [ 112.17951538300008, -7.663475021999943 ], [ 112.179516678000027, -7.663475522999931 ], [ 112.179369435000012, -7.663962063999975 ], [ 112.17936931600002, -7.663962456999968 ], [ 112.175861944000076, -7.662545400999932 ], [ 112.175861970000028, -7.662545319999936 ], [ 112.175818798000023, -7.662527934999957 ], [ 112.176115896000056, -7.660691608999969 ], [ 112.176116146000027, -7.660690065999972 ], [ 112.176705593000065, -7.66084383499998 ], [ 112.17648775400005, -7.661849738999933 ], [ 112.178039736000073, -7.662428254999952 ] ] ] ] } },
{ "type": "Feature", "properties": { "fid": 6768, "kk": null, "gid": 0.0, "bstt": null, "luas": 14419.720358571025, "bsbtt": null, "idsls": "35061500030015", "kdkab": "06", "kdkec": "150", "kdsls": "0015", "nmkab": "KEDIRI", "nmkec": "KUNJANG", "nmsls": "RT 002 RW 001 DUSUN TENGGERLOR", "bstt_k": null, "kddesa": "003", "kdprov": "35", "khusus": null, "muatan": null, "nmdesa": "TENGGERLOR", "nmprov": "JAWA TIMUR", "posisi": null, "rw_dki": null, "segmen": null, "subsls": null, "sumber": null, "dom_sls": null, "periode": "2025_1", "tingkat": null, "idsubsls": "3506150003001500", "nm_gedung": null, "wil_campur": null, "iddesa": "3506150003", "kdsubsls": "00" }, "geometry": { "type": "MultiPolygon", "coordinates": [ [ [ [ 112.179543269000078, -7.66214281699996 ], [ 112.179557007000085, -7.662259588999973 ], [ 112.179888997000035, -7.66239294099995 ], [ 112.179822243000103, -7.66258376199994 ], [ 112.179824015, -7.662584344999971 ], [ 112.179823944000077, -7.662584548999973 ], [ 112.179738109000027, -7.662832262999927 ], [ 112.179499186000044, -7.662752191999971 ], [ 112.179344998000033, -7.663149467999972 ], [ 112.179208834000065, -7.663107862999937 ], [ 112.179286223000076, -7.66289274899998 ], [ 112.179036188000055, -7.662817738999934 ], [ 112.178975069000103, -7.662992762999977 ], [ 112.17890283700001, -7.663026100999957 ], [ 112.178788932000089, -7.663001096999949 ], [ 112.178783376000069, -7.663023322999948 ], [ 112.178635921000023, -7.662980392999941 ], [ 112.178691773000082, -7.662778757999945 ], [ 112.178522294000118, -7.662708672999941 ], [ 112.178466492000098, -7.662876079999933 ], [ 112.178188676000104, -7.662801069999944 ], [ 112.178267646000108, -7.662513210999975 ], [ 112.178039736000073, -7.662428254999952 ], [ 112.178244197000026, -7.66186808599997 ], [ 112.178244682000013, -7.661866756999927 ], [ 112.178487845000063, -7.661948177999932 ], [ 112.178445569000019, -7.662079702999961 ], [ 112.178556696000101, -7.662110262999931 ], [ 112.178540027000054, -7.662251948999938 ], [ 112.178853959000094, -7.662343627999974 ], [ 112.178943510000067, -7.662100753999937 ], [ 112.178949577000026, -7.662102785999934 ], [ 112.178949757000055, -7.662102153999967 ], [ 112.179190289000076, -7.66218874599997 ], [ 112.179181955000104, -7.662215138999954 ], [ 112.179316696000114, -7.662248476999935 ], [ 112.179337532000091, -7.662204025999927 ], [ 112.179420877000098, -7.66220263699995 ], [ 112.179459771000097, -7.662120680999976 ], [ 112.179543116000104, -7.662141516999952 ], [ 112.179543269000078, -7.66214281699996 ] ] ] ] } },
{ "type": "Feature", "properties": { "fid": 6769, "kk": null, "gid": 0.0, "bstt": null, "luas": 21403.788413007271, "bsbtt": null, "idsls": "35061500030016", "kdkab": "06", "kdkec": "150", "kdsls": "0016", "nmkab": "KEDIRI", "nmkec": "KUNJANG", "nmsls": "RT 003 RW 001 DUSUN TENGGERLOR", "bstt_k": null, "kddesa": "003", "kdprov": "35", "khusus": null, "muatan": null, "nmdesa": "TENGGERLOR", "nmprov": "JAWA TIMUR", "posisi": null, "rw_dki": null, "segmen": null, "subsls": null, "sumber": null, "dom_sls": null, "periode": "2025_1", "tingkat": null, "idsubsls": "3506150003001600", "nm_gedung": null, "wil_campur": null, "iddesa": "3506150003", "kdsubsls": "00" }, "geometry": { "type": "MultiPolygon", "coordinates": [ [ [ [ 112.179880398000023, -7.661464252999963 ], [ 112.179933273000074, -7.661481877999961 ], [ 112.179968, -7.661497157999975 ], [ 112.179820758, -7.661852761999967 ], [ 112.179662403000066, -7.662033342999962 ], [ 112.179626287000019, -7.662043065999967 ], [ 112.179543269000078, -7.66214281699996 ], [ 112.179543116000104, -7.662141516999952 ], [ 112.179459771000097, -7.662120680999976 ], [ 112.179420877000098, -7.66220263699995 ], [ 112.179337532000091, -7.662204025999927 ], [ 112.179316696000114, -7.662248476999935 ], [ 112.179181955000104, -7.662215138999954 ], [ 112.179190289000076, -7.66218874599997 ], [ 112.178949757000055, -7.662102153999967 ], [ 112.178949577000026, -7.662102785999934 ], [ 112.178943510000067, -7.662100753999937 ], [ 112.178853959000094, -7.662343627999974 ], [ 112.178540027000054, -7.662251948999938 ], [ 112.178556696000101, -7.662110262999931 ], [ 112.178445569000019, -7.662079702999961 ], [ 112.178487845000063, -7.661948177999932 ], [ 112.178244682000013, -7.661866756999927 ], [ 112.178244197000026, -7.66186808599997 ], [ 112.178243881000071, -7.661863553999979 ], [ 112.178306350000071, -7.66163310099995 ], [ 112.178541808000091, -7.661714790999952 ], [ 112.178855753000107, -7.660673647999943 ], [ 112.18002824000007, -7.661080494999965 ], [ 112.180028217000086, -7.661080553999966 ], [ 112.179880398000023, -7.661464252999963 ] ] ] ] } },
{ "type": "Feature", "properties": { "fid": 6770, "kk": null, "gid": 0.0, "bstt": null, "luas": 16098.975552971844, "bsbtt": null, "idsls": "35061500030017", "kdkab": "06", "kdkec": "150", "kdsls": "0017", "nmkab": "KEDIRI", "nmkec": "KUNJANG", "nmsls": "RT 001 RW 002 DUSUN TENGGERLOR", "bstt_k": null, "kddesa": "003", "kdprov": "35", "khusus": null, "muatan": null, "nmdesa": "TENGGERLOR", "nmprov": "JAWA TIMUR", "posisi": null, "rw_dki": null, "segmen": null, "subsls": null, "sumber": null, "dom_sls": null, "periode": "2025_1", "tingkat": null, "idsubsls": "3506150003001700", "nm_gedung": null, "wil_campur": null, "iddesa": "3506150003", "kdsubsls": "00" }, "geometry": { "type": "MultiPolygon", "coordinates": [ [ [ [ 112.180937920000019, -7.661418023999943 ], [ 112.180944170000089, -7.661420342999975 ], [ 112.180792403000055, -7.661809569999946 ], [ 112.180792217000089, -7.661809709999943 ], [ 112.180749936000097, -7.661909347999938 ], [ 112.180561987000033, -7.66235226799995 ], [ 112.180496598000104, -7.662506362999977 ], [ 112.180379225000024, -7.662782962999927 ], [ 112.179823944000077, -7.662584548999973 ], [ 112.179824015, -7.662584344999971 ], [ 112.179822243000103, -7.66258376199994 ], [ 112.179888997000035, -7.66239294099995 ], [ 112.179557007000085, -7.662259588999973 ], [ 112.179543269000078, -7.66214281699996 ], [ 112.179626287000019, -7.662043065999967 ], [ 112.179662403000066, -7.662033342999962 ], [ 112.179820758, -7.661852761999967 ], [ 112.179968, -7.661497157999975 ], [ 112.179933273000074, -7.661481877999961 ], [ 112.179880398000023, -7.661464252999963 ], [ 112.180028217000086, -7.661080553999966 ], [ 112.180937920000019, -7.661418023999943 ] ] ] ] } },
{ "type": "Feature", "properties": { "fid": 6771, "kk": null, "gid": 0.0, "bstt": null, "luas": 11190.097430848167, "bsbtt": null, "idsls": "35061500030019", "kdkab": "06", "kdkec": "150", "kdsls": "0019", "nmkab": "KEDIRI", "nmkec": "KUNJANG", "nmsls": "RT 001 RW 003 DUSUN TENGGERLOR", "bstt_k": null, "kddesa": "003", "kdprov": "35", "khusus": null, "muatan": null, "nmdesa": "TENGGERLOR", "nmprov": "JAWA TIMUR", "posisi": null, "rw_dki": null, "segmen": null, "subsls": null, "sumber": null, "dom_sls": null, "periode": "2025_1", "tingkat": null, "idsubsls": "3506150003001900", "nm_gedung": null, "wil_campur": null, "iddesa": "3506150003", "kdsubsls": "00" }, "geometry": { "type": "MultiPolygon", "coordinates": [ [ [ [ 112.181015190000039, -7.662661475999926 ], [ 112.18094287100007, -7.662881027999958 ], [ 112.180881298000031, -7.663108362999935 ], [ 112.18062348, -7.663732669999945 ], [ 112.1806136780001, -7.663754838999978 ], [ 112.1801476710001, -7.663569025999948 ], [ 112.180170399000076, -7.663511837999977 ], [ 112.17991525900004, -7.663433686999952 ], [ 112.180055173000028, -7.662961147999965 ], [ 112.179734695000093, -7.662842113999943 ], [ 112.179738109000027, -7.662832262999927 ], [ 112.179823944000077, -7.662584548999973 ], [ 112.180379225000024, -7.662782962999927 ], [ 112.180496598000104, -7.662506362999977 ], [ 112.180698188000065, -7.662579277999953 ], [ 112.18071068200004, -7.662549879999972 ], [ 112.181015190000039, -7.662661475999926 ] ] ] ] } },
{ "type": "Feature", "properties": { "fid": 6772, "kk": null, "gid": 0.0, "bstt": null, "luas": 13722.349298270012, "bsbtt": null, "idsls": "35061500030020", "kdkab": "06", "kdkec": "150", "kdsls": "0020", "nmkab": "KEDIRI", "nmkec": "KUNJANG", "nmsls": "RT 002 RW 003 DUSUN TENGGERLOR", "bstt_k": null, "kddesa": "003", "kdprov": "35", "khusus": null, "muatan": null, "nmdesa": "TENGGERLOR", "nmprov": "JAWA TIMUR", "posisi": null, "rw_dki": null, "segmen": null, "subsls": null, "sumber": null, "dom_sls": null, "periode": "2025_1", "tingkat": null, "idsubsls": "3506150003002000", "nm_gedung": null, "wil_campur": null, "iddesa": "3506150003", "kdsubsls": "00" }, "geometry": { "type": "MultiPolygon", "coordinates": [ [ [ [ 112.180055173000028, -7.662961147999965 ], [ 112.17991525900004, -7.663433686999952 ], [ 112.180170399000076, -7.663511837999977 ], [ 112.1801476710001, -7.663569025999948 ], [ 112.1806136780001, -7.663754838999978 ], [ 112.18034789, -7.664355969999974 ], [ 112.180338650000067, -7.66435182999993 ], [ 112.18018698000003, -7.664283839999939 ], [ 112.179671146000032, -7.664081199999941 ], [ 112.179369435000012, -7.663962063999975 ], [ 112.179516678000027, -7.663475522999931 ], [ 112.17951538300008, -7.663475021999943 ], [ 112.179130323000095, -7.663326096999981 ], [ 112.179208834000065, -7.663107862999937 ], [ 112.179344998000033, -7.663149467999972 ], [ 112.179499186000044, -7.662752191999971 ], [ 112.179738109000027, -7.662832262999927 ], [ 112.179734695000093, -7.662842113999943 ], [ 112.180055173000028, -7.662961147999965 ] ] ] ] } },
{ "type": "Feature", "properties": { "fid": 6773, "kk": null, "gid": 0.0, "bstt": null, "luas": 10239.244235348295, "bsbtt": null, "idsls": "35061500030021", "kdkab": "06", "kdkec": "150", "kdsls": "0021", "nmkab": "KEDIRI", "nmkec": "KUNJANG", "nmsls": "RT 001 RW 001 DUSUN PULOREJO", "bstt_k": null, "kddesa": "003", "kdprov": "35", "khusus": null, "muatan": null, "nmdesa": "TENGGERLOR", "nmprov": "JAWA TIMUR", "posisi": null, "rw_dki": null, "segmen": null, "subsls": null, "sumber": null, "dom_sls": null, "periode": "2025_1", "tingkat": null, "idsubsls": "3506150003002100", "nm_gedung": null, "wil_campur": null, "iddesa": "3506150003", "kdsubsls": "00" }, "geometry": { "type": "MultiPolygon", "coordinates": [ [ [ [ 112.179509353000071, -7.667929396999966 ], [ 112.179313368000066, -7.667856644999972 ], [ 112.179312130000085, -7.667813309999929 ], [ 112.179146672000115, -7.667748211999935 ], [ 112.178930729000058, -7.667682489999947 ], [ 112.178797628000098, -7.667700565999951 ], [ 112.178644458, -7.667650154999933 ], [ 112.178594909000026, -7.667524630999935 ], [ 112.1780184590001, -7.667261745999951 ], [ 112.178017433000036, -7.667261277999955 ], [ 112.178035052000041, -7.667213224999955 ], [ 112.178129556000044, -7.666963350999936 ], [ 112.178241489000015, -7.666980739999929 ], [ 112.178241479, -7.666980769999952 ], [ 112.17891101400005, -7.667256271999975 ], [ 112.179961767, -7.667740002999949 ], [ 112.180228484000054, -7.667898057999935 ], [ 112.180152576000069, -7.668110208999963 ], [ 112.180104523000068, -7.668151854999962 ], [ 112.18003404600006, -7.668129429999965 ], [ 112.179854649000049, -7.668081377999954 ], [ 112.179579147000027, -7.667972457999952 ], [ 112.179513290000045, -7.667931519999968 ], [ 112.179509353000071, -7.667929396999966 ] ] ] ] } },
{ "type": "Feature", "properties": { "fid": 6774, "kk": null, "gid": 0.0, "bstt": null, "luas": 11709.909253720562, "bsbtt": null, "idsls": "35061500030022", "kdkab": "06", "kdkec": "150", "kdsls": "0022", "nmkab": "KEDIRI", "nmkec": "KUNJANG", "nmsls": "RT 002 RW 001 DUSUN PULOREJO", "bstt_k": null, "kddesa": "003", "kdprov": "35", "khusus": null, "muatan": null, "nmdesa": "TENGGERLOR", "nmprov": "JAWA TIMUR", "posisi": null, "rw_dki": null, "segmen": null, "subsls": null, "sumber": null, "dom_sls": null, "periode": "2025_1", "tingkat": null, "idsubsls": "3506150003002200", "nm_gedung": null, "wil_campur": null, "iddesa": "3506150003", "kdsubsls": "00" }, "geometry": { "type": "MultiPolygon", "coordinates": [ [ [ [ 112.179509353000071, -7.667929396999966 ], [ 112.179513290000045, -7.667931519999968 ], [ 112.179579147000027, -7.667972457999952 ], [ 112.179854649000049, -7.668081377999954 ], [ 112.18003404600006, -7.668129429999965 ], [ 112.180104523000068, -7.668151854999962 ], [ 112.180152576000069, -7.668110208999963 ], [ 112.180228484000054, -7.667898057999935 ], [ 112.180229709000059, -7.667898783999931 ], [ 112.180229963000102, -7.667898884999943 ], [ 112.180317451000064, -7.667925888999946 ], [ 112.180317529000035, -7.667925733999937 ], [ 112.180343398000105, -7.667944794999926 ], [ 112.180404853000027, -7.667990076999956 ], [ 112.180260695000015, -7.668569913999931 ], [ 112.177907220000066, -7.667692562999946 ], [ 112.177906111000084, -7.667692149999937 ], [ 112.1780184590001, -7.667261745999951 ], [ 112.178594909000026, -7.667524630999935 ], [ 112.178644458, -7.667650154999933 ], [ 112.178797628000098, -7.667700565999951 ], [ 112.178930729000058, -7.667682489999947 ], [ 112.179146672000115, -7.667748211999935 ], [ 112.179312130000085, -7.667813309999929 ], [ 112.179313368000066, -7.667856644999972 ], [ 112.179509353000071, -7.667929396999966 ] ] ] ] } },
{ "type": "Feature", "properties": { "fid": 6775, "kk": null, "gid": 0.0, "bstt": null, "luas": 31057.207255685433, "bsbtt": null, "idsls": "35061500030024", "kdkab": "06", "kdkec": "150", "kdsls": "0024", "nmkab": "KEDIRI", "nmkec": "KUNJANG", "nmsls": "RT 002 RW 002 DUSUN PULOREJO", "bstt_k": null, "kddesa": "003", "kdprov": "35", "khusus": null, "muatan": null, "nmdesa": "TENGGERLOR", "nmprov": "JAWA TIMUR", "posisi": null, "rw_dki": null, "segmen": null, "subsls": null, "sumber": null, "dom_sls": null, "periode": "2025_1", "tingkat": null, "idsubsls": "3506150003002400", "nm_gedung": null, "wil_campur": null, "iddesa": "3506150003", "kdsubsls": "00" }, "geometry": { "type": "MultiPolygon", "coordinates": [ [ [ [ 112.180730250000011, -7.669177652999963 ], [ 112.180524620000028, -7.669118222999941 ], [ 112.180524184000092, -7.669120117999967 ], [ 112.180184611000072, -7.669030418999967 ], [ 112.180142966000062, -7.66910409999997 ], [ 112.17910182300011, -7.66875811999995 ], [ 112.177759550000019, -7.668296813999973 ], [ 112.177907220000066, -7.667692562999946 ], [ 112.180260695000015, -7.668569913999931 ], [ 112.180404853000027, -7.667990076999956 ], [ 112.180343398000105, -7.667944794999926 ], [ 112.180461058000105, -7.667712319999964 ], [ 112.180433706000031, -7.667696606999925 ], [ 112.18049467700007, -7.667576358999952 ], [ 112.180607761000033, -7.667353331999948 ], [ 112.180667170000106, -7.667398879999951 ], [ 112.180741150000017, -7.667491359999929 ], [ 112.18079664000004, -7.667569039999933 ], [ 112.180866920000085, -7.667643019999957 ], [ 112.181014890000029, -7.667717 ], [ 112.181044480000082, -7.66779097999995 ], [ 112.181070370000043, -7.66804991999993 ], [ 112.18103708000001, -7.668427229999963 ], [ 112.180896520000033, -7.668860019999954 ], [ 112.180845340000019, -7.66921091599994 ], [ 112.180730250000011, -7.669177652999963 ] ] ] ] } },
{ "type": "Feature", "properties": { "fid": 6776, "kk": null, "gid": 0.0, "bstt": null, "luas": 23412.646206676105, "bsbtt": null, "idsls": "35061500030023", "kdkab": "06", "kdkec": "150", "kdsls": "0023", "nmkab": "KEDIRI", "nmkec": "KUNJANG", "nmsls": "RT 001 RW 002 DUSUN PULOREJO", "bstt_k": null, "kddesa": "003", "kdprov": "35", "khusus": null, "muatan": null, "nmdesa": "TENGGERLOR", "nmprov": "JAWA TIMUR", "posisi": null, "rw_dki": null, "segmen": null, "subsls": null, "sumber": null, "dom_sls": null, "periode": "2025_1", "tingkat": null, "idsubsls": "3506150003002300", "nm_gedung": null, "wil_campur": null, "iddesa": "3506150003", "kdsubsls": "00" }, "geometry": { "type": "MultiPolygon", "coordinates": [ [ [ [ 112.180229709000059, -7.667898783999931 ], [ 112.180228484000054, -7.667898057999935 ], [ 112.179961767, -7.667740002999949 ], [ 112.17891101400005, -7.667256271999975 ], [ 112.178241479, -7.666980769999952 ], [ 112.178241489000015, -7.666980739999929 ], [ 112.17836481400002, -7.666621975999931 ], [ 112.178577848000032, -7.666703665999933 ], [ 112.178670750000038, -7.666407339999978 ], [ 112.17872881400001, -7.666357485999981 ], [ 112.178728893000084, -7.666357448999975 ], [ 112.178728840000076, -7.666357579999953 ], [ 112.179002580000088, -7.666385319999961 ], [ 112.179098750000094, -7.666411219999929 ], [ 112.179169500000057, -7.666423277999968 ], [ 112.179424270000027, -7.666466699999944 ], [ 112.179568540000105, -7.666488899999933 ], [ 112.179698010000038, -7.666529589999925 ], [ 112.179816380000034, -7.66660356999995 ], [ 112.179897760000017, -7.666684949999933 ], [ 112.179979140000114, -7.66679591999997 ], [ 112.18005682, -7.666840319999949 ], [ 112.18019369000001, -7.666836609999962 ], [ 112.180252870000118, -7.66686250999993 ], [ 112.180334250000101, -7.666918 ], [ 112.180378640000072, -7.667014169999959 ], [ 112.180415630000084, -7.667147339999929 ], [ 112.180415630000084, -7.667243519999943 ], [ 112.180556200000069, -7.667313799999931 ], [ 112.180607761000033, -7.667353331999948 ], [ 112.18049467700007, -7.667576358999952 ], [ 112.180433706000031, -7.667696606999925 ], [ 112.180461058000105, -7.667712319999964 ], [ 112.180343398000105, -7.667944794999926 ], [ 112.180317529000035, -7.667925733999937 ], [ 112.180317451000064, -7.667925888999946 ], [ 112.180229963000102, -7.667898884999943 ], [ 112.180229709000059, -7.667898783999931 ] ] ] ] } },
{ "type": "Feature", "properties": { "fid": 6777, "kk": null, "gid": 0.0, "bstt": null, "luas": 20319.078546318313, "bsbtt": null, "idsls": "35061500030025", "kdkab": "06", "kdkec": "150", "kdsls": "0025", "nmkab": "KEDIRI", "nmkec": "KUNJANG", "nmsls": "RT 001 RW 001 DUSUN WATUDUWUR", "bstt_k": null, "kddesa": "003", "kdprov": "35", "khusus": null, "muatan": null, "nmdesa": "TENGGERLOR", "nmprov": "JAWA TIMUR", "posisi": null, "rw_dki": null, "segmen": null, "subsls": null, "sumber": null, "dom_sls": null, "periode": "2025_1", "tingkat": null, "idsubsls": "3506150003002500", "nm_gedung": null, "wil_campur": null, "iddesa": "3506150003", "kdsubsls": "00" }, "geometry": { "type": "MultiPolygon", "coordinates": [ [ [ [ 112.182643066000082, -7.672521672999949 ], [ 112.182617187, -7.672604555999953 ], [ 112.182537530000104, -7.672859679999931 ], [ 112.182176280000022, -7.674256769999943 ], [ 112.182175020000045, -7.674261629999933 ], [ 112.182153786000072, -7.674320430999956 ], [ 112.181415362000052, -7.674206398999956 ], [ 112.181392937000055, -7.674302504999957 ], [ 112.181245842000067, -7.674302504999957 ], [ 112.181245576000038, -7.674302504999957 ], [ 112.181293628000049, -7.674059037999939 ], [ 112.181444194000051, -7.673540067999966 ], [ 112.181619993000027, -7.672956055999975 ], [ 112.181633201000068, -7.672912178999979 ], [ 112.181654999000102, -7.67284288299993 ], [ 112.181785368000078, -7.672428447999948 ], [ 112.181785633000118, -7.672428580999963 ], [ 112.18182114800004, -7.672339023999939 ], [ 112.182351173000029, -7.67249045899996 ], [ 112.182363420000115, -7.672440243999972 ], [ 112.182643066000082, -7.672521672999949 ] ] ] ] } },
{ "type": "Feature", "properties": { "fid": 6778, "kk": null, "gid": 0.0, "bstt": null, "luas": 16047.721951854164, "bsbtt": null, "idsls": "35061500030026", "kdkab": "06", "kdkec": "150", "kdsls": "0026", "nmkab": "KEDIRI", "nmkec": "KUNJANG", "nmsls": "RT 002 RW 001 DUSUN WATUDUWUR", "bstt_k": null, "kddesa": "003", "kdprov": "35", "khusus": null, "muatan": null, "nmdesa": "TENGGERLOR", "nmprov": "JAWA TIMUR", "posisi": null, "rw_dki": null, "segmen": null, "subsls": null, "sumber": null, "dom_sls": null, "periode": "2025_1", "tingkat": null, "idsubsls": "3506150003002600", "nm_gedung": null, "wil_campur": null, "iddesa": "3506150003", "kdsubsls": "00" }, "geometry": { "type": "MultiPolygon", "coordinates": [ [ [ [ 112.180757251000045, -7.672540682999966 ], [ 112.181359300000054, -7.672859320999976 ], [ 112.181367486000113, -7.672894400999951 ], [ 112.181408250000118, -7.672780577999958 ], [ 112.181654999000102, -7.67284288299993 ], [ 112.181633201000068, -7.672912178999979 ], [ 112.181619993000027, -7.672956055999975 ], [ 112.181444194000051, -7.673540067999966 ], [ 112.181293628000049, -7.674059037999939 ], [ 112.181245576000038, -7.674302504999957 ], [ 112.181245842000067, -7.674302504999957 ], [ 112.181199125000035, -7.674512334999974 ], [ 112.180411060000097, -7.674336141999959 ], [ 112.18051997900011, -7.673858817999928 ], [ 112.180521713000076, -7.673859487999948 ], [ 112.180843534000019, -7.673983754999938 ], [ 112.180968471000028, -7.674018993999937 ], [ 112.181045356000027, -7.673998170999937 ], [ 112.180696173000115, -7.673299804999942 ], [ 112.180635306000113, -7.673005080999928 ], [ 112.180574439000111, -7.672880143999976 ], [ 112.18060967800011, -7.672700746999965 ], [ 112.180757039000014, -7.672540570999956 ], [ 112.180757251000045, -7.672540682999966 ] ] ] ] } },
{ "type": "Feature", "properties": { "fid": 6779, "kk": null, "gid": 0.0, "bstt": null, "luas": 22328.694555634906, "bsbtt": null, "idsls": "35061500030027", "kdkab": "06", "kdkec": "150", "kdsls": "0027", "nmkab": "KEDIRI", "nmkec": "KUNJANG", "nmsls": "RT 001 RW 002 DUSUN WATUDUWUR", "bstt_k": null, "kddesa": "003", "kdprov": "35", "khusus": null, "muatan": null, "nmdesa": "TENGGERLOR", "nmprov": "JAWA TIMUR", "posisi": null, "rw_dki": null, "segmen": null, "subsls": null, "sumber": null, "dom_sls": null, "periode": "2025_1", "tingkat": null, "idsubsls": "3506150003002700", "nm_gedung": null, "wil_campur": null, "iddesa": "3506150003", "kdsubsls": "00" }, "geometry": { "type": "MultiPolygon", "coordinates": [ [ [ [ 112.181854461000057, -7.670350744999951 ], [ 112.182291123000027, -7.670475504999956 ], [ 112.182292520000033, -7.670477946999938 ], [ 112.18235616100003, -7.670589178999933 ], [ 112.182475325000041, -7.670797457999981 ], [ 112.182145363000018, -7.671521452999968 ], [ 112.18182114800004, -7.672339023999939 ], [ 112.181785633000118, -7.672428580999963 ], [ 112.181785368000078, -7.672428447999948 ], [ 112.181654999000102, -7.67284288299993 ], [ 112.181408250000118, -7.672780577999958 ], [ 112.181367486000113, -7.672894400999951 ], [ 112.181359300000054, -7.672859320999976 ], [ 112.180757251000045, -7.672540682999966 ], [ 112.180899195000052, -7.67238800399997 ], [ 112.181094610000059, -7.672067651999953 ], [ 112.18127400700007, -7.671776131999934 ], [ 112.181645615000093, -7.670936810999933 ], [ 112.181853843000113, -7.670350567999947 ], [ 112.181854461000057, -7.670350744999951 ] ] ] ] } },
{ "type": "Feature", "properties": { "fid": 6780, "kk": null, "gid": 0.0, "bstt": null, "luas": 17487.581402005395, "bsbtt": null, "idsls": "35061500030028", "kdkab": "06", "kdkec": "150", "kdsls": "0028", "nmkab": "KEDIRI", "nmkec": "KUNJANG", "nmsls": "RT 002 RW 002 DUSUN WATUDUWUR", "bstt_k": null, "kddesa": "003", "kdprov": "35", "khusus": null, "muatan": null, "nmdesa": "TENGGERLOR", "nmprov": "JAWA TIMUR", "posisi": null, "rw_dki": null, "segmen": null, "subsls": null, "sumber": null, "dom_sls": null, "periode": "2025_1", "tingkat": null, "idsubsls": "3506150003002800", "nm_gedung": null, "wil_campur": null, "iddesa": "3506150003", "kdsubsls": "00" }, "geometry": { "type": "MultiPolygon", "coordinates": [ [ [ [ 112.182643066000082, -7.672521672999949 ], [ 112.182363420000115, -7.672440243999972 ], [ 112.182351173000029, -7.67249045899996 ], [ 112.18182114800004, -7.672339023999939 ], [ 112.182145363000018, -7.671521452999968 ], [ 112.182475325000041, -7.670797457999981 ], [ 112.18235616100003, -7.670589178999933 ], [ 112.182292520000033, -7.670477946999938 ], [ 112.182630749000054, -7.670671220999964 ], [ 112.183142914000086, -7.670824245999938 ], [ 112.183070200000088, -7.671328249999931 ], [ 112.182933330000083, -7.671772139999973 ], [ 112.182811260000108, -7.671982989999947 ], [ 112.182692340000017, -7.672363859999962 ], [ 112.182643066000082, -7.672521672999949 ] ] ] ] } },
{ "type": "Feature", "properties": { "fid": 6781, "kk": null, "gid": 0.0, "bstt": null, "luas": 415878.20244565525, "bsbtt": null, "idsls": "35061500031002", "kdkab": "06", "kdkec": "150", "kdsls": "1002", "nmkab": "KEDIRI", "nmkec": "KUNJANG", "nmsls": "PERSAWAHAN BABADAN DAN TENGGER LOR", "bstt_k": null, "kddesa": "003", "kdprov": "35", "khusus": null, "muatan": null, "nmdesa": "TENGGERLOR", "nmprov": "JAWA TIMUR", "posisi": null, "rw_dki": null, "segmen": null, "subsls": null, "sumber": null, "dom_sls": null, "periode": "2025_1", "tingkat": null, "idsubsls": "3506150003100200", "nm_gedung": null, "wil_campur": null, "iddesa": "3506150003", "kdsubsls": "00" }, "geometry": { "type": "MultiPolygon", "coordinates": [ [ [ [ 112.181389901000102, -7.65169452899994 ], [ 112.181163460000107, -7.652430709999976 ], [ 112.182372079000061, -7.65298639599996 ], [ 112.1823685600001, -7.652995049999959 ], [ 112.182494530000099, -7.653063719999977 ], [ 112.18311484000003, -7.653401869999925 ], [ 112.183120060000078, -7.653404719999969 ], [ 112.183118358000115, -7.653409496999927 ], [ 112.1828549600001, -7.654148769999949 ], [ 112.182337080000025, -7.653915719999929 ], [ 112.181956080000077, -7.655040249999956 ], [ 112.182112180000104, -7.655079699999931 ], [ 112.182292690000054, -7.655125329999976 ], [ 112.182633010000018, -7.655199309999944 ], [ 112.182917840000073, -7.655217809999954 ], [ 112.18324336, -7.65518450999997 ], [ 112.183287610000093, -7.655164239999976 ], [ 112.183279950000042, -7.655277139999953 ], [ 112.18316898, -7.655584159999933 ], [ 112.18259192000005, -7.655835699999955 ], [ 112.182728780000048, -7.655865289999952 ], [ 112.182824960000062, -7.655880089999926 ], [ 112.183176380000077, -7.65603914999997 ], [ 112.183254060000081, -7.656157519999965 ], [ 112.18324666, -7.656253699999979 ], [ 112.183402020000017, -7.656312879999973 ], [ 112.183553680000045, -7.656349869999929 ], [ 112.183679450000113, -7.656368369999939 ], [ 112.183720140000105, -7.656323979999968 ], [ 112.183882900000071, -7.656342479999978 ], [ 112.184049360000017, -7.656386869999949 ], [ 112.184156640000083, -7.656423859999961 ], [ 112.184337890000052, -7.656508939999981 ], [ 112.184408900000108, -7.656519449999962 ], [ 112.184427080000091, -7.656540229999962 ], [ 112.184538050000015, -7.656617909999966 ], [ 112.184600420000038, -7.65666946999994 ], [ 112.184719310000105, -7.656767729999956 ], [ 112.18485247000001, -7.656884249999962 ], [ 112.184917210000094, -7.656973029999961 ], [ 112.184974540000098, -7.657091399999956 ], [ 112.184917210000094, -7.657120989999953 ], [ 112.18513823, -7.657449289999931 ], [ 112.185165970000071, -7.657541759999958 ], [ 112.185238100000106, -7.65760094999996 ], [ 112.185325030000058, -7.657649039999967 ], [ 112.185452650000116, -7.657715619999976 ], [ 112.18555068, -7.657717469999966 ], [ 112.185657950000063, -7.657676779999974 ], [ 112.185776320000059, -7.657787759999962 ], [ 112.186142530000097, -7.658170609999956 ], [ 112.186329340000043, -7.658311179999941 ], [ 112.187174580000033, -7.658819799999947 ], [ 112.187455710000108, -7.658989959999928 ], [ 112.18730405000008, -7.659463449999976 ], [ 112.187189290000106, -7.65981856999997 ], [ 112.187108, -7.660070099999928 ], [ 112.187096900000029, -7.660147779999932 ], [ 112.187331660000041, -7.66020027999997 ], [ 112.187394680000011, -7.660214359999941 ], [ 112.187408990000108, -7.660307409999973 ], [ 112.187413170000013, -7.660334589999934 ], [ 112.187435370000117, -7.660391919999938 ], [ 112.187489010000036, -7.660441859999935 ], [ 112.187495890000037, -7.660484339999925 ], [ 112.187500100000079, -7.660510289999934 ], [ 112.187446470000054, -7.66064345999996 ], [ 112.187444580000033, -7.660643799999946 ], [ 112.187405780000063, -7.660650859999976 ], [ 112.18729665, -7.660680449999973 ], [ 112.187241870000094, -7.660679409999943 ], [ 112.18713549000006, -7.660677379999981 ], [ 112.187102450000111, -7.660676749999936 ], [ 112.187002570000118, -7.660691549999967 ], [ 112.187000850000118, -7.66069865999998 ], [ 112.18694339000001, -7.660935689999974 ], [ 112.186799120000046, -7.660946789999969 ], [ 112.186691850000102, -7.660909799999956 ], [ 112.186606770000026, -7.660883899999931 ], [ 112.18648840000003, -7.660887599999967 ], [ 112.186499500000082, -7.660798819999968 ], [ 112.186181370000099, -7.660713739999949 ], [ 112.185874350000063, -7.660632359999966 ], [ 112.185722690000034, -7.660636059999945 ], [ 112.185552530000109, -7.660595369999953 ], [ 112.185423060000062, -7.660539889999939 ], [ 112.185319480000089, -7.660454809999976 ], [ 112.185271400000033, -7.66043260999993 ], [ 112.185071650000054, -7.660380819999943 ], [ 112.18497917000002, -7.660380819999943 ], [ 112.184864490000109, -7.660362329999941 ], [ 112.184797910000043, -7.66031793999997 ], [ 112.184657340000058, -7.66025505999994 ], [ 112.184561170000052, -7.660173669999949 ], [ 112.184339220000084, -7.660066399999948 ], [ 112.184110335000014, -7.659967891999941 ], [ 112.18422006500009, -7.659350270999937 ], [ 112.184706999000014, -7.658299517999978 ], [ 112.184527602000117, -7.658094492999965 ], [ 112.183553734000043, -7.657492231999981 ], [ 112.182003232000056, -7.65687715699994 ], [ 112.180401474000064, -7.656262081999955 ], [ 112.179658259, -7.656108312999947 ], [ 112.177992430000018, -7.655762332999927 ], [ 112.17706914300004, -7.655554140999925 ], [ 112.177074623000067, -7.655528476999962 ], [ 112.17856770700007, -7.650340051999933 ], [ 112.181384954, -7.65169226699993 ], [ 112.181385348000049, -7.651692308999941 ], [ 112.181385329000022, -7.651692441999955 ], [ 112.181389901000102, -7.65169452899994 ] ] ] ] } },
{ "type": "Feature", "properties": { "fid": 6782, "kk": null, "gid": 0.0, "bstt": null, "luas": 81859.596532633353, "bsbtt": null, "idsls": "35061500031003", "kdkab": "06", "kdkec": "150", "kdsls": "1003", "nmkab": "KEDIRI", "nmkec": "KUNJANG", "nmsls": "PERSAWAHAN BABADAN", "bstt_k": null, "kddesa": "003", "kdprov": "35", "khusus": null, "muatan": null, "nmdesa": "TENGGERLOR", "nmprov": "JAWA TIMUR", "posisi": null, "rw_dki": null, "segmen": null, "subsls": null, "sumber": null, "dom_sls": null, "periode": "2025_1", "tingkat": null, "idsubsls": "3506150003100300", "nm_gedung": null, "wil_campur": null, "iddesa": "3506150003", "kdsubsls": "00" }, "geometry": { "type": "MultiPolygon", "coordinates": [ [ [ [ 112.175732423000113, -7.646470994999959 ], [ 112.175117250000085, -7.648167973999932 ], [ 112.175091622000082, -7.648238450999941 ], [ 112.175091964000103, -7.64823854499997 ], [ 112.175013552000109, -7.648431603999938 ], [ 112.175013161000038, -7.648431888999937 ], [ 112.17400405300009, -7.65148964399998 ], [ 112.174016868000081, -7.651643412999931 ], [ 112.173212929000101, -7.654055227999947 ], [ 112.173210980000022, -7.654054289999976 ], [ 112.173124180000059, -7.654012559999956 ], [ 112.173118, -7.65400958999993 ], [ 112.173117540000021, -7.654009899999949 ], [ 112.172958540000081, -7.653940839999962 ], [ 112.172838460000094, -7.653882729999964 ], [ 112.172838716000115, -7.653882039999928 ], [ 112.172864920000052, -7.653811549999944 ], [ 112.172894630000087, -7.653731659999949 ], [ 112.172741620000011, -7.653629009999975 ], [ 112.172710630000097, -7.653596049999976 ], [ 112.172619600000075, -7.653499239999974 ], [ 112.172716280000031, -7.653268179999941 ], [ 112.172717770000077, -7.65325925999997 ], [ 112.172740190000013, -7.653191979999974 ], [ 112.172819600000025, -7.652911139999958 ], [ 112.172846720000052, -7.652783309999961 ], [ 112.172900950000098, -7.652572189999944 ], [ 112.17298424, -7.652149959999974 ], [ 112.17299198, -7.652072489999966 ], [ 112.172993920000067, -7.651946589999966 ], [ 112.173005540000077, -7.651766469999927 ], [ 112.173034590000043, -7.651351979999959 ], [ 112.173017160000086, -7.651210589999948 ], [ 112.173011350000024, -7.651063389999933 ], [ 112.172997790000068, -7.650854219999928 ], [ 112.172991660000093, -7.650821519999965 ], [ 112.173128170000041, -7.650760849999926 ], [ 112.173157770000103, -7.65073125999993 ], [ 112.173174410000115, -7.650668369999948 ], [ 112.173403760000042, -7.649989589999961 ], [ 112.173749620000081, -7.650098709999952 ], [ 112.17390961000001, -7.649585459999969 ], [ 112.174111210000092, -7.649006549999967 ], [ 112.174303560000112, -7.648444289999929 ], [ 112.174344250000104, -7.648431339999945 ], [ 112.174438580000015, -7.648189049999928 ], [ 112.17467532, -7.647530609999933 ], [ 112.174764683000035, -7.64727647999996 ], [ 112.17476836000003, -7.647266023999975 ], [ 112.174782002000029, -7.647232221999957 ], [ 112.174789955000051, -7.647206018999952 ], [ 112.174793076000014, -7.647195735999958 ], [ 112.174793690000115, -7.647193989999948 ], [ 112.174793720000025, -7.647193909999942 ], [ 112.17479443000002, -7.647191569999961 ], [ 112.174810374000117, -7.64713874399996 ], [ 112.174832923000054, -7.647064449999959 ], [ 112.174897606000059, -7.646857122999961 ], [ 112.174911916000042, -7.646802308999952 ], [ 112.174947210000028, -7.646685369999943 ], [ 112.174962863000019, -7.646606707999979 ], [ 112.174965278000059, -7.646607733999929 ], [ 112.174963488000117, -7.646603466999977 ], [ 112.175187987000072, -7.645448319999957 ], [ 112.175206332000016, -7.645446026999934 ], [ 112.17522064100001, -7.645444237999925 ], [ 112.175229503000082, -7.645448574999932 ], [ 112.175241280000023, -7.645449869999936 ], [ 112.175407846000098, -7.645529820999968 ], [ 112.175657430000115, -7.645649619999972 ], [ 112.175916370000095, -7.645779089999962 ], [ 112.175938640000027, -7.645789497999942 ], [ 112.175732325000013, -7.646470961999967 ], [ 112.175732423000113, -7.646470994999959 ] ] ] ] } },
{ "type": "Feature", "properties": { "fid": 6783, "kk": null, "gid": 0.0, "bstt": null, "luas": 28552.601268182258, "bsbtt": null, "idsls": "35061500031004", "kdkab": "06", "kdkec": "150", "kdsls": "1004", "nmkab": "KEDIRI", "nmkec": "KUNJANG", "nmsls": "PERSAWAHAN BABADAN", "bstt_k": null, "kddesa": "003", "kdprov": "35", "khusus": null, "muatan": null, "nmdesa": "TENGGERLOR", "nmprov": "JAWA TIMUR", "posisi": null, "rw_dki": null, "segmen": null, "subsls": null, "sumber": null, "dom_sls": null, "periode": "2025_1", "tingkat": null, "idsubsls": "3506150003100400", "nm_gedung": null, "wil_campur": null, "iddesa": "3506150003", "kdsubsls": "00" }, "geometry": { "type": "MultiPolygon", "coordinates": [ [ [ [ 112.180266136000114, -7.650304030999962 ], [ 112.181503859000031, -7.650843509999959 ], [ 112.181385348000049, -7.651692308999941 ], [ 112.181384954, -7.65169226699993 ], [ 112.17856770700007, -7.650340051999933 ], [ 112.17857867400005, -7.650301940999952 ], [ 112.178546438000012, -7.65029132899997 ], [ 112.178546382000036, -7.650291151999966 ], [ 112.17874921900011, -7.649688742999956 ], [ 112.178758156000072, -7.649662200999956 ], [ 112.180266101000029, -7.650304117999951 ], [ 112.180266136000114, -7.650304030999962 ] ] ] ] } },
{ "type": "Feature", "properties": { "fid": 6784, "kk": null, "gid": 0.0, "bstt": null, "luas": 463237.47111869982, "bsbtt": null, "idsls": "35061500031005", "kdkab": "06", "kdkec": "150", "kdsls": "1005", "nmkab": "KEDIRI", "nmkec": "KUNJANG", "nmsls": "PERSAWAHAN WATU DUWUR", "bstt_k": null, "kddesa": "003", "kdprov": "35", "khusus": null, "muatan": null, "nmdesa": "TENGGERLOR", "nmprov": "JAWA TIMUR", "posisi": null, "rw_dki": null, "segmen": null, "subsls": null, "sumber": null, "dom_sls": null, "periode": "2025_1", "tingkat": null, "idsubsls": "3506150003100500", "nm_gedung": null, "wil_campur": null, "iddesa": "3506150003", "kdsubsls": "00" }, "geometry": { "type": "MultiPolygon", "coordinates": [ [ [ [ 112.180521713000076, -7.673859487999948 ], [ 112.18051997900011, -7.673858817999928 ], [ 112.180411060000097, -7.674336141999959 ], [ 112.181199125000035, -7.674512334999974 ], [ 112.181245842000067, -7.674302504999957 ], [ 112.181392937000055, -7.674302504999957 ], [ 112.181415362000052, -7.674206398999956 ], [ 112.182153786000072, -7.674320430999956 ], [ 112.182126930000095, -7.674394799999959 ], [ 112.182112130000064, -7.675304779999976 ], [ 112.182104730000106, -7.675826349999966 ], [ 112.182105360000037, -7.675899579999964 ], [ 112.182115830000043, -7.677132139999969 ], [ 112.182112698000083, -7.67715721299993 ], [ 112.18211253000004, -7.677158559999953 ], [ 112.182112130000064, -7.677161729999966 ], [ 112.182019660000037, -7.67715802999993 ], [ 112.1818273, -7.677128439999933 ], [ 112.181657140000084, -7.677098839999928 ], [ 112.181512880000014, -7.677069249999931 ], [ 112.181379710000101, -7.677013759999966 ], [ 112.181265040000085, -7.676973069999974 ], [ 112.181209550000062, -7.676936079999962 ], [ 112.181146670000089, -7.67689538999997 ], [ 112.181028300000094, -7.676839909999956 ], [ 112.180865540000013, -7.676777019999975 ], [ 112.180869230000098, -7.676625359999946 ], [ 112.180547410000031, -7.676547679999942 ], [ 112.180269980000048, -7.676466299999959 ], [ 112.180055430000039, -7.676414509999972 ], [ 112.179833490000078, -7.676366419999965 ], [ 112.179715120000083, -7.676340529999948 ], [ 112.179470970000011, -7.676240649999954 ], [ 112.179385900000057, -7.676433009999926 ], [ 112.179308210000045, -7.676651249999964 ], [ 112.179176900000016, -7.677004519999969 ], [ 112.179110310000056, -7.677196869999932 ], [ 112.179078870000012, -7.677252359999954 ], [ 112.179052980000051, -7.677283799999941 ], [ 112.179017840000029, -7.677272699999946 ], [ 112.178960500000017, -7.677233859999944 ], [ 112.178921660000015, -7.677202419999958 ], [ 112.178901310000015, -7.677185769999937 ], [ 112.178869870000085, -7.677148779999925 ], [ 112.178849530000093, -7.677141379999966 ], [ 112.178812540000081, -7.677161729999966 ], [ 112.178753350000079, -7.677248659999975 ], [ 112.178697860000057, -7.677404019999926 ], [ 112.178668270000117, -7.677463209999928 ], [ 112.17849071, -7.677781329999959 ], [ 112.178329800000029, -7.678053209999973 ], [ 112.178287260000047, -7.67812349999997 ], [ 112.178204030000074, -7.678217819999929 ], [ 112.178154100000029, -7.678265909999936 ], [ 112.17813005000005, -7.678293649999944 ], [ 112.178115260000027, -7.678339889999961 ], [ 112.178041270000108, -7.678478609999956 ], [ 112.177835970000046, -7.678530399999943 ], [ 112.177778640000042, -7.678511899999933 ], [ 112.177697260000059, -7.678460109999946 ], [ 112.177641770000037, -7.678413869999929 ], [ 112.177599230000055, -7.678382429999942 ], [ 112.177558540000064, -7.678328799999974 ], [ 112.177516, -7.678288099999975 ], [ 112.177406880000035, -7.678219669999976 ], [ 112.177307, -7.678182679999964 ], [ 112.177249670000037, -7.678182679999964 ], [ 112.177153490000023, -7.678193779999958 ], [ 112.177105400000073, -7.678199329999927 ], [ 112.176925990000086, -7.678134589999956 ], [ 112.176559780000048, -7.678737549999937 ], [ 112.176363730000048, -7.679114849999962 ], [ 112.176286050000044, -7.679277609999929 ], [ 112.176199120000092, -7.67931090999997 ], [ 112.175897640000017, -7.67939967999996 ], [ 112.175834760000043, -7.679490309999949 ], [ 112.17573488000005, -7.679623479999975 ], [ 112.175585070000011, -7.679584639999973 ], [ 112.175536980000061, -7.679584639999973 ], [ 112.175485190000018, -7.679610529999934 ], [ 112.175396420000084, -7.67963272999998 ], [ 112.17532613000003, -7.679695609999953 ], [ 112.175241050000068, -7.67974739999994 ], [ 112.17513378000001, -7.679776989999937 ], [ 112.175093090000018, -7.67976589999995 ], [ 112.175015410000015, -7.679725209999958 ], [ 112.17488964000006, -7.679706709999948 ], [ 112.174848950000069, -7.679677119999951 ], [ 112.174789760000067, -7.679606829999955 ], [ 112.174749070000075, -7.67955134999994 ], [ 112.17467879000003, -7.679510659999949 ], [ 112.1746270000001, -7.679429279999965 ], [ 112.174564120000014, -7.679381189999958 ], [ 112.174519730000043, -7.679340499999967 ], [ 112.174445750000018, -7.679255419999947 ], [ 112.174401360000047, -7.67920732999994 ], [ 112.174375460000078, -7.679188839999938 ], [ 112.174342260000117, -7.679170389999967 ], [ 112.174342170000045, -7.679169879999961 ], [ 112.174329230000012, -7.679170339999928 ], [ 112.174299630000064, -7.679175889999954 ], [ 112.174249690000011, -7.679175889999954 ], [ 112.174245550000023, -7.679175739999948 ], [ 112.174236210000117, -7.679175389999955 ], [ 112.174205710000024, -7.679160139999965 ], [ 112.174204840000016, -7.679159709999965 ], [ 112.174204800000098, -7.679159579999975 ], [ 112.174199290000047, -7.679157389999943 ], [ 112.174152130000039, -7.679137049999952 ], [ 112.174037460000022, -7.679089879999935 ], [ 112.174075370000082, -7.678906779999977 ], [ 112.174092950000045, -7.678867939999975 ], [ 112.174132710000094, -7.678845739999929 ], [ 112.174173400000086, -7.678850369999964 ], [ 112.17421317000003, -7.678793029999952 ], [ 112.174323220000019, -7.678448089999961 ], [ 112.174372230000017, -7.678235389999941 ], [ 112.17437510000002, -7.67823336999993 ], [ 112.174373610000089, -7.678221519999965 ], [ 112.174412460000099, -7.67808464999996 ], [ 112.17440876, -7.677999579999948 ], [ 112.174412460000099, -7.677925589999973 ], [ 112.174399510000057, -7.677834969999935 ], [ 112.174347720000014, -7.67777762999998 ], [ 112.174353270000097, -7.677731389999963 ], [ 112.174403210000037, -7.67758157999998 ], [ 112.17441615000007, -7.677483549999977 ], [ 112.174438350000059, -7.677447489999963 ], [ 112.174477190000061, -7.677349459999959 ], [ 112.174479960000099, -7.677323559999934 ], [ 112.17448274000003, -7.677258829999971 ], [ 112.174493840000082, -7.677202419999958 ], [ 112.174493840000082, -7.677128439999933 ], [ 112.174490140000103, -7.677069249999931 ], [ 112.174519730000043, -7.677017459999945 ], [ 112.174516030000063, -7.676976769999953 ], [ 112.174530830000094, -7.676902789999929 ], [ 112.174553020000076, -7.676795519999928 ], [ 112.174553020000076, -7.676706739999929 ], [ 112.1746233, -7.676529179999932 ], [ 112.174608510000098, -7.67651068999993 ], [ 112.174534530000074, -7.676440399999933 ], [ 112.174497540000061, -7.676381219999939 ], [ 112.17443465000008, -7.67626654999998 ], [ 112.174364370000035, -7.676155569999935 ], [ 112.174371770000107, -7.676040899999975 ], [ 112.174386560000016, -7.675900339999941 ], [ 112.174467940000113, -7.67564509999994 ], [ 112.174545620000117, -7.675700579999955 ], [ 112.17464920000009, -7.675700579999955 ], [ 112.174767570000085, -7.675674689999937 ], [ 112.174778670000023, -7.675489739999932 ], [ 112.174776920000113, -7.675485139999978 ], [ 112.174812310000107, -7.674877249999952 ], [ 112.174886290000018, -7.674666399999978 ], [ 112.174908480000113, -7.674499939999976 ], [ 112.174882590000038, -7.674414859999956 ], [ 112.174845600000026, -7.674366769999949 ], [ 112.174967670000115, -7.673970969999971 ], [ 112.175426360000074, -7.672387749999928 ], [ 112.175411560000043, -7.672350759999972 ], [ 112.175211810000064, -7.672232389999976 ], [ 112.175108230000092, -7.672180599999933 ], [ 112.174353620000034, -7.671892069999956 ], [ 112.174876542000106, -7.670271750999973 ], [ 112.175495690000048, -7.67046006299995 ], [ 112.175649459000056, -7.670517725999957 ], [ 112.175707122000063, -7.670613831999958 ], [ 112.176302976000102, -7.670745175999969 ], [ 112.176421506000111, -7.670793228999969 ], [ 112.176568868000118, -7.670825263999973 ], [ 112.176719433000017, -7.670857298999977 ], [ 112.176543240000115, -7.671920865999937 ], [ 112.176344622000101, -7.672699320999925 ], [ 112.176680991000012, -7.672792221999941 ], [ 112.176805928000022, -7.672894734999943 ], [ 112.17688281300002, -7.672933176999948 ], [ 112.177183943000045, -7.672949194999944 ], [ 112.177421003000063, -7.672981229999948 ], [ 112.177690099000074, -7.673077334999959 ], [ 112.177837460000092, -7.673128591999955 ], [ 112.178036078000105, -7.673157422999964 ], [ 112.178112963000103, -7.673138201999961 ], [ 112.178253917, -7.673147812999957 ], [ 112.178516606000017, -7.673093352999956 ], [ 112.178679985000031, -7.673032485999954 ], [ 112.17888821300005, -7.673010061999946 ], [ 112.179038779000052, -7.673022875999948 ], [ 112.179154105000066, -7.673061317999952 ], [ 112.179221379000069, -7.67312538799996 ], [ 112.179395971000076, -7.673151015999963 ], [ 112.179862082000113, -7.673493791999931 ], [ 112.18018483600008, -7.673735657999941 ], [ 112.180516, -7.673846579999974 ], [ 112.180521713000076, -7.673859487999948 ] ] ] ] } },
{ "type": "Feature", "properties": { "fid": 6785, "kk": null, "gid": 0.0, "bstt": null, "luas": 247918.58587420583, "bsbtt": null, "idsls": "35061500031006", "kdkab": "06", "kdkec": "150", "kdsls": "1006", "nmkab": "KEDIRI", "nmkec": "KUNJANG", "nmsls": "PERSAWAHAN WATU DUWUR", "bstt_k": null, "kddesa": "003", "kdprov": "35", "khusus": null, "muatan": null, "nmdesa": "TENGGERLOR", "nmprov": "JAWA TIMUR", "posisi": null, "rw_dki": null, "segmen": null, "subsls": null, "sumber": null, "dom_sls": null, "periode": "2025_1", "tingkat": null, "idsubsls": "3506150003100600", "nm_gedung": null, "wil_campur": null, "iddesa": "3506150003", "kdsubsls": "00" }, "geometry": { "type": "MultiPolygon", "coordinates": [ [ [ [ 112.180543429000068, -7.670016414999964 ], [ 112.180744651000055, -7.67004280499998 ], [ 112.18161280400011, -7.670153325999934 ], [ 112.18176977600001, -7.670194971999933 ], [ 112.181888306000019, -7.670236617999933 ], [ 112.181854461000057, -7.670350744999951 ], [ 112.181853843000113, -7.670350567999947 ], [ 112.181645615000093, -7.670936810999933 ], [ 112.18127400700007, -7.671776131999934 ], [ 112.181094610000059, -7.672067651999953 ], [ 112.180899195000052, -7.67238800399997 ], [ 112.180757251000045, -7.672540682999966 ], [ 112.180757039000014, -7.672540570999956 ], [ 112.18060967800011, -7.672700746999965 ], [ 112.180574439000111, -7.672880143999976 ], [ 112.180635306000113, -7.673005080999928 ], [ 112.180696173000115, -7.673299804999942 ], [ 112.181045356000027, -7.673998170999937 ], [ 112.180968471000028, -7.674018993999937 ], [ 112.180843534000019, -7.673983754999938 ], [ 112.180521713000076, -7.673859487999948 ], [ 112.180516, -7.673846579999974 ], [ 112.18018483600008, -7.673735657999941 ], [ 112.179862082000113, -7.673493791999931 ], [ 112.179395971000076, -7.673151015999963 ], [ 112.179221379000069, -7.67312538799996 ], [ 112.179154105000066, -7.673061317999952 ], [ 112.179038779000052, -7.673022875999948 ], [ 112.17888821300005, -7.673010061999946 ], [ 112.178679985000031, -7.673032485999954 ], [ 112.178516606000017, -7.673093352999956 ], [ 112.178253917, -7.673147812999957 ], [ 112.178112963000103, -7.673138201999961 ], [ 112.178036078000105, -7.673157422999964 ], [ 112.177837460000092, -7.673128591999955 ], [ 112.177690099000074, -7.673077334999959 ], [ 112.177421003000063, -7.672981229999948 ], [ 112.177183943000045, -7.672949194999944 ], [ 112.17688281300002, -7.672933176999948 ], [ 112.176805928000022, -7.672894734999943 ], [ 112.176680991000012, -7.672792221999941 ], [ 112.176344622000101, -7.672699320999925 ], [ 112.176543240000115, -7.671920865999937 ], [ 112.176719433000017, -7.670857298999977 ], [ 112.176568868000118, -7.670825263999973 ], [ 112.176421506000111, -7.670793228999969 ], [ 112.176302976000102, -7.670745175999969 ], [ 112.175707122000063, -7.670613831999958 ], [ 112.175649459000056, -7.670517725999957 ], [ 112.175495690000048, -7.67046006299995 ], [ 112.174876542000106, -7.670271750999973 ], [ 112.174878320000062, -7.670266239999933 ], [ 112.174878890000059, -7.67026446999995 ], [ 112.174753120000105, -7.670190489999925 ], [ 112.174860390000049, -7.669790979999959 ], [ 112.175156320000042, -7.668614669999954 ], [ 112.175230300000067, -7.668507389999945 ], [ 112.17523613000003, -7.668505069999981 ], [ 112.175309630000015, -7.66828806999996 ], [ 112.175320593000038, -7.668234785999971 ], [ 112.1764006840001, -7.668594815999938 ], [ 112.176631337000117, -7.668722956999943 ], [ 112.176970909000033, -7.669094564999966 ], [ 112.177323296000054, -7.669286774999932 ], [ 112.17780382300009, -7.669491799999946 ], [ 112.177996034000103, -7.669485392999945 ], [ 112.178130582000108, -7.669466171999943 ], [ 112.178681587000028, -7.669594312999948 ], [ 112.179066009000053, -7.669748081999956 ], [ 112.179565757000091, -7.66978652399996 ], [ 112.179962993000117, -7.669940292999968 ], [ 112.180543429000068, -7.670016414999964 ] ] ] ] } },
{ "type": "Feature", "properties": { "fid": 6786, "kk": null, "gid": 0.0, "bstt": null, "luas": 478228.92902213091, "bsbtt": null, "idsls": "35061500031008", "kdkab": "06", "kdkec": "150", "kdsls": "1008", "nmkab": "KEDIRI", "nmkec": "KUNJANG", "nmsls": "PERSAWAHAN TENGGER LOR", "bstt_k": null, "kddesa": "003", "kdprov": "35", "khusus": null, "muatan": null, "nmdesa": "TENGGERLOR", "nmprov": "JAWA TIMUR", "posisi": null, "rw_dki": null, "segmen": null, "subsls": null, "sumber": null, "dom_sls": null, "periode": "2025_1", "tingkat": null, "idsubsls": "3506150003100800", "nm_gedung": null, "wil_campur": null, "iddesa": "3506150003", "kdsubsls": "00" }, "geometry": { "type": "MultiPolygon", "coordinates": [ [ [ [ 112.184110335000014, -7.659967891999941 ], [ 112.184104010000055, -7.659965169999964 ], [ 112.183919620000097, -7.660448079999981 ], [ 112.183890800000086, -7.660503499999948 ], [ 112.183659620000071, -7.660948069999961 ], [ 112.18361402000005, -7.661048379999954 ], [ 112.18371685000011, -7.661159489999932 ], [ 112.183824120000054, -7.66129264999995 ], [ 112.183883310000056, -7.661446169999977 ], [ 112.183896250000089, -7.661586729999954 ], [ 112.183851870000012, -7.661731 ], [ 112.183779730000083, -7.661866009999926 ], [ 112.183683560000077, -7.662028769999949 ], [ 112.18365433200006, -7.662021136999954 ], [ 112.183650440000065, -7.662020119999966 ], [ 112.183315500000049, -7.661932599999943 ], [ 112.18312499000001, -7.661899309999967 ], [ 112.182723640000063, -7.66183456999994 ], [ 112.182366680000086, -7.661790179999969 ], [ 112.182057770000029, -7.661749449999945 ], [ 112.18192134800006, -7.661731452999959 ], [ 112.18192134200001, -7.66173138399995 ], [ 112.181982509000022, -7.661522053999931 ], [ 112.181423496000093, -7.661387506999972 ], [ 112.181364231000089, -7.66155729299993 ], [ 112.180938163000064, -7.661417939999978 ], [ 112.180937920000019, -7.661418023999943 ], [ 112.180028217000086, -7.661080553999966 ], [ 112.18002824000007, -7.661080494999965 ], [ 112.178855753000107, -7.660673647999943 ], [ 112.178541808000091, -7.661714790999952 ], [ 112.178306350000071, -7.66163310099995 ], [ 112.178243881000071, -7.661863553999979 ], [ 112.178244197000026, -7.66186808599997 ], [ 112.178039736000073, -7.662428254999952 ], [ 112.17648775400005, -7.661849738999933 ], [ 112.176705593000065, -7.66084383499998 ], [ 112.176116146000027, -7.660690065999972 ], [ 112.176115896000056, -7.660691608999969 ], [ 112.176115771000013, -7.660690741999929 ], [ 112.176382664000016, -7.659276589999934 ], [ 112.176690201000042, -7.657328851999978 ], [ 112.17706914300004, -7.655554140999925 ], [ 112.177992430000018, -7.655762332999927 ], [ 112.179658259, -7.656108312999947 ], [ 112.180401474000064, -7.656262081999955 ], [ 112.182003232000056, -7.65687715699994 ], [ 112.183553734000043, -7.657492231999981 ], [ 112.184527602000117, -7.658094492999965 ], [ 112.184706999000014, -7.658299517999978 ], [ 112.18422006500009, -7.659350270999937 ], [ 112.184110335000014, -7.659967891999941 ] ] ] ] } },
{ "type": "Feature", "properties": { "fid": 6787, "kk": null, "gid": 0.0, "bstt": null, "luas": 43359.953127265522, "bsbtt": null, "idsls": "35061500030010", "kdkab": "06", "kdkec": "150", "kdsls": "0010", "nmkab": "KEDIRI", "nmkec": "KUNJANG", "nmsls": "RT 003 RW 002 DUSUN BABADAN", "bstt_k": null, "kddesa": "003", "kdprov": "35", "khusus": null, "muatan": null, "nmdesa": "TENGGERLOR", "nmprov": "JAWA TIMUR", "posisi": null, "rw_dki": null, "segmen": null, "subsls": null, "sumber": null, "dom_sls": null, "periode": "2025_1", "tingkat": null, "idsubsls": "3506150003001000", "nm_gedung": null, "wil_campur": null, "iddesa": "3506150003", "kdsubsls": "00" }, "geometry": { "type": "MultiPolygon", "coordinates": [ [ [ [ 112.177685687, -7.646637992999956 ], [ 112.177612565000118, -7.646823046999941 ], [ 112.17822422100005, -7.647122933999981 ], [ 112.178157724000016, -7.647290664999957 ], [ 112.179333064000048, -7.647836274999975 ], [ 112.17934949000005, -7.647843899999941 ], [ 112.17934979000006, -7.647844039999939 ], [ 112.179340380000099, -7.64787456199997 ], [ 112.179259381000065, -7.648137299999973 ], [ 112.179215592000105, -7.648236524999959 ], [ 112.179037165000068, -7.648197847999938 ], [ 112.179008690000046, -7.648268507999944 ], [ 112.178945451000118, -7.648258522999981 ], [ 112.178769258000102, -7.648280947999979 ], [ 112.178612286000089, -7.648232894999978 ], [ 112.178426482000077, -7.64820406399997 ], [ 112.178215050000063, -7.648139992999972 ], [ 112.178199032000066, -7.648101550999968 ], [ 112.17797478600005, -7.648018259999958 ], [ 112.177888291000045, -7.648005445999956 ], [ 112.177776168000037, -7.648027869999964 ], [ 112.177637684000047, -7.64797247599995 ], [ 112.177481399000044, -7.647909961999972 ], [ 112.177515046000053, -7.647795560999953 ], [ 112.177366415000051, -7.647744164999949 ], [ 112.177348357000028, -7.647801116999972 ], [ 112.177250647000051, -7.647761422999963 ], [ 112.177273347000096, -7.647678877999965 ], [ 112.177152497000066, -7.647630259999971 ], [ 112.177077371000109, -7.647641917999977 ], [ 112.176948302000028, -7.647595532999958 ], [ 112.176906150000036, -7.647689753999941 ], [ 112.176376314000095, -7.647485178999943 ], [ 112.176271102000101, -7.647432310999932 ], [ 112.176270516000045, -7.647432015999925 ], [ 112.176276726000083, -7.647410279999974 ], [ 112.17617580000001, -7.64735869499998 ], [ 112.176289705000045, -7.64704476299994 ], [ 112.176189691000104, -7.647000312999978 ], [ 112.176306955000086, -7.646664155999929 ], [ 112.175732423000113, -7.646470994999959 ], [ 112.175732325000013, -7.646470961999967 ], [ 112.175938640000027, -7.645789497999942 ], [ 112.175949920000107, -7.645794769999952 ], [ 112.175950320000084, -7.645794729999977 ], [ 112.17651813000009, -7.646064769999953 ], [ 112.177685500000052, -7.64662267999995 ], [ 112.177690750000011, -7.646625179999944 ], [ 112.177685687, -7.646637992999956 ] ] ] ] } },
{ "type": "Feature", "properties": { "fid": 6788, "kk": null, "gid": 0.0, "bstt": null, "luas": 16699.598586462016, "bsbtt": null, "idsls": "35061500030018", "kdkab": "06", "kdkec": "150", "kdsls": "0018", "nmkab": "KEDIRI", "nmkec": "KUNJANG", "nmsls": "RT 002 RW 002 DUSUN TENGGERLOR", "bstt_k": null, "kddesa": "003", "kdprov": "35", "khusus": null, "muatan": null, "nmdesa": "TENGGERLOR", "nmprov": "JAWA TIMUR", "posisi": null, "rw_dki": null, "segmen": null, "subsls": null, "sumber": null, "dom_sls": null, "periode": "2025_1", "tingkat": null, "idsubsls": "3506150003001800", "nm_gedung": null, "wil_campur": null, "iddesa": "3506150003", "kdsubsls": "00" }, "geometry": { "type": "MultiPolygon", "coordinates": [ [ [ [ 112.18192134800006, -7.661731452999959 ], [ 112.18192117000001, -7.661731429999975 ], [ 112.181913580000014, -7.661756839999953 ], [ 112.181812740000055, -7.662094429999968 ], [ 112.181596340000056, -7.662812059999965 ], [ 112.181581136000091, -7.662854892999974 ], [ 112.181499243000076, -7.66282371099993 ], [ 112.181498171000044, -7.662819570999943 ], [ 112.181019033000098, -7.662659984999948 ], [ 112.181015190000039, -7.662661475999926 ], [ 112.18071068200004, -7.662549879999972 ], [ 112.180698188000065, -7.662579277999953 ], [ 112.180496598000104, -7.662506362999977 ], [ 112.180561987000033, -7.66235226799995 ], [ 112.180749936000097, -7.661909347999938 ], [ 112.180792217000089, -7.661809709999943 ], [ 112.180792403000055, -7.661809569999946 ], [ 112.180944170000089, -7.661420342999975 ], [ 112.180937920000019, -7.661418023999943 ], [ 112.180938163000064, -7.661417939999978 ], [ 112.181364231000089, -7.66155729299993 ], [ 112.181423496000093, -7.661387506999972 ], [ 112.181982509000022, -7.661522053999931 ], [ 112.18192134200001, -7.66173138399995 ], [ 112.18192134800006, -7.661731452999959 ] ] ] ] } },
{ "type": "Feature", "properties": { "fid": 6789, "kk": null, "gid": 0.0, "bstt": null, "luas": 254028.37546424443, "bsbtt": null, "idsls": "35061500031007", "kdkab": "06", "kdkec": "150", "kdsls": "1007", "nmkab": "KEDIRI", "nmkec": "KUNJANG", "nmsls": "PERSAWAHAN DGN LAPANGAN TENGGER LOR", "bstt_k": null, "kddesa": "003", "kdprov": "35", "khusus": null, "muatan": null, "nmdesa": "TENGGERLOR", "nmprov": "JAWA TIMUR", "posisi": null, "rw_dki": null, "segmen": null, "subsls": null, "sumber": null, "dom_sls": null, "periode": "2025_1", "tingkat": null, "idsubsls": "3506150003100700", "nm_gedung": null, "wil_campur": null, "iddesa": "3506150003", "kdsubsls": "00" }, "geometry": { "type": "MultiPolygon", "coordinates": [ [ [ [ 112.179369435000012, -7.663962063999975 ], [ 112.179671146000032, -7.664081199999941 ], [ 112.179365090000033, -7.664796559999957 ], [ 112.178729370000042, -7.666356279999945 ], [ 112.178728893000084, -7.666357448999975 ], [ 112.17872881400001, -7.666357485999981 ], [ 112.178670750000038, -7.666407339999978 ], [ 112.178577848000032, -7.666703665999933 ], [ 112.17836481400002, -7.666621975999931 ], [ 112.178241489000015, -7.666980739999929 ], [ 112.178129556000044, -7.666963350999936 ], [ 112.178035052000041, -7.667213224999955 ], [ 112.178017433000036, -7.667261277999955 ], [ 112.1780184590001, -7.667261745999951 ], [ 112.177906111000084, -7.667692149999937 ], [ 112.177907220000066, -7.667692562999946 ], [ 112.177759550000019, -7.668296813999973 ], [ 112.17910182300011, -7.66875811999995 ], [ 112.180142966000062, -7.66910409999997 ], [ 112.180184611000072, -7.669030418999967 ], [ 112.180524184000092, -7.669120117999967 ], [ 112.180524620000028, -7.669118222999941 ], [ 112.180730250000011, -7.669177652999963 ], [ 112.180543429000068, -7.670016414999964 ], [ 112.179962993000117, -7.669940292999968 ], [ 112.179565757000091, -7.66978652399996 ], [ 112.179066009000053, -7.669748081999956 ], [ 112.178681587000028, -7.669594312999948 ], [ 112.178130582000108, -7.669466171999943 ], [ 112.177996034000103, -7.669485392999945 ], [ 112.17780382300009, -7.669491799999946 ], [ 112.177323296000054, -7.669286774999932 ], [ 112.176970909000033, -7.669094564999966 ], [ 112.176631337000117, -7.668722956999943 ], [ 112.1764006840001, -7.668594815999938 ], [ 112.175320593000038, -7.668234785999971 ], [ 112.175322390000019, -7.668226048999941 ], [ 112.175323970000022, -7.668218369999977 ], [ 112.175324640000099, -7.668215119999957 ], [ 112.175333460000047, -7.668210029999955 ], [ 112.175703370000065, -7.666933839999956 ], [ 112.175999300000058, -7.666023859999939 ], [ 112.17561089000003, -7.665938779999976 ], [ 112.17545245000008, -7.665907089999962 ], [ 112.1753797, -7.665892539999959 ], [ 112.175033830000075, -7.665811159999976 ], [ 112.175014020000049, -7.665806079999982 ], [ 112.17501409800002, -7.665805710999962 ], [ 112.175028150000117, -7.665739339999959 ], [ 112.175062960000105, -7.665574879999951 ], [ 112.175101800000107, -7.66542321999998 ], [ 112.175288610000052, -7.664742579999938 ], [ 112.175503150000054, -7.663893639999969 ], [ 112.175695510000082, -7.663124229999937 ], [ 112.175767640000117, -7.662843099999975 ], [ 112.1757776500001, -7.662811499999975 ], [ 112.17586166000001, -7.66254626999995 ], [ 112.175861944000076, -7.662545400999932 ], [ 112.17936931600002, -7.663962456999968 ], [ 112.179369435000012, -7.663962063999975 ] ] ] ] } },
{ "type": "Feature", "properties": { "fid": 6790, "kk": null, "gid": 0.0, "bstt": null, "luas": 27534.389595410001, "bsbtt": null, "idsls": "35061500030013", "kdkab": "06", "kdkec": "150", "kdsls": "0013", "nmkab": "KEDIRI", "nmkec": "KUNJANG", "nmsls": "RT 003 RW 003 DUSUN BABADAN", "bstt_k": null, "kddesa": "003", "kdprov": "35", "khusus": null, "muatan": null, "nmdesa": "TENGGERLOR", "nmprov": "JAWA TIMUR", "posisi": null, "rw_dki": null, "segmen": null, "subsls": null, "sumber": null, "dom_sls": null, "periode": "2025_1", "tingkat": null, "idsubsls": "3506150003001300", "nm_gedung": null, "wil_campur": null, "iddesa": "3506150003", "kdsubsls": "00" }, "geometry": { "type": "MultiPolygon", "coordinates": [ [ [ [ 112.180902145, -7.649775253999962 ], [ 112.180962907000094, -7.649805473999947 ], [ 112.18175790500004, -7.650200868999946 ], [ 112.181777330000045, -7.650210529999981 ], [ 112.181739100000073, -7.65045903999993 ], [ 112.181738830000086, -7.650460791999933 ], [ 112.181737803000033, -7.650467462999927 ], [ 112.18169634000003, -7.650619495999933 ], [ 112.181615568000097, -7.651151239999933 ], [ 112.181688302000111, -7.651170896999929 ], [ 112.181662684000116, -7.651819043999978 ], [ 112.181662660000029, -7.651819639999928 ], [ 112.182469859000093, -7.652201843999933 ], [ 112.182520418000081, -7.652225782999949 ], [ 112.182573123000111, -7.652250738999953 ], [ 112.18258886000001, -7.652258189999941 ], [ 112.182622451000043, -7.652274091999971 ], [ 112.182639220000056, -7.652282029999981 ], [ 112.182395080000106, -7.652918279999938 ], [ 112.182386700000052, -7.652923659999942 ], [ 112.182395830000019, -7.652927979999959 ], [ 112.182372079000061, -7.65298639599996 ], [ 112.181163460000107, -7.652430709999976 ], [ 112.181389901000102, -7.65169452899994 ], [ 112.181385329000022, -7.651692441999955 ], [ 112.181385348000049, -7.651692308999941 ], [ 112.181503859000031, -7.650843509999959 ], [ 112.180266136000114, -7.650304030999962 ], [ 112.180429480000043, -7.649903678999976 ], [ 112.180595138000058, -7.649622561999934 ], [ 112.180902145, -7.649775253999962 ] ] ] ] } },
{ "type": "Feature", "properties": { "fid": 6791, "kk": null, "gid": 0.0, "bstt": null, "luas": 9270.679290653552, "bsbtt": null, "idsls": "35061500030011", "kdkab": "06", "kdkec": "150", "kdsls": "0011", "nmkab": "KEDIRI", "nmkec": "KUNJANG", "nmsls": "RT 001 RW 003 DUSUN BABADAN", "bstt_k": null, "kddesa": "003", "kdprov": "35", "khusus": null, "muatan": null, "nmdesa": "TENGGERLOR", "nmprov": "JAWA TIMUR", "posisi": null, "rw_dki": null, "segmen": null, "subsls": null, "sumber": null, "dom_sls": null, "periode": "2025_1", "tingkat": null, "idsubsls": "3506150003001100", "nm_gedung": null, "wil_campur": null, "iddesa": "3506150003", "kdsubsls": "00" }, "geometry": { "type": "MultiPolygon", "coordinates": [ [ [ [ 112.179840547000026, -7.648405089999926 ], [ 112.179778189000103, -7.648584910999944 ], [ 112.179809034000073, -7.64859570699997 ], [ 112.179738091000104, -7.648811232999947 ], [ 112.179830625000022, -7.64884516199993 ], [ 112.179705037000076, -7.649218898999948 ], [ 112.179635924000081, -7.649187741999981 ], [ 112.179528190000042, -7.649416674999941 ], [ 112.179213696000033, -7.649288953999928 ], [ 112.178906189000031, -7.649191256999927 ], [ 112.178906158000018, -7.649191246999976 ], [ 112.178955642, -7.649034699999959 ], [ 112.179188841000041, -7.648296953999932 ], [ 112.179188919000012, -7.648296965999975 ], [ 112.179215592000105, -7.648236524999959 ], [ 112.179259381000065, -7.648137299999973 ], [ 112.179256770000052, -7.648145769999928 ], [ 112.179840547000026, -7.648405089999926 ] ] ] ] } },
{ "type": "Feature", "properties": { "fid": 6792, "kk": null, "gid": 0.0, "bstt": null, "luas": 614306.49811209447, "bsbtt": null, "idsls": "35061500031001", "kdkab": "06", "kdkec": "150", "kdsls": "1001", "nmkab": "KEDIRI", "nmkec": "KUNJANG", "nmsls": "PERSAWAHAN WANGKAL DAN BABADAN", "bstt_k": null, "kddesa": "003", "kdprov": "35", "khusus": null, "muatan": null, "nmdesa": "TENGGERLOR", "nmprov": "JAWA TIMUR", "posisi": null, "rw_dki": null, "segmen": null, "subsls": null, "sumber": null, "dom_sls": null, "periode": "2025_1", "tingkat": null, "idsubsls": "3506150003100100", "nm_gedung": null, "wil_campur": null, "iddesa": "3506150003", "kdsubsls": "00" }, "geometry": { "type": "MultiPolygon", "coordinates": [ [ [ [ 112.171844232000012, -7.658620369999937 ], [ 112.172005178000063, -7.65831650299998 ], [ 112.171916678000116, -7.658235868999952 ], [ 112.172153700000081, -7.656949659999952 ], [ 112.172129570000038, -7.656845129999965 ], [ 112.172133450000047, -7.656573969999954 ], [ 112.172183810000092, -7.656091699999934 ], [ 112.17218962000004, -7.656004539999969 ], [ 112.172408480000058, -7.656014219999975 ], [ 112.172553740000012, -7.656000669999969 ], [ 112.172635090000085, -7.655987109999955 ], [ 112.172774540000091, -7.655987109999955 ], [ 112.17285168, -7.655979069999944 ], [ 112.17285182, -7.655978019999964 ], [ 112.172853950000103, -7.655979359999947 ], [ 112.172896560000027, -7.655980329999977 ], [ 112.172932390000028, -7.655692709999926 ], [ 112.172969190000117, -7.655337299999928 ], [ 112.173028270000032, -7.654810479999981 ], [ 112.173041500000068, -7.654609249999965 ], [ 112.173049180000021, -7.654553779999958 ], [ 112.173214180000059, -7.654055829999947 ], [ 112.173212929000101, -7.654055227999947 ], [ 112.174016868000081, -7.651643412999931 ], [ 112.17400405300009, -7.65148964399998 ], [ 112.175013161000038, -7.648431888999937 ], [ 112.175013552000109, -7.648431603999938 ], [ 112.175012735000109, -7.648433614999931 ], [ 112.175420614000018, -7.648589756999968 ], [ 112.175422785000023, -7.648590587999934 ], [ 112.17530745900001, -7.648891717999959 ], [ 112.178546213000118, -7.650291654999933 ], [ 112.178546382000036, -7.650291151999966 ], [ 112.178546438000012, -7.65029132899997 ], [ 112.17857867400005, -7.650301940999952 ], [ 112.17856770700007, -7.650340051999933 ], [ 112.177074623000067, -7.655528476999962 ], [ 112.17706914300004, -7.655554140999925 ], [ 112.176690201000042, -7.657328851999978 ], [ 112.176382664000016, -7.659276589999934 ], [ 112.176115771000013, -7.660690741999929 ], [ 112.176115896000056, -7.660691608999969 ], [ 112.175818798000023, -7.662527934999957 ], [ 112.175815980000039, -7.662526799999966 ], [ 112.175413910000088, -7.662364869999976 ], [ 112.175186880000069, -7.662273439999979 ], [ 112.174872460000074, -7.662147669999968 ], [ 112.17391624000004, -7.661764809999966 ], [ 112.173150530000044, -7.661454079999942 ], [ 112.173120441000037, -7.661442502999932 ], [ 112.17331126800002, -7.660768451999957 ], [ 112.173410577000027, -7.660797283999955 ], [ 112.173458630000027, -7.660643514999947 ], [ 112.172917236000103, -7.660441693999928 ], [ 112.173160703, -7.659672849999936 ], [ 112.172847521000108, -7.659585854999932 ], [ 112.172959682000055, -7.658941646999949 ], [ 112.172879594000051, -7.658893594999938 ], [ 112.172559283000055, -7.658820540999955 ], [ 112.172571680000033, -7.658830669999929 ], [ 112.172535860000039, -7.658846159999939 ], [ 112.17248222, -7.658829509999975 ], [ 112.172343500000011, -7.658790669999973 ], [ 112.172044269000025, -7.658690925999963 ], [ 112.171988390000024, -7.658672299999978 ], [ 112.171844232000012, -7.658620369999937 ] ] ] ] } }
]
}
