{
"type": "FeatureCollection",
"name": "iddesa_3506150012",
"crs": { "type": "name", "properties": { "name": "urn:ogc:def:crs:OGC:1.3:CRS84" } },
"features": [
{ "type": "Feature", "properties": { "fid": 7030, "kk": null, "gid": 0.0, "bstt": null, "luas": 12098.07544205524, "bsbtt": null, "idsls": "35061500120003", "kdkab": "06", "kdkec": "150", "kdsls": "0003", "nmkab": "KEDIRI", "nmkec": "KUNJANG", "nmsls": "RT 001 RW 002 DUSUN GAMBIRAN", "bstt_k": null, "kddesa": "012", "kdprov": "35", "khusus": null, "muatan": null, "nmdesa": "PARELOR", "nmprov": "JAWA TIMUR", "posisi": null, "rw_dki": null, "segmen": null, "subsls": null, "sumber": null, "dom_sls": null, "periode": "2025_1", "tingkat": null, "idsubsls": "3506150012000300", "nm_gedung": null, "wil_campur": null, "iddesa": "3506150012", "kdsubsls": "00" }, "geometry": { "type": "MultiPolygon", "coordinates": [ [ [ [ 112.164180983000051, -7.637100124999961 ], [ 112.163946352000039, -7.637658383999963 ], [ 112.163939716000073, -7.637655109999969 ], [ 112.162346687000081, -7.636869135999973 ], [ 112.162395840000045, -7.636746689999939 ], [ 112.16247963, -7.636588079999967 ], [ 112.16257235, -7.636406787999931 ], [ 112.164180983000051, -7.637100124999961 ] ] ] ] } },
{ "type": "Feature", "properties": { "fid": 7031, "kk": null, "gid": 0.0, "bstt": null, "luas": 13502.474765122985, "bsbtt": null, "idsls": "35061500120004", "kdkab": "06", "kdkec": "150", "kdsls": "0004", "nmkab": "KEDIRI", "nmkec": "KUNJANG", "nmsls": "RT 001 RW 001 DUSUN GAMBIRAN", "bstt_k": null, "kddesa": "012", "kdprov": "35", "khusus": null, "muatan": null, "nmdesa": "PARELOR", "nmprov": "JAWA TIMUR", "posisi": null, "rw_dki": null, "segmen": null, "subsls": null, "sumber": null, "dom_sls": null, "periode": "2025_1", "tingkat": null, "idsubsls": "3506150012000400", "nm_gedung": null, "wil_campur": null, "iddesa": "3506150012", "kdsubsls": "00" }, "geometry": { "type": "MultiPolygon", "coordinates": [ [ [ [ 112.16570553400004, -7.636823187999937 ], [ 112.165473087, -7.63750015599993 ], [ 112.165476061000049, -7.637501364999935 ], [ 112.165444901000114, -7.637634314999957 ], [ 112.165447124000025, -7.637635152999962 ], [ 112.165348239000082, -7.637908323999966 ], [ 112.165534383000022, -7.637980542999969 ], [ 112.165416132000018, -7.638263968999979 ], [ 112.165047996000112, -7.638090602999966 ], [ 112.165004245000091, -7.638212773999953 ], [ 112.163952823000045, -7.637666234999926 ], [ 112.163954766000074, -7.637662534999947 ], [ 112.163946352000039, -7.637658383999963 ], [ 112.164180983000051, -7.637100124999961 ], [ 112.164205202000062, -7.637110563999954 ], [ 112.165239342000064, -7.637556288999974 ], [ 112.165249354000025, -7.63756060399993 ], [ 112.165256603000103, -7.63756333699996 ], [ 112.165302416000031, -7.637430762999941 ], [ 112.165535035000062, -7.63675761099995 ], [ 112.16570553400004, -7.636823187999937 ] ] ] ] } },
{ "type": "Feature", "properties": { "fid": 7032, "kk": null, "gid": 0.0, "bstt": null, "luas": 37034.761845515903, "bsbtt": null, "idsls": "35061500120001", "kdkab": "06", "kdkec": "150", "kdsls": "0001", "nmkab": "KEDIRI", "nmkec": "KUNJANG", "nmsls": "RT 002 RW 001 DUSUN GAMBIRAN", "bstt_k": null, "kddesa": "012", "kdprov": "35", "khusus": null, "muatan": null, "nmdesa": "PARELOR", "nmprov": "JAWA TIMUR", "posisi": null, "rw_dki": null, "segmen": null, "subsls": null, "sumber": null, "dom_sls": null, "periode": "2025_1", "tingkat": null, "idsubsls": "3506150012000100", "nm_gedung": null, "wil_campur": null, "iddesa": "3506150012", "kdsubsls": "00" }, "geometry": { "type": "MultiPolygon", "coordinates": [ [ [ [ 112.16346442400004, -7.64103969599995 ], [ 112.163151899000013, -7.640911337999967 ], [ 112.163207707000083, -7.640777397999955 ], [ 112.163538834000065, -7.640896454999961 ], [ 112.163572319000082, -7.640822044999936 ], [ 112.163639289000116, -7.640848088999974 ], [ 112.163920587, -7.640165199999956 ], [ 112.16391645300007, -7.640163181999981 ], [ 112.163973965000082, -7.640025150999975 ], [ 112.164090785000099, -7.640066872999967 ], [ 112.164687602000072, -7.638603240999942 ], [ 112.16373593000003, -7.638114575999964 ], [ 112.163704344000053, -7.638098356999933 ], [ 112.163939716000073, -7.637655109999969 ], [ 112.163946352000039, -7.637658383999963 ], [ 112.163954766000074, -7.637662534999947 ], [ 112.163952823000045, -7.637666234999926 ], [ 112.165004245000091, -7.638212773999953 ], [ 112.165047996000112, -7.638090602999966 ], [ 112.165416132000018, -7.638263968999979 ], [ 112.165534383000022, -7.637980542999969 ], [ 112.165945571000066, -7.638140072999931 ], [ 112.165606780000076, -7.639012739999941 ], [ 112.165523171000018, -7.639206230999946 ], [ 112.165347840000095, -7.639611989999935 ], [ 112.164933540000106, -7.639412239999956 ], [ 112.16485216, -7.639578699999959 ], [ 112.16480037000008, -7.639556509999977 ], [ 112.164534040000035, -7.640103969999927 ], [ 112.164532530000088, -7.640107589999957 ], [ 112.164531414000066, -7.640110258999925 ], [ 112.164430460000062, -7.64035180999997 ], [ 112.164430099000015, -7.640351697999961 ], [ 112.164428235000059, -7.640356238999971 ], [ 112.16420417300003, -7.640283026999953 ], [ 112.164199911000082, -7.640292885999941 ], [ 112.164046726000038, -7.640647236999939 ], [ 112.163851266000052, -7.641110573999981 ], [ 112.163838338, -7.641140972999949 ], [ 112.163709140000037, -7.641465239999945 ], [ 112.163587322000012, -7.64173124499996 ], [ 112.163575340000079, -7.641757409999968 ], [ 112.163212045000023, -7.641651475999936 ], [ 112.16346442400004, -7.64103969599995 ] ] ] ] } },
{ "type": "Feature", "properties": { "fid": 7033, "kk": null, "gid": 0.0, "bstt": null, "luas": 10419.482239259407, "bsbtt": null, "idsls": "35061500120002", "kdkab": "06", "kdkec": "150", "kdsls": "0002", "nmkab": "KEDIRI", "nmkec": "KUNJANG", "nmsls": "RT 002 RW 002 DUSUN GAMBIRAN", "bstt_k": null, "kddesa": "012", "kdprov": "35", "khusus": null, "muatan": null, "nmdesa": "PARELOR", "nmprov": "JAWA TIMUR", "posisi": null, "rw_dki": null, "segmen": null, "subsls": null, "sumber": null, "dom_sls": null, "periode": "2025_1", "tingkat": null, "idsubsls": "3506150012000200", "nm_gedung": null, "wil_campur": null, "iddesa": "3506150012", "kdsubsls": "00" }, "geometry": { "type": "MultiPolygon", "coordinates": [ [ [ [ 112.163939716000073, -7.637655109999969 ], [ 112.163704344000053, -7.638098356999933 ], [ 112.162169596000012, -7.637310292999928 ], [ 112.162346687000081, -7.636869135999973 ], [ 112.163939716000073, -7.637655109999969 ] ] ] ] } },
{ "type": "Feature", "properties": { "fid": 7034, "kk": null, "gid": 0.0, "bstt": null, "luas": 14223.510068064881, "bsbtt": null, "idsls": "35061500120005", "kdkab": "06", "kdkec": "150", "kdsls": "0005", "nmkab": "KEDIRI", "nmkec": "KUNJANG", "nmsls": "RT 001 RW 001 DUSUN PLOSO", "bstt_k": null, "kddesa": "012", "kdprov": "35", "khusus": null, "muatan": null, "nmdesa": "PARELOR", "nmprov": "JAWA TIMUR", "posisi": null, "rw_dki": null, "segmen": null, "subsls": null, "sumber": null, "dom_sls": null, "periode": "2025_1", "tingkat": null, "idsubsls": "3506150012000500", "nm_gedung": null, "wil_campur": null, "iddesa": "3506150012", "kdsubsls": "00" }, "geometry": { "type": "MultiPolygon", "coordinates": [ [ [ [ 112.166599894000115, -7.633799652999926 ], [ 112.166478056000074, -7.634146471999941 ], [ 112.166772607000098, -7.634270546999971 ], [ 112.166756777000046, -7.634307682999975 ], [ 112.166699809000079, -7.634441328999969 ], [ 112.166642163, -7.634576562999939 ], [ 112.166526709000095, -7.63483537299993 ], [ 112.166525394000018, -7.634832532999951 ], [ 112.166241362000051, -7.635440915999936 ], [ 112.166241249000109, -7.635440883999934 ], [ 112.166179436000107, -7.635574019999979 ], [ 112.165968549000013, -7.635509131999981 ], [ 112.165939492, -7.635583865999934 ], [ 112.16581847000009, -7.635534231999941 ], [ 112.166142477000108, -7.63457395699993 ], [ 112.165765872000065, -7.634432156999935 ], [ 112.165666986000019, -7.634365427999967 ], [ 112.165625407000107, -7.634276824999972 ], [ 112.165628850000076, -7.634279389999961 ], [ 112.165628870000091, -7.634279359999937 ], [ 112.16562891, -7.63427927999993 ], [ 112.16562891, -7.634279389999961 ], [ 112.165935510000054, -7.633620269999938 ], [ 112.165950680000037, -7.633587659999932 ], [ 112.166228813000089, -7.63368171299993 ], [ 112.166246460000025, -7.63368767999998 ], [ 112.166431560000092, -7.633754119999935 ], [ 112.166541210000105, -7.633783779999931 ], [ 112.166587285000105, -7.63379624199996 ], [ 112.166599894000115, -7.633799652999926 ] ] ] ] } },
{ "type": "Feature", "properties": { "fid": 7035, "kk": null, "gid": 0.0, "bstt": null, "luas": 13099.966484188713, "bsbtt": null, "idsls": "35061500120007", "kdkab": "06", "kdkec": "150", "kdsls": "0007", "nmkab": "KEDIRI", "nmkec": "KUNJANG", "nmsls": "RT 003 RW 001 DUSUN PLOSO", "bstt_k": null, "kddesa": "012", "kdprov": "35", "khusus": null, "muatan": null, "nmdesa": "PARELOR", "nmprov": "JAWA TIMUR", "posisi": null, "rw_dki": null, "segmen": null, "subsls": null, "sumber": null, "dom_sls": null, "periode": "2025_1", "tingkat": null, "idsubsls": "3506150012000700", "nm_gedung": null, "wil_campur": null, "iddesa": "3506150012", "kdsubsls": "00" }, "geometry": { "type": "MultiPolygon", "coordinates": [ [ [ [ 112.167284500000051, -7.63394117699994 ], [ 112.167926619000013, -7.634047420999934 ], [ 112.16807389500002, -7.634079742999972 ], [ 112.168297278000068, -7.634159021999949 ], [ 112.168314796000118, -7.634165239999959 ], [ 112.168405265000047, -7.634205381999948 ], [ 112.168314796000118, -7.634422772999926 ], [ 112.168163971000013, -7.634891480999954 ], [ 112.168163312000047, -7.634893527999964 ], [ 112.167846812000107, -7.634851952999952 ], [ 112.16781405800009, -7.634847650999973 ], [ 112.167814233000058, -7.634847046999937 ], [ 112.167863501000056, -7.634676917999968 ], [ 112.167495251000105, -7.634579792999943 ], [ 112.167487816000062, -7.634578286999954 ], [ 112.166989093000097, -7.634477266999966 ], [ 112.166989313000045, -7.634476208999956 ], [ 112.166873084000031, -7.634449623999956 ], [ 112.166901117000066, -7.634354136999946 ], [ 112.166756777000046, -7.634307682999975 ], [ 112.166772607000098, -7.634270546999971 ], [ 112.166478056000074, -7.634146471999941 ], [ 112.166599894000115, -7.633799652999926 ], [ 112.166862860000037, -7.633870779999938 ], [ 112.16728235000005, -7.633946479999963 ], [ 112.167284500000051, -7.63394117699994 ] ] ] ] } },
{ "type": "Feature", "properties": { "fid": 7036, "kk": null, "gid": 0.0, "bstt": null, "luas": 20670.39470663917, "bsbtt": null, "idsls": "35061500120008", "kdkab": "06", "kdkec": "150", "kdsls": "0008", "nmkab": "KEDIRI", "nmkec": "KUNJANG", "nmsls": "RT 004 RW 001 DUSUN PLOSO", "bstt_k": null, "kddesa": "012", "kdprov": "35", "khusus": null, "muatan": null, "nmdesa": "PARELOR", "nmprov": "JAWA TIMUR", "posisi": null, "rw_dki": null, "segmen": null, "subsls": null, "sumber": null, "dom_sls": null, "periode": "2025_1", "tingkat": null, "idsubsls": "3506150012000800", "nm_gedung": null, "wil_campur": null, "iddesa": "3506150012", "kdsubsls": "00" }, "geometry": { "type": "MultiPolygon", "coordinates": [ [ [ [ 112.168893654000044, -7.634036159999937 ], [ 112.168895484000018, -7.634036733999949 ], [ 112.168782923000094, -7.634404265999933 ], [ 112.169238426000106, -7.634548150999933 ], [ 112.169631863000063, -7.634687865999979 ], [ 112.169955870000081, -7.634819238999967 ], [ 112.169769102000032, -7.635290292999969 ], [ 112.169767567, -7.635294163999959 ], [ 112.16934677900008, -7.635450038999977 ], [ 112.169233166000026, -7.63554179099998 ], [ 112.169090098000083, -7.635591316999978 ], [ 112.168812378000098, -7.63557671999996 ], [ 112.168314796000118, -7.635422408999943 ], [ 112.168316717000039, -7.63541526399996 ], [ 112.168437877000088, -7.634964687999968 ], [ 112.168163971000013, -7.634891480999954 ], [ 112.168314796000118, -7.634422772999926 ], [ 112.168405265000047, -7.634205381999948 ], [ 112.168314796000118, -7.634165239999959 ], [ 112.168297278000068, -7.634159021999949 ], [ 112.168405265000047, -7.633882942999946 ], [ 112.168893654000044, -7.634036159999937 ] ] ] ] } },
{ "type": "Feature", "properties": { "fid": 7037, "kk": null, "gid": 0.0, "bstt": null, "luas": 11732.126531010981, "bsbtt": null, "idsls": "35061500120009", "kdkab": "06", "kdkec": "150", "kdsls": "0009", "nmkab": "KEDIRI", "nmkec": "KUNJANG", "nmsls": "RT 001 RW 002 DUSUN PLOSO", "bstt_k": null, "kddesa": "012", "kdprov": "35", "khusus": null, "muatan": null, "nmdesa": "PARELOR", "nmprov": "JAWA TIMUR", "posisi": null, "rw_dki": null, "segmen": null, "subsls": null, "sumber": null, "dom_sls": null, "periode": "2025_1", "tingkat": null, "idsubsls": "3506150012000900", "nm_gedung": null, "wil_campur": null, "iddesa": "3506150012", "kdsubsls": "00" }, "geometry": { "type": "MultiPolygon", "coordinates": [ [ [ [ 112.168539519000092, -7.635620435999954 ], [ 112.168314585000076, -7.636184568999965 ], [ 112.168277977000116, -7.636170764999974 ], [ 112.16743008900005, -7.63582460799995 ], [ 112.167551365, -7.635381109999969 ], [ 112.167589219000092, -7.635388304999935 ], [ 112.167722569000034, -7.634840189999977 ], [ 112.167814233000058, -7.634847046999937 ], [ 112.16781405800009, -7.634847650999973 ], [ 112.167846812000107, -7.634851952999952 ], [ 112.168163312000047, -7.634893527999964 ], [ 112.168163971000013, -7.634891480999954 ], [ 112.168437877000088, -7.634964687999968 ], [ 112.168316717000039, -7.63541526399996 ], [ 112.168282185000066, -7.63551468299994 ], [ 112.168539519000092, -7.635620435999954 ] ] ] ] } },
{ "type": "Feature", "properties": { "fid": 7038, "kk": null, "gid": 0.0, "bstt": null, "luas": 12826.689820832573, "bsbtt": null, "idsls": "35061500120013", "kdkab": "06", "kdkec": "150", "kdsls": "0013", "nmkab": "KEDIRI", "nmkec": "KUNJANG", "nmsls": "RT 002 RW 001 DUSUN PARELOR", "bstt_k": null, "kddesa": "012", "kdprov": "35", "khusus": null, "muatan": null, "nmdesa": "PARELOR", "nmprov": "JAWA TIMUR", "posisi": null, "rw_dki": null, "segmen": null, "subsls": null, "sumber": null, "dom_sls": null, "periode": "2025_1", "tingkat": null, "idsubsls": "3506150012001300", "nm_gedung": null, "wil_campur": null, "iddesa": "3506150012", "kdsubsls": "00" }, "geometry": { "type": "MultiPolygon", "coordinates": [ [ [ [ 112.170750640000051, -7.632560578999971 ], [ 112.171405485000037, -7.632899985999927 ], [ 112.171407920000092, -7.632895295999958 ], [ 112.172178039000073, -7.633301195999934 ], [ 112.17203035600005, -7.633643394999979 ], [ 112.171944938000024, -7.633610254999951 ], [ 112.171230858000058, -7.633333206999964 ], [ 112.170692249000012, -7.633130932999961 ], [ 112.170462920000091, -7.633020933999944 ], [ 112.170031612000116, -7.63280406299998 ], [ 112.170228808000047, -7.632297490999974 ], [ 112.170749056000091, -7.632565295999939 ], [ 112.170750640000051, -7.632560578999971 ] ] ] ] } },
{ "type": "Feature", "properties": { "fid": 7039, "kk": null, "gid": 0.0, "bstt": null, "luas": 17519.23917246476, "bsbtt": null, "idsls": "35061500120014", "kdkab": "06", "kdkec": "150", "kdsls": "0014", "nmkab": "KEDIRI", "nmkec": "KUNJANG", "nmsls": "RT 003 RW 001 DUSUN PARELOR", "bstt_k": null, "kddesa": "012", "kdprov": "35", "khusus": null, "muatan": null, "nmdesa": "PARELOR", "nmprov": "JAWA TIMUR", "posisi": null, "rw_dki": null, "segmen": null, "subsls": null, "sumber": null, "dom_sls": null, "periode": "2025_1", "tingkat": null, "idsubsls": "3506150012001400", "nm_gedung": null, "wil_campur": null, "iddesa": "3506150012", "kdsubsls": "00" }, "geometry": { "type": "MultiPolygon", "coordinates": [ [ [ [ 112.172128257000054, -7.632557702999975 ], [ 112.17200268900001, -7.63251026599994 ], [ 112.171919622000019, -7.632469011999945 ], [ 112.171722085000056, -7.632393358999934 ], [ 112.171609568, -7.632698233999974 ], [ 112.171527514000104, -7.632664868999939 ], [ 112.171407920000092, -7.632895295999958 ], [ 112.171405485000037, -7.632899985999927 ], [ 112.170750640000051, -7.632560578999971 ], [ 112.171003633000055, -7.631807287999948 ], [ 112.171228754000026, -7.63116292899997 ], [ 112.171400815000084, -7.631219205999969 ], [ 112.171399173000054, -7.631222881999975 ], [ 112.171241378000104, -7.631646719999935 ], [ 112.17148859100007, -7.631728046999967 ], [ 112.171473863000074, -7.631760368999949 ], [ 112.171815754000022, -7.631901126999935 ], [ 112.171880524000017, -7.631927529999928 ], [ 112.171957986000052, -7.631735558999935 ], [ 112.172646606000058, -7.631944484999963 ], [ 112.172643655000115, -7.631953259999932 ], [ 112.172567384000104, -7.632162470999958 ], [ 112.172478495000064, -7.632406291999928 ], [ 112.172465187000057, -7.632440048999968 ], [ 112.172221832000105, -7.63234827399998 ], [ 112.172128257000054, -7.632557702999975 ] ] ] ] } },
{ "type": "Feature", "properties": { "fid": 7040, "kk": null, "gid": 0.0, "bstt": null, "luas": 19631.53408826534, "bsbtt": null, "idsls": "35061500120015", "kdkab": "06", "kdkec": "150", "kdsls": "0015", "nmkab": "KEDIRI", "nmkec": "KUNJANG", "nmsls": "RT 004 RW 001 DUSUN PARELOR", "bstt_k": null, "kddesa": "012", "kdprov": "35", "khusus": null, "muatan": null, "nmdesa": "PARELOR", "nmprov": "JAWA TIMUR", "posisi": null, "rw_dki": null, "segmen": null, "subsls": null, "sumber": null, "dom_sls": null, "periode": "2025_1", "tingkat": null, "idsubsls": "3506150012001500", "nm_gedung": null, "wil_campur": null, "iddesa": "3506150012", "kdsubsls": "00" }, "geometry": { "type": "MultiPolygon", "coordinates": [ [ [ [ 112.169563753000034, -7.631957531999944 ], [ 112.169778808000046, -7.631423151999968 ], [ 112.169809257000111, -7.631435631999977 ], [ 112.170486200000028, -7.63171307999994 ], [ 112.17077108, -7.631059539999967 ], [ 112.171025400000076, -7.630476109999961 ], [ 112.171043359, -7.630434907999927 ], [ 112.171051740000053, -7.630415679999942 ], [ 112.171645528000113, -7.630671458999927 ], [ 112.171400815000084, -7.631219205999969 ], [ 112.171228754000026, -7.63116292899997 ], [ 112.171003633000055, -7.631807287999948 ], [ 112.170750640000051, -7.632560578999971 ], [ 112.170749056000091, -7.632565295999939 ], [ 112.170228808000047, -7.632297490999974 ], [ 112.169581918000063, -7.631964493999931 ], [ 112.169581368000081, -7.631965771999944 ], [ 112.169563753000034, -7.631957531999944 ] ] ] ] } },
{ "type": "Feature", "properties": { "fid": 7041, "kk": null, "gid": 0.0, "bstt": null, "luas": 11328.077006711625, "bsbtt": null, "idsls": "35061500120017", "kdkab": "06", "kdkec": "150", "kdsls": "0017", "nmkab": "KEDIRI", "nmkec": "KUNJANG", "nmsls": "RT 006 RW 001 DUSUN PARELOR", "bstt_k": null, "kddesa": "012", "kdprov": "35", "khusus": null, "muatan": null, "nmdesa": "PARELOR", "nmprov": "JAWA TIMUR", "posisi": null, "rw_dki": null, "segmen": null, "subsls": null, "sumber": null, "dom_sls": null, "periode": "2025_1", "tingkat": null, "idsubsls": "3506150012001700", "nm_gedung": null, "wil_campur": null, "iddesa": "3506150012", "kdsubsls": "00" }, "geometry": { "type": "MultiPolygon", "coordinates": [ [ [ [ 112.171919622000019, -7.632469011999945 ], [ 112.17200268900001, -7.63251026599994 ], [ 112.172128257000054, -7.632557702999975 ], [ 112.172221832000105, -7.63234827399998 ], [ 112.172465187000057, -7.632440048999968 ], [ 112.172398545000078, -7.632609086999935 ], [ 112.172841425000115, -7.632764441999939 ], [ 112.172729916000094, -7.633055862999981 ], [ 112.172815337000088, -7.63309828499996 ], [ 112.172621563, -7.633534959999963 ], [ 112.172178039000073, -7.633301195999934 ], [ 112.171407920000092, -7.632895295999958 ], [ 112.171527514000104, -7.632664868999939 ], [ 112.171609568, -7.632698233999974 ], [ 112.171722085000056, -7.632393358999934 ], [ 112.171919622000019, -7.632469011999945 ] ] ] ] } },
{ "type": "Feature", "properties": { "fid": 7042, "kk": null, "gid": 0.0, "bstt": null, "luas": 18910.595454668859, "bsbtt": null, "idsls": "35061500120018", "kdkab": "06", "kdkec": "150", "kdsls": "0018", "nmkab": "KEDIRI", "nmkec": "KUNJANG", "nmsls": "RT 007 RW 001 DUSUN PARELOR", "bstt_k": null, "kddesa": "012", "kdprov": "35", "khusus": null, "muatan": null, "nmdesa": "PARELOR", "nmprov": "JAWA TIMUR", "posisi": null, "rw_dki": null, "segmen": null, "subsls": null, "sumber": null, "dom_sls": null, "periode": "2025_1", "tingkat": null, "idsubsls": "3506150012001800", "nm_gedung": null, "wil_campur": null, "iddesa": "3506150012", "kdsubsls": "00" }, "geometry": { "type": "MultiPolygon", "coordinates": [ [ [ [ 112.173509270000068, -7.633490222999967 ], [ 112.173335851000047, -7.633881899999949 ], [ 112.173520998000072, -7.633981994999942 ], [ 112.173519343000066, -7.633985724999945 ], [ 112.173421061000113, -7.634207205999928 ], [ 112.173290616000031, -7.634139433999962 ], [ 112.173052871000095, -7.634629477999965 ], [ 112.173049134000053, -7.634627844999955 ], [ 112.171792610000011, -7.634078960999943 ], [ 112.171763726000108, -7.63406691199998 ], [ 112.171944938000024, -7.633610254999951 ], [ 112.17203035600005, -7.633643394999979 ], [ 112.172178039000073, -7.633301195999934 ], [ 112.172621563, -7.633534959999963 ], [ 112.172815337000088, -7.63309828499996 ], [ 112.173226446000058, -7.633302448999927 ], [ 112.173202251000021, -7.633353538999927 ], [ 112.173509270000068, -7.633490222999967 ] ] ] ] } },
{ "type": "Feature", "properties": { "fid": 7043, "kk": null, "gid": 0.0, "bstt": null, "luas": 16700.111797092191, "bsbtt": null, "idsls": "35061500120019", "kdkab": "06", "kdkec": "150", "kdsls": "0019", "nmkab": "KEDIRI", "nmkec": "KUNJANG", "nmsls": "RT 008 RW 001 DUSUN PARELOR", "bstt_k": null, "kddesa": "012", "kdprov": "35", "khusus": null, "muatan": null, "nmdesa": "PARELOR", "nmprov": "JAWA TIMUR", "posisi": null, "rw_dki": null, "segmen": null, "subsls": null, "sumber": null, "dom_sls": null, "periode": "2025_1", "tingkat": null, "idsubsls": "3506150012001900", "nm_gedung": null, "wil_campur": null, "iddesa": "3506150012", "kdsubsls": "00" }, "geometry": { "type": "MultiPolygon", "coordinates": [ [ [ [ 112.174028366000016, -7.632189971999935 ], [ 112.173756639000089, -7.63291223799996 ], [ 112.17374062500005, -7.632950094999956 ], [ 112.173573597000086, -7.633344936999947 ], [ 112.173509270000068, -7.633490222999967 ], [ 112.173202251000021, -7.633353538999927 ], [ 112.173226446000058, -7.633302448999927 ], [ 112.172815337000088, -7.63309828499996 ], [ 112.172729916000094, -7.633055862999981 ], [ 112.172841425000115, -7.632764441999939 ], [ 112.172398545000078, -7.632609086999935 ], [ 112.172465187000057, -7.632440048999968 ], [ 112.172478495000064, -7.632406291999928 ], [ 112.172567384000104, -7.632162470999958 ], [ 112.172643655000115, -7.631953259999932 ], [ 112.172646606000058, -7.631944484999963 ], [ 112.17265101800001, -7.631931363999968 ], [ 112.17310021000003, -7.632083590999969 ], [ 112.173097054000095, -7.63210652999993 ], [ 112.173097054000095, -7.632113827999945 ], [ 112.173336903000063, -7.632203495999931 ], [ 112.173329539000065, -7.632228519999956 ], [ 112.173673534000045, -7.632367191999947 ], [ 112.173776627000052, -7.632095059999926 ], [ 112.174028366000016, -7.632189971999935 ] ] ] ] } },
{ "type": "Feature", "properties": { "fid": 7044, "kk": null, "gid": 0.0, "bstt": null, "luas": 22157.669065033922, "bsbtt": null, "idsls": "35061500120020", "kdkab": "06", "kdkec": "150", "kdsls": "0020", "nmkab": "KEDIRI", "nmkec": "KUNJANG", "nmsls": "RT 001 RW 001 DUSUN JEMBER", "bstt_k": null, "kddesa": "012", "kdprov": "35", "khusus": null, "muatan": null, "nmdesa": "PARELOR", "nmprov": "JAWA TIMUR", "posisi": null, "rw_dki": null, "segmen": null, "subsls": null, "sumber": null, "dom_sls": null, "periode": "2025_1", "tingkat": null, "idsubsls": "3506150012002000", "nm_gedung": null, "wil_campur": null, "iddesa": "3506150012", "kdsubsls": "00" }, "geometry": { "type": "MultiPolygon", "coordinates": [ [ [ [ 112.178275073, -7.634855713999968 ], [ 112.178159662000098, -7.635208666999972 ], [ 112.178111271000034, -7.635200325999961 ], [ 112.17803617200002, -7.635450802999969 ], [ 112.178031321000049, -7.635466981999969 ], [ 112.177873526000099, -7.636133229999928 ], [ 112.177766225000028, -7.636629526999968 ], [ 112.177716173000022, -7.636872400999948 ], [ 112.177715730000045, -7.63687454799998 ], [ 112.177322293000088, -7.636797391999949 ], [ 112.177078236000057, -7.636732748999975 ], [ 112.176970935000099, -7.636688957999979 ], [ 112.176804724000021, -7.636497111999972 ], [ 112.176642720000018, -7.636333416999946 ], [ 112.176499306000096, -7.636241653999946 ], [ 112.176808115000085, -7.635585503999948 ], [ 112.177288104000013, -7.635795413999972 ], [ 112.177527954000084, -7.635260537999955 ], [ 112.17770611900005, -7.634683622999944 ], [ 112.178276431000086, -7.634851560999948 ], [ 112.178275073, -7.634855713999968 ] ] ] ] } },
{ "type": "Feature", "properties": { "fid": 7045, "kk": null, "gid": 0.0, "bstt": null, "luas": 14373.344581628393, "bsbtt": null, "idsls": "35061500120021", "kdkab": "06", "kdkec": "150", "kdsls": "0021", "nmkab": "KEDIRI", "nmkec": "KUNJANG", "nmsls": "RT 002 RW 001 DUSUN JEMBER", "bstt_k": null, "kddesa": "012", "kdprov": "35", "khusus": null, "muatan": null, "nmdesa": "PARELOR", "nmprov": "JAWA TIMUR", "posisi": null, "rw_dki": null, "segmen": null, "subsls": null, "sumber": null, "dom_sls": null, "periode": "2025_1", "tingkat": null, "idsubsls": "3506150012002100", "nm_gedung": null, "wil_campur": null, "iddesa": "3506150012", "kdsubsls": "00" }, "geometry": { "type": "MultiPolygon", "coordinates": [ [ [ [ 112.178322975000015, -7.635537820999957 ], [ 112.178228040000022, -7.635872047999953 ], [ 112.178189117000102, -7.636002378999933 ], [ 112.178262755000105, -7.636022188999959 ], [ 112.178234865000036, -7.636125012999969 ], [ 112.178499984000041, -7.636202138999977 ], [ 112.178484455000103, -7.636255624999933 ], [ 112.178750164, -7.636324640999931 ], [ 112.17874903500001, -7.636331029999951 ], [ 112.17872387500006, -7.636473361999947 ], [ 112.178734637000048, -7.636476517999938 ], [ 112.178642516000082, -7.636855779999962 ], [ 112.178712998000037, -7.636874286999955 ], [ 112.178712806000021, -7.636875178999958 ], [ 112.17876155700003, -7.636884928999962 ], [ 112.178718682000067, -7.637221654999962 ], [ 112.178671008000038, -7.637208276999957 ], [ 112.178624633000027, -7.637445131999925 ], [ 112.178604523000104, -7.637522593999961 ], [ 112.178601489000016, -7.637534276999929 ], [ 112.178271171, -7.637406032999934 ], [ 112.178222780000056, -7.637353900999926 ], [ 112.178172286000063, -7.637293427999964 ], [ 112.178075504000049, -7.637022341999966 ], [ 112.178044997000029, -7.636967342999981 ], [ 112.178003970000077, -7.636938148999945 ], [ 112.177716173000022, -7.636872400999948 ], [ 112.177766225000028, -7.636629526999968 ], [ 112.177873526000099, -7.636133229999928 ], [ 112.178031321000049, -7.635466981999969 ], [ 112.17803617200002, -7.635450802999969 ], [ 112.178322975000015, -7.635537820999957 ] ] ] ] } },
{ "type": "Feature", "properties": { "fid": 7046, "kk": null, "gid": 0.0, "bstt": null, "luas": 12872.642048920505, "bsbtt": null, "idsls": "35061500120022", "kdkab": "06", "kdkec": "150", "kdsls": "0022", "nmkab": "KEDIRI", "nmkec": "KUNJANG", "nmsls": "RT 003 RW 001 DUSUN JEMBER", "bstt_k": null, "kddesa": "012", "kdprov": "35", "khusus": null, "muatan": null, "nmdesa": "PARELOR", "nmprov": "JAWA TIMUR", "posisi": null, "rw_dki": null, "segmen": null, "subsls": null, "sumber": null, "dom_sls": null, "periode": "2025_1", "tingkat": null, "idsubsls": "3506150012002200", "nm_gedung": null, "wil_campur": null, "iddesa": "3506150012", "kdsubsls": "00" }, "geometry": { "type": "MultiPolygon", "coordinates": [ [ [ [ 112.179835590000039, -7.635348807999947 ], [ 112.179701469000065, -7.635944553999934 ], [ 112.178723518000083, -7.63565934899998 ], [ 112.178322975000015, -7.635537820999957 ], [ 112.17803617200002, -7.635450802999969 ], [ 112.178111271000034, -7.635200325999961 ], [ 112.178159662000098, -7.635208666999972 ], [ 112.178275073, -7.634855713999968 ], [ 112.179835590000039, -7.635348807999947 ] ] ] ] } },
{ "type": "Feature", "properties": { "fid": 7047, "kk": null, "gid": 0.0, "bstt": null, "luas": 12414.193827855852, "bsbtt": null, "idsls": "35061500120026", "kdkab": "06", "kdkec": "150", "kdsls": "0026", "nmkab": "KEDIRI", "nmkec": "KUNJANG", "nmsls": "RT 003 RW 002 DUSUN JEMBER", "bstt_k": null, "kddesa": "012", "kdprov": "35", "khusus": null, "muatan": null, "nmdesa": "PARELOR", "nmprov": "JAWA TIMUR", "posisi": null, "rw_dki": null, "segmen": null, "subsls": null, "sumber": null, "dom_sls": null, "periode": "2025_1", "tingkat": null, "idsubsls": "3506150012002600", "nm_gedung": null, "wil_campur": null, "iddesa": "3506150012", "kdsubsls": "00" }, "geometry": { "type": "MultiPolygon", "coordinates": [ [ [ [ 112.179665131000093, -7.636400015999925 ], [ 112.179659505000018, -7.636470907999978 ], [ 112.179763070000035, -7.636483536999947 ], [ 112.179719936000083, -7.63681394799994 ], [ 112.17980447900004, -7.636823437999965 ], [ 112.179722524000113, -7.637171101999968 ], [ 112.179691467000112, -7.637159886999939 ], [ 112.179623493, -7.637409389999959 ], [ 112.179455107000081, -7.637372058999972 ], [ 112.179453586000022, -7.63737657799993 ], [ 112.179425042000048, -7.63736788999995 ], [ 112.178771909000034, -7.637169092999955 ], [ 112.178759285000069, -7.637211840999953 ], [ 112.178752447000079, -7.637231129999975 ], [ 112.178718682000067, -7.637221654999962 ], [ 112.17876155700003, -7.636884928999962 ], [ 112.178712806000021, -7.636875178999958 ], [ 112.178712998000037, -7.636874286999955 ], [ 112.178642516000082, -7.636855779999962 ], [ 112.178734637000048, -7.636476517999938 ], [ 112.17872387500006, -7.636473361999947 ], [ 112.17874903500001, -7.636331029999951 ], [ 112.17878273000008, -7.636319410999931 ], [ 112.178820689000077, -7.636169301999928 ], [ 112.179665131000093, -7.636400015999925 ] ] ] ] } },
{ "type": "Feature", "properties": { "fid": 7048, "kk": null, "gid": 0.0, "bstt": null, "luas": 111614.84329801222, "bsbtt": null, "idsls": "35061500121001", "kdkab": "06", "kdkec": "150", "kdsls": "1001", "nmkab": "KEDIRI", "nmkec": "KUNJANG", "nmsls": "PERSAWAHAN GAMBIRAN", "bstt_k": null, "kddesa": "012", "kdprov": "35", "khusus": null, "muatan": null, "nmdesa": "PARELOR", "nmprov": "JAWA TIMUR", "posisi": null, "rw_dki": null, "segmen": null, "subsls": null, "sumber": null, "dom_sls": null, "periode": "2025_1", "tingkat": null, "idsubsls": "3506150012100100", "nm_gedung": null, "wil_campur": null, "iddesa": "3506150012", "kdsubsls": "00" }, "geometry": { "type": "MultiPolygon", "coordinates": [ [ [ [ 112.163920587, -7.640165199999956 ], [ 112.163639289000116, -7.640848088999974 ], [ 112.163572319000082, -7.640822044999936 ], [ 112.163538834000065, -7.640896454999961 ], [ 112.163207707000083, -7.640777397999955 ], [ 112.163151899000013, -7.640911337999967 ], [ 112.16346442400004, -7.64103969599995 ], [ 112.163212045000023, -7.641651475999936 ], [ 112.162197940000055, -7.641355769999961 ], [ 112.161861320000071, -7.64125034999995 ], [ 112.161343450000118, -7.641074639999943 ], [ 112.161226130000045, -7.641015799999934 ], [ 112.1611067, -7.640952569999968 ], [ 112.161036420000073, -7.640898929999935 ], [ 112.161210280000091, -7.64040695999995 ], [ 112.161291660000074, -7.640135069999928 ], [ 112.161530250000055, -7.639513619999946 ], [ 112.16162273000009, -7.639247289999958 ], [ 112.161676680000028, -7.639043919999949 ], [ 112.161733700000013, -7.63874420999997 ], [ 112.161763110000038, -7.638656559999959 ], [ 112.161826180000048, -7.638468629999977 ], [ 112.161870570000019, -7.638296619999949 ], [ 112.162157940000043, -7.637339329999975 ], [ 112.162169596000012, -7.637310292999928 ], [ 112.163704344000053, -7.638098356999933 ], [ 112.16373593000003, -7.638114575999964 ], [ 112.164687602000072, -7.638603240999942 ], [ 112.164090785000099, -7.640066872999967 ], [ 112.163973965000082, -7.640025150999975 ], [ 112.16391645300007, -7.640163181999981 ], [ 112.163920587, -7.640165199999956 ] ] ] ] } },
{ "type": "Feature", "properties": { "fid": 7049, "kk": null, "gid": 0.0, "bstt": null, "luas": 107306.29566427431, "bsbtt": null, "idsls": "35061500121002", "kdkab": "06", "kdkec": "150", "kdsls": "1002", "nmkab": "KEDIRI", "nmkec": "KUNJANG", "nmsls": "PERSAWAHAN PLOSO", "bstt_k": null, "kddesa": "012", "kdprov": "35", "khusus": null, "muatan": null, "nmdesa": "PARELOR", "nmprov": "JAWA TIMUR", "posisi": null, "rw_dki": null, "segmen": null, "subsls": null, "sumber": null, "dom_sls": null, "periode": "2025_1", "tingkat": null, "idsubsls": "3506150012100200", "nm_gedung": null, "wil_campur": null, "iddesa": "3506150012", "kdsubsls": "00" }, "geometry": { "type": "MultiPolygon", "coordinates": [ [ [ [ 112.165625407000107, -7.634276824999972 ], [ 112.165666986000019, -7.634365427999967 ], [ 112.165765872000065, -7.634432156999935 ], [ 112.166142477000108, -7.63457395699993 ], [ 112.16581847000009, -7.635534231999941 ], [ 112.165939492, -7.635583865999934 ], [ 112.165940499000044, -7.635584278999943 ], [ 112.165535035000062, -7.63675761099995 ], [ 112.165302416000031, -7.637430762999941 ], [ 112.165256603000103, -7.63756333699996 ], [ 112.165249354000025, -7.63756060399993 ], [ 112.165239342000064, -7.637556288999974 ], [ 112.164205202000062, -7.637110563999954 ], [ 112.164180983000051, -7.637100124999961 ], [ 112.16257235, -7.636406787999931 ], [ 112.162575510000011, -7.636400609999953 ], [ 112.162611630000015, -7.636320809999972 ], [ 112.162693967000109, -7.636138917999972 ], [ 112.16273616, -7.636045709999962 ], [ 112.162741510000046, -7.636041509999927 ], [ 112.162759833000109, -7.636027113999944 ], [ 112.16287275600007, -7.635823255999981 ], [ 112.162923894000073, -7.635730937999938 ], [ 112.162933806000069, -7.635713043999942 ], [ 112.163043524000045, -7.635488474999931 ], [ 112.163252321000073, -7.635061114999928 ], [ 112.163373360000037, -7.63472859999996 ], [ 112.163455630000044, -7.634492089999981 ], [ 112.163456549000102, -7.634492438999928 ], [ 112.163457382000047, -7.634477027999935 ], [ 112.163914220000038, -7.633377351999968 ], [ 112.164165860000026, -7.633445249999966 ], [ 112.164284230000021, -7.633485939999957 ], [ 112.164450690000081, -7.633541419999972 ], [ 112.164596810000035, -7.633596909999937 ], [ 112.164713330000041, -7.633659789999967 ], [ 112.164776210000014, -7.633709649999957 ], [ 112.164818750000109, -7.633789259999958 ], [ 112.165003710000065, -7.633890989999941 ], [ 112.165281140000047, -7.634031549999975 ], [ 112.165440200000035, -7.634138829999927 ], [ 112.165606650000086, -7.634262849999971 ], [ 112.165625407000107, -7.634276824999972 ] ] ] ] } },
{ "type": "Feature", "properties": { "fid": 7050, "kk": null, "gid": 0.0, "bstt": null, "luas": 127986.17592578674, "bsbtt": null, "idsls": "35061500121003", "kdkab": "06", "kdkec": "150", "kdsls": "1003", "nmkab": "KEDIRI", "nmkec": "KUNJANG", "nmsls": "PERSAWAHAN PLOSO", "bstt_k": null, "kddesa": "012", "kdprov": "35", "khusus": null, "muatan": null, "nmdesa": "PARELOR", "nmprov": "JAWA TIMUR", "posisi": null, "rw_dki": null, "segmen": null, "subsls": null, "sumber": null, "dom_sls": null, "periode": "2025_1", "tingkat": null, "idsubsls": "3506150012100300", "nm_gedung": null, "wil_campur": null, "iddesa": "3506150012", "kdsubsls": "00" }, "geometry": { "type": "MultiPolygon", "coordinates": [ [ [ [ 112.166526709000095, -7.63483537299993 ], [ 112.166607448000036, -7.635009781999941 ], [ 112.166710541000043, -7.635132813999974 ], [ 112.167112394000014, -7.63529755199994 ], [ 112.167552117000014, -7.635378356999979 ], [ 112.167551365, -7.635381109999969 ], [ 112.16743008900005, -7.63582460799995 ], [ 112.168277977000116, -7.636170764999974 ], [ 112.168314585000076, -7.636184568999965 ], [ 112.168372183000088, -7.636206288999972 ], [ 112.169734248000054, -7.636719911999933 ], [ 112.16970885, -7.636765039999943 ], [ 112.169692430000055, -7.63679419999994 ], [ 112.169636020000098, -7.636965289999978 ], [ 112.169636290000085, -7.636966179999945 ], [ 112.169637740000098, -7.636966449999932 ], [ 112.169636970000056, -7.636968459999935 ], [ 112.168802800000094, -7.63916439999997 ], [ 112.168524210000101, -7.639054259999966 ], [ 112.168504347000066, -7.639046406999967 ], [ 112.168007490000036, -7.638849979999975 ], [ 112.167762474000028, -7.638739831999942 ], [ 112.167604290000099, -7.638668719999941 ], [ 112.166872997000041, -7.638388591999956 ], [ 112.166839411000069, -7.638375726999925 ], [ 112.166686910000067, -7.638317309999934 ], [ 112.166646350000065, -7.638303229999963 ], [ 112.165972990000114, -7.638069469999948 ], [ 112.165949730000079, -7.638129359999937 ], [ 112.165945571000066, -7.638140072999931 ], [ 112.165534383000022, -7.637980542999969 ], [ 112.165348239000082, -7.637908323999966 ], [ 112.165447124000025, -7.637635152999962 ], [ 112.165444901000114, -7.637634314999957 ], [ 112.165476061000049, -7.637501364999935 ], [ 112.165473087, -7.63750015599993 ], [ 112.16570553400004, -7.636823187999937 ], [ 112.165535035000062, -7.63675761099995 ], [ 112.165940499000044, -7.635584278999943 ], [ 112.165939492, -7.635583865999934 ], [ 112.165968549000013, -7.635509131999981 ], [ 112.166179436000107, -7.635574019999979 ], [ 112.166241249000109, -7.635440883999934 ], [ 112.166241362000051, -7.635440915999936 ], [ 112.166525394000018, -7.634832532999951 ], [ 112.166526709000095, -7.63483537299993 ] ] ] ] } },
{ "type": "Feature", "properties": { "fid": 7051, "kk": null, "gid": 0.0, "bstt": null, "luas": 33904.319536261748, "bsbtt": null, "idsls": "35061500121004", "kdkab": "06", "kdkec": "150", "kdsls": "1004", "nmkab": "KEDIRI", "nmkec": "KUNJANG", "nmsls": "PERSAWAHAN PLOSO", "bstt_k": null, "kddesa": "012", "kdprov": "35", "khusus": null, "muatan": null, "nmdesa": "PARELOR", "nmprov": "JAWA TIMUR", "posisi": null, "rw_dki": null, "segmen": null, "subsls": null, "sumber": null, "dom_sls": null, "periode": "2025_1", "tingkat": null, "idsubsls": "3506150012100400", "nm_gedung": null, "wil_campur": null, "iddesa": "3506150012", "kdsubsls": "00" }, "geometry": { "type": "MultiPolygon", "coordinates": [ [ [ [ 112.168927296000106, -7.631876772999931 ], [ 112.169038552000075, -7.631913117999943 ], [ 112.169038833000059, -7.631912428999954 ], [ 112.169540342, -7.632078116999935 ], [ 112.169443560000104, -7.632399774999953 ], [ 112.16923134700005, -7.633049405999941 ], [ 112.169176360000051, -7.63321773399997 ], [ 112.168893654000044, -7.634036159999937 ], [ 112.168405265000047, -7.633882942999946 ], [ 112.168297278000068, -7.634159021999949 ], [ 112.16807389500002, -7.634079742999972 ], [ 112.167926619000013, -7.634047420999934 ], [ 112.167284500000051, -7.63394117699994 ], [ 112.167296620000116, -7.63391127999995 ], [ 112.167737340000031, -7.632823799999926 ], [ 112.167864960000088, -7.632509379999931 ], [ 112.168018670000038, -7.632570219999934 ], [ 112.168042520000085, -7.632579659999976 ], [ 112.168044627000086, -7.632574472999977 ], [ 112.168401953000057, -7.632706119999966 ], [ 112.168629115000044, -7.632141170999944 ], [ 112.168792388000043, -7.632212159999938 ], [ 112.168922903000066, -7.631875337999929 ], [ 112.168927296000106, -7.631876772999931 ] ] ] ] } },
{ "type": "Feature", "properties": { "fid": 7052, "kk": null, "gid": 0.0, "bstt": null, "luas": 192949.92918258457, "bsbtt": null, "idsls": "35061500121005", "kdkab": "06", "kdkec": "150", "kdsls": "1005", "nmkab": "KEDIRI", "nmkec": "KUNJANG", "nmsls": "PERSAWAHAN PARE LOR", "bstt_k": null, "kddesa": "012", "kdprov": "35", "khusus": null, "muatan": null, "nmdesa": "PARELOR", "nmprov": "JAWA TIMUR", "posisi": null, "rw_dki": null, "segmen": null, "subsls": null, "sumber": null, "dom_sls": null, "periode": "2025_1", "tingkat": null, "idsubsls": "3506150012100500", "nm_gedung": null, "wil_campur": null, "iddesa": "3506150012", "kdsubsls": "00" }, "geometry": { "type": "MultiPolygon", "coordinates": [ [ [ [ 112.171763726000108, -7.63406691199998 ], [ 112.171792610000011, -7.634078960999943 ], [ 112.173049134000053, -7.634627844999955 ], [ 112.173312708000026, -7.634761111999978 ], [ 112.175006380000013, -7.63555039299996 ], [ 112.175885828000105, -7.635954416999937 ], [ 112.176498074000051, -7.636244270999953 ], [ 112.176499306000096, -7.636241653999946 ], [ 112.176642720000018, -7.636333416999946 ], [ 112.176804724000021, -7.636497111999972 ], [ 112.176970935000099, -7.636688957999979 ], [ 112.177078236000057, -7.636732748999975 ], [ 112.177322293000088, -7.636797391999949 ], [ 112.177715730000045, -7.63687454799998 ], [ 112.177716173000022, -7.636872400999948 ], [ 112.178003970000077, -7.636938148999945 ], [ 112.178044997000029, -7.636967342999981 ], [ 112.178075504000049, -7.637022341999966 ], [ 112.178172286000063, -7.637293427999964 ], [ 112.178222780000056, -7.637353900999926 ], [ 112.178271171, -7.637406032999934 ], [ 112.178601489000016, -7.637534276999929 ], [ 112.178604523000104, -7.637522593999961 ], [ 112.178942328000062, -7.637654701999963 ], [ 112.178993874000071, -7.637705790999973 ], [ 112.179031745000088, -7.637836902999936 ], [ 112.179017018000081, -7.63800163999997 ], [ 112.178988423000078, -7.638140689999943 ], [ 112.178971150000052, -7.63816227999996 ], [ 112.178917870000078, -7.638290139999981 ], [ 112.178917710000064, -7.638295279999966 ], [ 112.178914940000027, -7.638294239999937 ], [ 112.178866090000042, -7.638375219999944 ], [ 112.178551660000039, -7.639263009999979 ], [ 112.178344510000102, -7.639821569999981 ], [ 112.178107770000111, -7.640443019999964 ], [ 112.178105550000055, -7.640444929999944 ], [ 112.177211780000107, -7.640052189999949 ], [ 112.17721817000006, -7.640036419999944 ], [ 112.177620530000013, -7.639044179999928 ], [ 112.177872070000035, -7.638420879999956 ], [ 112.178028440000048, -7.638020279999978 ], [ 112.178036680000105, -7.63799918999996 ], [ 112.177772190000042, -7.63791225999995 ], [ 112.177359740000043, -7.637742099999969 ], [ 112.176788230000057, -7.637542349999933 ], [ 112.176549640000076, -7.63744061999995 ], [ 112.17641277000007, -7.637420279999958 ], [ 112.176279600000044, -7.637423979999937 ], [ 112.176094650000095, -7.637435069999981 ], [ 112.175915240000108, -7.637433219999934 ], [ 112.175819070000102, -7.637405479999927 ], [ 112.175565680000091, -7.637242719999961 ], [ 112.175460250000015, -7.637187229999938 ], [ 112.175319690000038, -7.637111399999981 ], [ 112.175173570000084, -7.637065159999963 ], [ 112.175090340000111, -7.636963439999931 ], [ 112.174820310000086, -7.636650859999975 ], [ 112.174589120000064, -7.636556539999958 ], [ 112.174389360000077, -7.636473309999928 ], [ 112.174132280000094, -7.636375279999982 ], [ 112.173814150000112, -7.636280949999957 ], [ 112.173623650000081, -7.636203269999953 ], [ 112.173527480000075, -7.636147789999939 ], [ 112.17344055, -7.636105249999957 ], [ 112.173201950000021, -7.636010919999933 ], [ 112.172990040000059, -7.635904959999948 ], [ 112.17298001000006, -7.635899949999953 ], [ 112.172859790000075, -7.635833359999936 ], [ 112.172741420000079, -7.635785269999928 ], [ 112.172613800000022, -7.635790819999954 ], [ 112.17249098000002, -7.635877199999925 ], [ 112.172445490000086, -7.63590918999995 ], [ 112.172397400000023, -7.635905499999978 ], [ 112.17230595, -7.63585846999996 ], [ 112.172267930000089, -7.635838909999961 ], [ 112.172208740000087, -7.635833359999936 ], [ 112.17206633, -7.635783429999947 ], [ 112.171914670000092, -7.635720539999966 ], [ 112.171764850000045, -7.635692799999958 ], [ 112.171672380000018, -7.635700199999974 ], [ 112.171587300000056, -7.635674299999948 ], [ 112.171271020000063, -7.635605869999949 ], [ 112.170899260000056, -7.635459749999939 ], [ 112.170695810000097, -7.635385769999971 ], [ 112.170618130000094, -7.635367279999969 ], [ 112.170544150000069, -7.635420909999937 ], [ 112.170491030000107, -7.635547199999962 ], [ 112.170362890000092, -7.635851859999946 ], [ 112.170306590000109, -7.636086169999942 ], [ 112.170301510000058, -7.636090309999929 ], [ 112.170298700000103, -7.636095929999954 ], [ 112.170254727000042, -7.636183875999961 ], [ 112.170177957000078, -7.636038411999948 ], [ 112.170125237000093, -7.635938516999943 ], [ 112.169933779000075, -7.635617903999957 ], [ 112.169815958000072, -7.635469848999946 ], [ 112.169759151000108, -7.635359328999925 ], [ 112.169769102000032, -7.635290292999969 ], [ 112.169955870000081, -7.634819238999967 ], [ 112.169631863000063, -7.634687865999979 ], [ 112.169238426000106, -7.634548150999933 ], [ 112.168782923000094, -7.634404265999933 ], [ 112.168895484000018, -7.634036733999949 ], [ 112.168893654000044, -7.634036159999937 ], [ 112.169176360000051, -7.63321773399997 ], [ 112.16923134700005, -7.633049405999941 ], [ 112.170204135000063, -7.633416357999977 ], [ 112.171763726000108, -7.63406691199998 ] ] ] ] } },
{ "type": "Feature", "properties": { "fid": 7053, "kk": null, "gid": 0.0, "bstt": null, "luas": 34744.239188939435, "bsbtt": null, "idsls": "35061500121006", "kdkab": "06", "kdkec": "150", "kdsls": "1006", "nmkab": "KEDIRI", "nmkec": "KUNJANG", "nmsls": "PERSAWAHAN PARE LOR", "bstt_k": null, "kddesa": "012", "kdprov": "35", "khusus": null, "muatan": null, "nmdesa": "PARELOR", "nmprov": "JAWA TIMUR", "posisi": null, "rw_dki": null, "segmen": null, "subsls": null, "sumber": null, "dom_sls": null, "periode": "2025_1", "tingkat": null, "idsubsls": "3506150012100600", "nm_gedung": null, "wil_campur": null, "iddesa": "3506150012", "kdsubsls": "00" }, "geometry": { "type": "MultiPolygon", "coordinates": [ [ [ [ 112.176808115000085, -7.635585503999948 ], [ 112.176499306000096, -7.636241653999946 ], [ 112.176498074000051, -7.636244270999953 ], [ 112.175885828000105, -7.635954416999937 ], [ 112.175006380000013, -7.63555039299996 ], [ 112.173312708000026, -7.634761111999978 ], [ 112.173049134000053, -7.634627844999955 ], [ 112.173052871000095, -7.634629477999965 ], [ 112.173290616000031, -7.634139433999962 ], [ 112.173421061000113, -7.634207205999928 ], [ 112.173519343000066, -7.633985724999945 ], [ 112.176760015000013, -7.635564468999974 ], [ 112.176808115000085, -7.635585503999948 ] ] ] ] } },
{ "type": "Feature", "properties": { "fid": 7054, "kk": null, "gid": 0.0, "bstt": null, "luas": 653791.25173878926, "bsbtt": null, "idsls": "35061500121007", "kdkab": "06", "kdkec": "150", "kdsls": "1007", "nmkab": "KEDIRI", "nmkec": "KUNJANG", "nmsls": "PERSAWAHAN JEMBER", "bstt_k": null, "kddesa": "012", "kdprov": "35", "khusus": null, "muatan": null, "nmdesa": "PARELOR", "nmprov": "JAWA TIMUR", "posisi": null, "rw_dki": null, "segmen": null, "subsls": null, "sumber": null, "dom_sls": null, "periode": "2025_1", "tingkat": null, "idsubsls": "3506150012100700", "nm_gedung": null, "wil_campur": null, "iddesa": "3506150012", "kdsubsls": "00" }, "geometry": { "type": "MultiPolygon", "coordinates": [ [ [ [ 112.179448740000112, -7.628998789999969 ], [ 112.179450580000093, -7.62900247999994 ], [ 112.179466732000037, -7.629037942999958 ], [ 112.179466869000066, -7.629038243999958 ], [ 112.179467250000016, -7.629039079999927 ], [ 112.179511610000077, -7.629136459999927 ], [ 112.17955738, -7.629224669999928 ], [ 112.17965657000002, -7.62943877999993 ], [ 112.179740490000086, -7.629631419999953 ], [ 112.179915960000017, -7.630130659999963 ], [ 112.180137210000112, -7.63055836999996 ], [ 112.180282170000055, -7.630748639999979 ], [ 112.180648370000085, -7.631032819999973 ], [ 112.18113668, -7.631376629999977 ], [ 112.181762280000044, -7.631874929999981 ], [ 112.18231159000004, -7.632242099999928 ], [ 112.182412120000095, -7.632349229999932 ], [ 112.182456550000097, -7.632396579999977 ], [ 112.182708330000082, -7.632728929999928 ], [ 112.182723102000068, -7.632762773999957 ], [ 112.182838010000069, -7.63302602999994 ], [ 112.183112670000014, -7.633441819999973 ], [ 112.183440100000098, -7.633987199999979 ], [ 112.183440740000037, -7.633988259999967 ], [ 112.183453727000028, -7.634019146999947 ], [ 112.183585700000094, -7.634333009999978 ], [ 112.183539920000044, -7.634475599999973 ], [ 112.183394970000109, -7.63470351999996 ], [ 112.183066900000085, -7.634973899999977 ], [ 112.182639660000063, -7.635261899999932 ], [ 112.182464170000117, -7.635400649999951 ], [ 112.182303980000029, -7.635615719999976 ], [ 112.182242920000022, -7.635794049999959 ], [ 112.182288690000064, -7.636094939999964 ], [ 112.182532840000022, -7.636818299999959 ], [ 112.1828761700001, -7.637418149999974 ], [ 112.183005870000102, -7.637655619999975 ], [ 112.183410220000042, -7.638039959999958 ], [ 112.183599710000067, -7.638218059999929 ], [ 112.183600980000051, -7.638219249999963 ], [ 112.183600480000109, -7.638220349999926 ], [ 112.183112670000014, -7.639294499999949 ], [ 112.182900030000042, -7.639638169999955 ], [ 112.182899040000052, -7.639639759999966 ], [ 112.182830390000049, -7.639852899999937 ], [ 112.182834930000013, -7.639897819999931 ], [ 112.182428320000099, -7.639655109999978 ], [ 112.181869750000033, -7.639451659999963 ], [ 112.181455600000049, -7.639207929999941 ], [ 112.181420910000043, -7.639194619999955 ], [ 112.18102174, -7.638931939999964 ], [ 112.18042988000002, -7.63851023999996 ], [ 112.180276110000023, -7.638401379999948 ], [ 112.179264660000058, -7.637685339999962 ], [ 112.179083410000089, -7.638021959999946 ], [ 112.178988423000078, -7.638140689999943 ], [ 112.179017018000081, -7.63800163999997 ], [ 112.179031745000088, -7.637836902999936 ], [ 112.178993874000071, -7.637705790999973 ], [ 112.178942328000062, -7.637654701999963 ], [ 112.178604523000104, -7.637522593999961 ], [ 112.178624633000027, -7.637445131999925 ], [ 112.178671008000038, -7.637208276999957 ], [ 112.178718682000067, -7.637221654999962 ], [ 112.178752447000079, -7.637231129999975 ], [ 112.178759285000069, -7.637211840999953 ], [ 112.178771909000034, -7.637169092999955 ], [ 112.179425042000048, -7.63736788999995 ], [ 112.179453586000022, -7.63737657799993 ], [ 112.179455107000081, -7.637372058999972 ], [ 112.179623493, -7.637409389999959 ], [ 112.180546583000023, -7.63761403899997 ], [ 112.18071507500008, -7.636572881999939 ], [ 112.180717528000059, -7.63657322499995 ], [ 112.180803790000027, -7.63562546299994 ], [ 112.180785906000096, -7.635620249999931 ], [ 112.180096868000078, -7.635433257999978 ], [ 112.180097392000107, -7.635431531999927 ], [ 112.180047302000048, -7.635415704999957 ], [ 112.179835590000039, -7.635348807999947 ], [ 112.178275073, -7.634855713999968 ], [ 112.178276431000086, -7.634851560999948 ], [ 112.17770611900005, -7.634683622999944 ], [ 112.1777131, -7.634661017999974 ], [ 112.177673126000059, -7.634669358999929 ], [ 112.177466939000055, -7.634661017999974 ], [ 112.17374062500005, -7.632950094999956 ], [ 112.173756639000089, -7.63291223799996 ], [ 112.174028366000016, -7.632189971999935 ], [ 112.174173220000057, -7.631804942999963 ], [ 112.173304292000012, -7.631461387999934 ], [ 112.172546873000101, -7.631144942999981 ], [ 112.172101890000022, -7.630931198999974 ], [ 112.172040971000115, -7.63084157399993 ], [ 112.172586820000106, -7.62972874999997 ], [ 112.172602430000097, -7.629696939999974 ], [ 112.17269340200005, -7.629511467999976 ], [ 112.172708930000113, -7.629479809999964 ], [ 112.172777569, -7.629335331999926 ], [ 112.172914490000039, -7.629047129999947 ], [ 112.173174541000094, -7.628499756999929 ], [ 112.17318350000005, -7.628480899999943 ], [ 112.173299630000088, -7.628528079999967 ], [ 112.174059630000102, -7.628998079999974 ], [ 112.174929630000065, -7.629568079999956 ], [ 112.175859620000097, -7.630028079999931 ], [ 112.176117950000048, -7.630048749999958 ], [ 112.17660963000003, -7.63008807999995 ], [ 112.177169630000094, -7.630038079999963 ], [ 112.177529620000087, -7.629978079999944 ], [ 112.177959620000024, -7.629848079999931 ], [ 112.17814963, -7.629768079999963 ], [ 112.178696520000017, -7.629543459999979 ], [ 112.178709630000071, -7.629538079999975 ], [ 112.178859620000026, -7.629388079999956 ], [ 112.178929620000076, -7.629358079999975 ], [ 112.179119620000051, -7.629248079999968 ], [ 112.179249620000064, -7.629158079999968 ], [ 112.179448740000112, -7.628998789999969 ] ] ] ] } },
{ "type": "Feature", "properties": { "fid": 7055, "kk": null, "gid": 0.0, "bstt": null, "luas": 57669.396930990566, "bsbtt": null, "idsls": "35061500121008", "kdkab": "06", "kdkec": "150", "kdsls": "1008", "nmkab": "KEDIRI", "nmkec": "KUNJANG", "nmsls": "PERSAWAHAN PARE LOR", "bstt_k": null, "kddesa": "012", "kdprov": "35", "khusus": null, "muatan": null, "nmdesa": "PARELOR", "nmprov": "JAWA TIMUR", "posisi": null, "rw_dki": null, "segmen": null, "subsls": null, "sumber": null, "dom_sls": null, "periode": "2025_1", "tingkat": null, "idsubsls": "3506150012100800", "nm_gedung": null, "wil_campur": null, "iddesa": "3506150012", "kdsubsls": "00" }, "geometry": { "type": "MultiPolygon", "coordinates": [ [ [ [ 112.17770611900005, -7.634683622999944 ], [ 112.177527954000084, -7.635260537999955 ], [ 112.177288104000013, -7.635795413999972 ], [ 112.176808115000085, -7.635585503999948 ], [ 112.176760015000013, -7.635564468999974 ], [ 112.173519343000066, -7.633985724999945 ], [ 112.173520998000072, -7.633981994999942 ], [ 112.173335851000047, -7.633881899999949 ], [ 112.173509270000068, -7.633490222999967 ], [ 112.173573597000086, -7.633344936999947 ], [ 112.17374062500005, -7.632950094999956 ], [ 112.177466939000055, -7.634661017999974 ], [ 112.177673126000059, -7.634669358999929 ], [ 112.1777131, -7.634661017999974 ], [ 112.17770611900005, -7.634683622999944 ] ] ] ] } },
{ "type": "Feature", "properties": { "fid": 7056, "kk": null, "gid": 0.0, "bstt": null, "luas": 25913.783307674697, "bsbtt": null, "idsls": "35061500120016", "kdkab": "06", "kdkec": "150", "kdsls": "0016", "nmkab": "KEDIRI", "nmkec": "KUNJANG", "nmsls": "RT 005 RW 001 DUSUN PARELOR", "bstt_k": null, "kddesa": "012", "kdprov": "35", "khusus": null, "muatan": null, "nmdesa": "PARELOR", "nmprov": "JAWA TIMUR", "posisi": null, "rw_dki": null, "segmen": null, "subsls": null, "sumber": null, "dom_sls": null, "periode": "2025_1", "tingkat": null, "idsubsls": "3506150012001600", "nm_gedung": null, "wil_campur": null, "iddesa": "3506150012", "kdsubsls": "00" }, "geometry": { "type": "MultiPolygon", "coordinates": [ [ [ [ 112.172646606000058, -7.631944484999963 ], [ 112.171957986000052, -7.631735558999935 ], [ 112.171880524000017, -7.631927529999928 ], [ 112.171815754000022, -7.631901126999935 ], [ 112.171473863000074, -7.631760368999949 ], [ 112.17148859100007, -7.631728046999967 ], [ 112.171241378000104, -7.631646719999935 ], [ 112.171399173000054, -7.631222881999975 ], [ 112.171400815000084, -7.631219205999969 ], [ 112.171645528000113, -7.630671458999927 ], [ 112.172040880000054, -7.630841759999953 ], [ 112.172040971000115, -7.63084157399993 ], [ 112.172101890000022, -7.630931198999974 ], [ 112.172546873000101, -7.631144942999981 ], [ 112.173304292000012, -7.631461387999934 ], [ 112.174173220000057, -7.631804942999963 ], [ 112.174028366000016, -7.632189971999935 ], [ 112.173776627000052, -7.632095059999926 ], [ 112.173673534000045, -7.632367191999947 ], [ 112.173329539000065, -7.632228519999956 ], [ 112.173336903000063, -7.632203495999931 ], [ 112.173097054000095, -7.632113827999945 ], [ 112.173097054000095, -7.63210652999993 ], [ 112.17310021000003, -7.632083590999969 ], [ 112.17265101800001, -7.631931363999968 ], [ 112.172646606000058, -7.631944484999963 ] ] ] ] } },
{ "type": "Feature", "properties": { "fid": 7057, "kk": null, "gid": 0.0, "bstt": null, "luas": 10228.334422800835, "bsbtt": null, "idsls": "35061500120023", "kdkab": "06", "kdkec": "150", "kdsls": "0023", "nmkab": "KEDIRI", "nmkec": "KUNJANG", "nmsls": "RT 004 RW 001 DUSUN JEMBER", "bstt_k": null, "kddesa": "012", "kdprov": "35", "khusus": null, "muatan": null, "nmdesa": "PARELOR", "nmprov": "JAWA TIMUR", "posisi": null, "rw_dki": null, "segmen": null, "subsls": null, "sumber": null, "dom_sls": null, "periode": "2025_1", "tingkat": null, "idsubsls": "3506150012002300", "nm_gedung": null, "wil_campur": null, "iddesa": "3506150012", "kdsubsls": "00" }, "geometry": { "type": "MultiPolygon", "coordinates": [ [ [ [ 112.179701469000065, -7.635944553999934 ], [ 112.179927049000071, -7.636010340999974 ], [ 112.179894887000046, -7.636202565999952 ], [ 112.179924342000049, -7.636211949999961 ], [ 112.179916979000041, -7.636285976999943 ], [ 112.179911450000077, -7.636285031999932 ], [ 112.179825457000106, -7.636270337999974 ], [ 112.17982440500009, -7.636299530999963 ], [ 112.179673973000035, -7.636288583999942 ], [ 112.179665131000093, -7.636400015999925 ], [ 112.178820689000077, -7.636169301999928 ], [ 112.17878273000008, -7.636319410999931 ], [ 112.17874903500001, -7.636331029999951 ], [ 112.178750164, -7.636324640999931 ], [ 112.178484455000103, -7.636255624999933 ], [ 112.178499984000041, -7.636202138999977 ], [ 112.178234865000036, -7.636125012999969 ], [ 112.178262755000105, -7.636022188999959 ], [ 112.178189117000102, -7.636002378999933 ], [ 112.178228040000022, -7.635872047999953 ], [ 112.178322975000015, -7.635537820999957 ], [ 112.178723518000083, -7.63565934899998 ], [ 112.179701469000065, -7.635944553999934 ] ] ] ] } },
{ "type": "Feature", "properties": { "fid": 7058, "kk": null, "gid": 0.0, "bstt": null, "luas": 11817.834692333039, "bsbtt": null, "idsls": "35061500120024", "kdkab": "06", "kdkec": "150", "kdsls": "0024", "nmkab": "KEDIRI", "nmkec": "KUNJANG", "nmsls": "RT 001 RW 002 DUSUN JEMBER", "bstt_k": null, "kddesa": "012", "kdprov": "35", "khusus": null, "muatan": null, "nmdesa": "PARELOR", "nmprov": "JAWA TIMUR", "posisi": null, "rw_dki": null, "segmen": null, "subsls": null, "sumber": null, "dom_sls": null, "periode": "2025_1", "tingkat": null, "idsubsls": "3506150012002400", "nm_gedung": null, "wil_campur": null, "iddesa": "3506150012", "kdsubsls": "00" }, "geometry": { "type": "MultiPolygon", "coordinates": [ [ [ [ 112.179882491000058, -7.63650102899993 ], [ 112.179911450000077, -7.636285031999932 ], [ 112.179916979000041, -7.636285976999943 ], [ 112.179924342000049, -7.636211949999961 ], [ 112.179894887000046, -7.636202565999952 ], [ 112.179927049000071, -7.636010340999974 ], [ 112.179701469000065, -7.635944553999934 ], [ 112.179835590000039, -7.635348807999947 ], [ 112.180047302000048, -7.635415704999957 ], [ 112.180097392000107, -7.635431531999927 ], [ 112.180096868000078, -7.635433257999978 ], [ 112.180785906000096, -7.635620249999931 ], [ 112.180803790000027, -7.63562546299994 ], [ 112.180717528000059, -7.63657322499995 ], [ 112.18071507500008, -7.636572881999939 ], [ 112.180061099000113, -7.636481471999957 ], [ 112.180057943000065, -7.63652213499995 ], [ 112.179882491000058, -7.63650102899993 ] ] ] ] } },
{ "type": "Feature", "properties": { "fid": 7059, "kk": null, "gid": 0.0, "bstt": null, "luas": 11793.540327128125, "bsbtt": null, "idsls": "35061500120025", "kdkab": "06", "kdkec": "150", "kdsls": "0025", "nmkab": "KEDIRI", "nmkec": "KUNJANG", "nmsls": "RT 002 RW 002 DUSUN JEMBER", "bstt_k": null, "kddesa": "012", "kdprov": "35", "khusus": null, "muatan": null, "nmdesa": "PARELOR", "nmprov": "JAWA TIMUR", "posisi": null, "rw_dki": null, "segmen": null, "subsls": null, "sumber": null, "dom_sls": null, "periode": "2025_1", "tingkat": null, "idsubsls": "3506150012002500", "nm_gedung": null, "wil_campur": null, "iddesa": "3506150012", "kdsubsls": "00" }, "geometry": { "type": "MultiPolygon", "coordinates": [ [ [ [ 112.179911450000077, -7.636285031999932 ], [ 112.179882491000058, -7.63650102899993 ], [ 112.180057943000065, -7.63652213499995 ], [ 112.180061099000113, -7.636481471999957 ], [ 112.18071507500008, -7.636572881999939 ], [ 112.180546583000023, -7.63761403899997 ], [ 112.179623493, -7.637409389999959 ], [ 112.179691467000112, -7.637159886999939 ], [ 112.179722524000113, -7.637171101999968 ], [ 112.17980447900004, -7.636823437999965 ], [ 112.179719936000083, -7.63681394799994 ], [ 112.179763070000035, -7.636483536999947 ], [ 112.179659505000018, -7.636470907999978 ], [ 112.179665131000093, -7.636400015999925 ], [ 112.179673973000035, -7.636288583999942 ], [ 112.17982440500009, -7.636299530999963 ], [ 112.179825457000106, -7.636270337999974 ], [ 112.179911450000077, -7.636285031999932 ] ] ] ] } },
{ "type": "Feature", "properties": { "fid": 7060, "kk": null, "gid": 0.0, "bstt": null, "luas": 10435.026859476966, "bsbtt": null, "idsls": "35061500120006", "kdkab": "06", "kdkec": "150", "kdsls": "0006", "nmkab": "KEDIRI", "nmkec": "KUNJANG", "nmsls": "RT 002 RW 001 DUSUN PLOSO", "bstt_k": null, "kddesa": "012", "kdprov": "35", "khusus": null, "muatan": null, "nmdesa": "PARELOR", "nmprov": "JAWA TIMUR", "posisi": null, "rw_dki": null, "segmen": null, "subsls": null, "sumber": null, "dom_sls": null, "periode": "2025_1", "tingkat": null, "idsubsls": "3506150012000600", "nm_gedung": null, "wil_campur": null, "iddesa": "3506150012", "kdsubsls": "00" }, "geometry": { "type": "MultiPolygon", "coordinates": [ [ [ [ 112.167814233000058, -7.634847046999937 ], [ 112.167722569000034, -7.634840189999977 ], [ 112.167589219000092, -7.635388304999935 ], [ 112.167551365, -7.635381109999969 ], [ 112.167552117000014, -7.635378356999979 ], [ 112.167112394000014, -7.63529755199994 ], [ 112.166710541000043, -7.635132813999974 ], [ 112.166607448000036, -7.635009781999941 ], [ 112.166526709000095, -7.63483537299993 ], [ 112.166642163, -7.634576562999939 ], [ 112.166699809000079, -7.634441328999969 ], [ 112.166756777000046, -7.634307682999975 ], [ 112.166901117000066, -7.634354136999946 ], [ 112.166873084000031, -7.634449623999956 ], [ 112.166989313000045, -7.634476208999956 ], [ 112.166989093000097, -7.634477266999966 ], [ 112.167487816000062, -7.634578286999954 ], [ 112.167495251000105, -7.634579792999943 ], [ 112.167863501000056, -7.634676917999968 ], [ 112.167814233000058, -7.634847046999937 ] ] ] ] } },
{ "type": "Feature", "properties": { "fid": 7061, "kk": null, "gid": 0.0, "bstt": null, "luas": 8769.9793497261453, "bsbtt": null, "idsls": "35061500120010", "kdkab": "06", "kdkec": "150", "kdsls": "0010", "nmkab": "KEDIRI", "nmkec": "KUNJANG", "nmsls": "RT 002 RW 002 DUSUN PLOSO", "bstt_k": null, "kddesa": "012", "kdprov": "35", "khusus": null, "muatan": null, "nmdesa": "PARELOR", "nmprov": "JAWA TIMUR", "posisi": null, "rw_dki": null, "segmen": null, "subsls": null, "sumber": null, "dom_sls": null, "periode": "2025_1", "tingkat": null, "idsubsls": "3506150012001000", "nm_gedung": null, "wil_campur": null, "iddesa": "3506150012", "kdsubsls": "00" }, "geometry": { "type": "MultiPolygon", "coordinates": [ [ [ [ 112.170177957000078, -7.636038411999948 ], [ 112.170056605000013, -7.636278214999948 ], [ 112.170056431000035, -7.63627813599993 ], [ 112.169679202000111, -7.636106902999927 ], [ 112.169180568000115, -7.635900459999959 ], [ 112.168599903000086, -7.635646778999956 ], [ 112.168540970000095, -7.63562103199996 ], [ 112.168539519000092, -7.635620435999954 ], [ 112.168282185000066, -7.63551468299994 ], [ 112.168316717000039, -7.63541526399996 ], [ 112.168314796000118, -7.635422408999943 ], [ 112.168812378000098, -7.63557671999996 ], [ 112.169090098000083, -7.635591316999978 ], [ 112.169233166000026, -7.63554179099998 ], [ 112.16934677900008, -7.635450038999977 ], [ 112.169767567, -7.635294163999959 ], [ 112.169769102000032, -7.635290292999969 ], [ 112.169759151000108, -7.635359328999925 ], [ 112.169815958000072, -7.635469848999946 ], [ 112.169933779000075, -7.635617903999957 ], [ 112.170125237000093, -7.635938516999943 ], [ 112.170177957000078, -7.636038411999948 ] ] ] ] } },
{ "type": "Feature", "properties": { "fid": 7062, "kk": null, "gid": 0.0, "bstt": null, "luas": 10897.250211727922, "bsbtt": null, "idsls": "35061500120011", "kdkab": "06", "kdkec": "150", "kdsls": "0011", "nmkab": "KEDIRI", "nmkec": "KUNJANG", "nmsls": "RT 003 RW 002 DUSUN PLOSO", "bstt_k": null, "kddesa": "012", "kdprov": "35", "khusus": null, "muatan": null, "nmdesa": "PARELOR", "nmprov": "JAWA TIMUR", "posisi": null, "rw_dki": null, "segmen": null, "subsls": null, "sumber": null, "dom_sls": null, "periode": "2025_1", "tingkat": null, "idsubsls": "3506150012001100", "nm_gedung": null, "wil_campur": null, "iddesa": "3506150012", "kdsubsls": "00" }, "geometry": { "type": "MultiPolygon", "coordinates": [ [ [ [ 112.170056431000035, -7.63627813599993 ], [ 112.169928522000077, -7.63638543899998 ], [ 112.169800869000028, -7.636608830999933 ], [ 112.169796010000027, -7.636610169999926 ], [ 112.169734248000054, -7.636719911999933 ], [ 112.168372183000088, -7.636206288999972 ], [ 112.168314585000076, -7.636184568999965 ], [ 112.168539519000092, -7.635620435999954 ], [ 112.168540970000095, -7.63562103199996 ], [ 112.168599903000086, -7.635646778999956 ], [ 112.169180568000115, -7.635900459999959 ], [ 112.169679202000111, -7.636106902999927 ], [ 112.170056431000035, -7.63627813599993 ] ] ] ] } },
{ "type": "Feature", "properties": { "fid": 7063, "kk": null, "gid": 0.0, "bstt": null, "luas": 22444.51055340832, "bsbtt": null, "idsls": "35061500120012", "kdkab": "06", "kdkec": "150", "kdsls": "0012", "nmkab": "KEDIRI", "nmkec": "KUNJANG", "nmsls": "RT 001 RW 001 DUSUN PARELOR", "bstt_k": null, "kddesa": "012", "kdprov": "35", "khusus": null, "muatan": null, "nmdesa": "PARELOR", "nmprov": "JAWA TIMUR", "posisi": null, "rw_dki": null, "segmen": null, "subsls": null, "sumber": null, "dom_sls": null, "periode": "2025_1", "tingkat": null, "idsubsls": "3506150012001200", "nm_gedung": null, "wil_campur": null, "iddesa": "3506150012", "kdsubsls": "00" }, "geometry": { "type": "MultiPolygon", "coordinates": [ [ [ [ 112.169563753000034, -7.631957531999944 ], [ 112.169581368000081, -7.631965771999944 ], [ 112.169581918000063, -7.631964493999931 ], [ 112.170228808000047, -7.632297490999974 ], [ 112.170031612000116, -7.63280406299998 ], [ 112.170462920000091, -7.633020933999944 ], [ 112.170692249000012, -7.633130932999961 ], [ 112.171230858000058, -7.633333206999964 ], [ 112.171944938000024, -7.633610254999951 ], [ 112.171763726000108, -7.63406691199998 ], [ 112.170204135000063, -7.633416357999977 ], [ 112.16923134700005, -7.633049405999941 ], [ 112.169443560000104, -7.632399774999953 ], [ 112.169540342, -7.632078116999935 ], [ 112.169038833000059, -7.631912428999954 ], [ 112.169038552000075, -7.631913117999943 ], [ 112.168927296000106, -7.631876772999931 ], [ 112.168996545000027, -7.631700502999934 ], [ 112.169105201000093, -7.631749971999966 ], [ 112.169357260000083, -7.631864729999961 ], [ 112.169358474000092, -7.63186150599995 ], [ 112.169563753000034, -7.631957531999944 ] ] ] ] } }
]
}
