{
"type": "FeatureCollection",
"name": "iddesa_3506150010",
"crs": { "type": "name", "properties": { "name": "urn:ogc:def:crs:OGC:1.3:CRS84" } },
"features": [
{ "type": "Feature", "properties": { "fid": 6980, "kk": null, "gid": 0.0, "bstt": null, "luas": 26185.393647333622, "bsbtt": null, "idsls": "35061500100001", "kdkab": "06", "kdkec": "150", "kdsls": "0001", "nmkab": "KEDIRI", "nmkec": "KUNJANG", "nmsls": "RT 001 RW 001 DUSUN KLEPEK", "bstt_k": null, "kddesa": "010", "kdprov": "35", "khusus": null, "muatan": null, "nmdesa": "KLEPEK", "nmprov": "JAWA TIMUR", "posisi": null, "rw_dki": null, "segmen": null, "subsls": null, "sumber": null, "dom_sls": null, "periode": "2025_1", "tingkat": null, "idsubsls": "3506150010000100", "nm_gedung": null, "wil_campur": null, "iddesa": "3506150010", "kdsubsls": "00" }, "geometry": { "type": "MultiPolygon", "coordinates": [ [ [ [ 112.152371985000059, -7.654206540999951 ], [ 112.152327210000067, -7.654347009999981 ], [ 112.152185640000084, -7.654791189999969 ], [ 112.152140130000021, -7.654915849999952 ], [ 112.152100790000077, -7.655023609999944 ], [ 112.152100150000024, -7.655025719999969 ], [ 112.151949090000016, -7.654982769999947 ], [ 112.151926740000022, -7.654976499999975 ], [ 112.150207770000065, -7.65449437999996 ], [ 112.150204153, -7.654493369999955 ], [ 112.150204010000039, -7.65449332999998 ], [ 112.150204067, -7.65449306499994 ], [ 112.150210310000034, -7.65446419999995 ], [ 112.150168180000037, -7.654438269999957 ], [ 112.150132540000072, -7.654392909999956 ], [ 112.150109850000035, -7.654337819999967 ], [ 112.150090410000075, -7.654269769999928 ], [ 112.150103370000011, -7.654234129999963 ], [ 112.150226510000039, -7.653793429999951 ], [ 112.150063890000069, -7.65375298999993 ], [ 112.14999074800005, -7.653723955999965 ], [ 112.150102306, -7.65341717299998 ], [ 112.150105265000093, -7.653409035999971 ], [ 112.15031303100011, -7.653478764999932 ], [ 112.150336671000105, -7.65339996299997 ], [ 112.150921077000021, -7.653558920999956 ], [ 112.150900596000042, -7.653674358999979 ], [ 112.151145732000032, -7.653750866999928 ], [ 112.151487707000115, -7.653910240999949 ], [ 112.151904165000019, -7.654049593999957 ], [ 112.152371985000059, -7.654206540999951 ] ] ] ] } },
{ "type": "Feature", "properties": { "fid": 6981, "kk": null, "gid": 0.0, "bstt": null, "luas": 21252.138519511514, "bsbtt": null, "idsls": "35061500100004", "kdkab": "06", "kdkec": "150", "kdsls": "0004", "nmkab": "KEDIRI", "nmkec": "KUNJANG", "nmsls": "RT 004 RW 001 DUSUN KLEPEK", "bstt_k": null, "kddesa": "010", "kdprov": "35", "khusus": null, "muatan": null, "nmdesa": "KLEPEK", "nmprov": "JAWA TIMUR", "posisi": null, "rw_dki": null, "segmen": null, "subsls": null, "sumber": null, "dom_sls": null, "periode": "2025_1", "tingkat": null, "idsubsls": "3506150010000400", "nm_gedung": null, "wil_campur": null, "iddesa": "3506150010", "kdsubsls": "00" }, "geometry": { "type": "MultiPolygon", "coordinates": [ [ [ [ 112.152191332000029, -7.653344662999928 ], [ 112.152227734, -7.653263458999959 ], [ 112.152009080000084, -7.653177636999942 ], [ 112.151840094000022, -7.653138393999939 ], [ 112.15184810300002, -7.653112765999936 ], [ 112.151570198000059, -7.653031876999933 ], [ 112.151546172000053, -7.653102554999975 ], [ 112.151233829000034, -7.652982422999969 ], [ 112.150694036, -7.652787008999951 ], [ 112.150621957000112, -7.652771190999943 ], [ 112.150548277000098, -7.652755173999935 ], [ 112.150455375000092, -7.652722337999933 ], [ 112.150462582000046, -7.65269670999993 ], [ 112.150308814000027, -7.652650258999927 ], [ 112.150269561000073, -7.652752677999956 ], [ 112.150241123000114, -7.652740323999979 ], [ 112.15023566800005, -7.652737953999974 ], [ 112.149996471, -7.652634040999942 ], [ 112.149989185000095, -7.652631247999977 ], [ 112.150242184000035, -7.651942141999939 ], [ 112.150892654000018, -7.652153312999928 ], [ 112.151240236000035, -7.652279851999936 ], [ 112.151259457000037, -7.652231798999935 ], [ 112.151741304000097, -7.652423664999958 ], [ 112.151743845000055, -7.652424676999942 ], [ 112.151790440000013, -7.65244323099995 ], [ 112.151771219000011, -7.652482073999977 ], [ 112.151978646000089, -7.652551750999976 ], [ 112.151989859000082, -7.65252131699998 ], [ 112.152082370000016, -7.652547292999941 ], [ 112.152152437000041, -7.652566966999927 ], [ 112.152158844000041, -7.652556355999934 ], [ 112.152694410000095, -7.652771363999932 ], [ 112.152691810000078, -7.652778149999961 ], [ 112.152691940000068, -7.652774159999979 ], [ 112.15268831000003, -7.652783499999941 ], [ 112.152623370000015, -7.65295059999994 ], [ 112.152618750000101, -7.652948939999931 ], [ 112.152495040000076, -7.653271141999937 ], [ 112.152490059000115, -7.653284115999952 ], [ 112.152467450000017, -7.653343 ], [ 112.152461642000048, -7.653358127999979 ], [ 112.152459299000043, -7.653364231999944 ], [ 112.152435064000088, -7.653427360999956 ], [ 112.152431647000071, -7.653436262999946 ], [ 112.152191332000029, -7.653344662999928 ] ] ] ] } },
{ "type": "Feature", "properties": { "fid": 6982, "kk": null, "gid": 0.0, "bstt": null, "luas": 29855.048761520353, "bsbtt": null, "idsls": "35061500100003", "kdkab": "06", "kdkec": "150", "kdsls": "0003", "nmkab": "KEDIRI", "nmkec": "KUNJANG", "nmsls": "RT 003 RW 001 DUSUN KLEPEK", "bstt_k": null, "kddesa": "010", "kdprov": "35", "khusus": null, "muatan": null, "nmdesa": "KLEPEK", "nmprov": "JAWA TIMUR", "posisi": null, "rw_dki": null, "segmen": null, "subsls": null, "sumber": null, "dom_sls": null, "periode": "2025_1", "tingkat": null, "idsubsls": "3506150010000300", "nm_gedung": null, "wil_campur": null, "iddesa": "3506150010", "kdsubsls": "00" }, "geometry": { "type": "MultiPolygon", "coordinates": [ [ [ [ 112.150108300000056, -7.65301154499997 ], [ 112.150106699000048, -7.653010583999958 ], [ 112.149984181000036, -7.653343366999934 ], [ 112.14997366700004, -7.653370862999964 ], [ 112.150102306, -7.65341717299998 ], [ 112.14999074800005, -7.653723955999965 ], [ 112.149936090000097, -7.653702259999932 ], [ 112.149935070000083, -7.653701849999948 ], [ 112.148086139000043, -7.652967943999954 ], [ 112.14765571800001, -7.652797094999926 ], [ 112.147816479000085, -7.65236334399998 ], [ 112.147664312000074, -7.652312087999974 ], [ 112.147707559000082, -7.652179141999966 ], [ 112.147898168000097, -7.652240007999978 ], [ 112.148005486000102, -7.65187881199995 ], [ 112.148009372000047, -7.651880262999953 ], [ 112.148815975000048, -7.652181543999973 ], [ 112.149989185000095, -7.652631247999977 ], [ 112.149996471, -7.652634040999942 ], [ 112.15023566800005, -7.652737953999974 ], [ 112.150139218000049, -7.653019006999955 ], [ 112.15010845300003, -7.653011067999955 ], [ 112.150108300000056, -7.65301154499997 ] ] ] ] } },
{ "type": "Feature", "properties": { "fid": 6983, "kk": null, "gid": 0.0, "bstt": null, "luas": 20404.889268525643, "bsbtt": null, "idsls": "35061500100018", "kdkab": "06", "kdkec": "150", "kdsls": "0018", "nmkab": "KEDIRI", "nmkec": "KUNJANG", "nmsls": "RT 018 RW 005 DUSUN BANENGAN", "bstt_k": null, "kddesa": "010", "kdprov": "35", "khusus": null, "muatan": null, "nmdesa": "KLEPEK", "nmprov": "JAWA TIMUR", "posisi": null, "rw_dki": null, "segmen": null, "subsls": null, "sumber": null, "dom_sls": null, "periode": "2025_1", "tingkat": null, "idsubsls": "3506150010001800", "nm_gedung": null, "wil_campur": null, "iddesa": "3506150010", "kdsubsls": "00" }, "geometry": { "type": "MultiPolygon", "coordinates": [ [ [ [ 112.150423176000118, -7.646185597999931 ], [ 112.150381616, -7.646285340999952 ], [ 112.15020103400002, -7.646239757999979 ], [ 112.150274669000055, -7.646010085999933 ], [ 112.150199281000027, -7.645994306999967 ], [ 112.150143178, -7.646124044999965 ], [ 112.150043245, -7.64609599399995 ], [ 112.150087075000101, -7.645955735999962 ], [ 112.150001168000017, -7.64595398299997 ], [ 112.149967856000103, -7.646060929999976 ], [ 112.149848638000094, -7.646020604999933 ], [ 112.149791155000116, -7.646162799999956 ], [ 112.149686130000077, -7.646123495999973 ], [ 112.149671715000068, -7.646166742999981 ], [ 112.149586821000071, -7.646139513999969 ], [ 112.149596432000067, -7.646123495999973 ], [ 112.149498725000058, -7.646086655999966 ], [ 112.149506733000067, -7.646046611999964 ], [ 112.149341856000092, -7.645974741999964 ], [ 112.149400693000075, -7.645817893999947 ], [ 112.149554786000067, -7.645407109999951 ], [ 112.150121809000098, -7.64555286999996 ], [ 112.15153169000007, -7.645866606999959 ], [ 112.151748280000106, -7.645293749999951 ], [ 112.151818224000067, -7.645234655999957 ], [ 112.151855574000024, -7.645827232999977 ], [ 112.152409695000074, -7.646230359999947 ], [ 112.152203367000084, -7.646687575999977 ], [ 112.15143128200009, -7.646323092999978 ], [ 112.151398599000117, -7.646388137999963 ], [ 112.151009268000053, -7.646125798999947 ], [ 112.150847972000065, -7.64607495499996 ], [ 112.150550261000035, -7.646040270999947 ], [ 112.150480563000087, -7.646212856999966 ], [ 112.150423176000118, -7.646185597999931 ] ] ] ] } },
{ "type": "Feature", "properties": { "fid": 6984, "kk": null, "gid": 0.0, "bstt": null, "luas": 19837.530860868646, "bsbtt": null, "idsls": "35061500100005", "kdkab": "06", "kdkec": "150", "kdsls": "0005", "nmkab": "KEDIRI", "nmkec": "KUNJANG", "nmsls": "RT 005 RW 002 DUSUN KLEPEK", "bstt_k": null, "kddesa": "010", "kdprov": "35", "khusus": null, "muatan": null, "nmdesa": "KLEPEK", "nmprov": "JAWA TIMUR", "posisi": null, "rw_dki": null, "segmen": null, "subsls": null, "sumber": null, "dom_sls": null, "periode": "2025_1", "tingkat": null, "idsubsls": "3506150010000500", "nm_gedung": null, "wil_campur": null, "iddesa": "3506150010", "kdsubsls": "00" }, "geometry": { "type": "MultiPolygon", "coordinates": [ [ [ [ 112.150260775000106, -7.651881602999936 ], [ 112.150263965000022, -7.651882815999954 ], [ 112.150242184000035, -7.651942141999939 ], [ 112.149989185000095, -7.652631247999977 ], [ 112.148815975000048, -7.652181543999973 ], [ 112.148009372000047, -7.651880262999953 ], [ 112.148205854000025, -7.651185019999957 ], [ 112.148208475000047, -7.651177166999958 ], [ 112.148712662000094, -7.651349230999926 ], [ 112.148699047000036, -7.651387672999931 ], [ 112.148824785000102, -7.651437327999929 ], [ 112.148848011000041, -7.651386671999944 ], [ 112.149086673000056, -7.651475569999945 ], [ 112.149106694000011, -7.651415503999942 ], [ 112.149339750000081, -7.651506803999951 ], [ 112.149322932000018, -7.65155565699996 ], [ 112.14955038100004, -7.651635744999965 ], [ 112.149549581000088, -7.651660572999958 ], [ 112.149801857000057, -7.651741060999939 ], [ 112.149790645000053, -7.651777900999946 ], [ 112.150018095000064, -7.65186519699995 ], [ 112.150042922000011, -7.651798723999946 ], [ 112.150260775000106, -7.651881602999936 ] ] ] ] } },
{ "type": "Feature", "properties": { "fid": 6985, "kk": null, "gid": 0.0, "bstt": null, "luas": 21662.217038833638, "bsbtt": null, "idsls": "35061500100006", "kdkab": "06", "kdkec": "150", "kdsls": "0006", "nmkab": "KEDIRI", "nmkec": "KUNJANG", "nmsls": "RT 006 RW 002 DUSUN KLEPEK", "bstt_k": null, "kddesa": "010", "kdprov": "35", "khusus": null, "muatan": null, "nmdesa": "KLEPEK", "nmprov": "JAWA TIMUR", "posisi": null, "rw_dki": null, "segmen": null, "subsls": null, "sumber": null, "dom_sls": null, "periode": "2025_1", "tingkat": null, "idsubsls": "3506150010000600", "nm_gedung": null, "wil_campur": null, "iddesa": "3506150010", "kdsubsls": "00" }, "geometry": { "type": "MultiPolygon", "coordinates": [ [ [ [ 112.150398340000038, -7.65150609899996 ], [ 112.150400135000041, -7.651506792999953 ], [ 112.150401716000033, -7.651507403999972 ], [ 112.150260775000106, -7.651881602999936 ], [ 112.150042922000011, -7.651798723999946 ], [ 112.150018095000064, -7.65186519699995 ], [ 112.149790645000053, -7.651777900999946 ], [ 112.149801857000057, -7.651741060999939 ], [ 112.149549581000088, -7.651660572999958 ], [ 112.14955038100004, -7.651635744999965 ], [ 112.149322932000018, -7.65155565699996 ], [ 112.149339750000081, -7.651506803999951 ], [ 112.149106694000011, -7.651415503999942 ], [ 112.149086673000056, -7.651475569999945 ], [ 112.148848011000041, -7.651386671999944 ], [ 112.148824785000102, -7.651437327999929 ], [ 112.148699047000036, -7.651387672999931 ], [ 112.148712662000094, -7.651349230999926 ], [ 112.148208475000047, -7.651177166999958 ], [ 112.148320079000086, -7.650842779999948 ], [ 112.148358961000099, -7.650726282999926 ], [ 112.148488758000099, -7.650284829999975 ], [ 112.148674760000063, -7.650353569999936 ], [ 112.148687892000112, -7.650364036999974 ], [ 112.148824388000094, -7.650410587999943 ], [ 112.148730071000045, -7.650672284999928 ], [ 112.149032213000055, -7.650772998999969 ], [ 112.149103902000093, -7.650797977999957 ], [ 112.149347879000061, -7.650882986999932 ], [ 112.149458017000029, -7.65063706199993 ], [ 112.149724506000098, -7.650757059999933 ], [ 112.150003463000075, -7.650817837999966 ], [ 112.150411499000029, -7.650981939999951 ], [ 112.150312904000089, -7.651237551999941 ], [ 112.150387271000113, -7.651270021999949 ], [ 112.150374049000106, -7.651296760999969 ], [ 112.150453630000015, -7.651358657999936 ], [ 112.150398340000038, -7.65150609899996 ] ] ] ] } },
{ "type": "Feature", "properties": { "fid": 6986, "kk": null, "gid": 0.0, "bstt": null, "luas": 16836.969199203289, "bsbtt": null, "idsls": "35061500100007", "kdkab": "06", "kdkec": "150", "kdsls": "0007", "nmkab": "KEDIRI", "nmkec": "KUNJANG", "nmsls": "RT 007 RW 002 DUSUN KLEPEK", "bstt_k": null, "kddesa": "010", "kdprov": "35", "khusus": null, "muatan": null, "nmdesa": "KLEPEK", "nmprov": "JAWA TIMUR", "posisi": null, "rw_dki": null, "segmen": null, "subsls": null, "sumber": null, "dom_sls": null, "periode": "2025_1", "tingkat": null, "idsubsls": "3506150010000700", "nm_gedung": null, "wil_campur": null, "iddesa": "3506150010", "kdsubsls": "00" }, "geometry": { "type": "MultiPolygon", "coordinates": [ [ [ [ 112.150398340000038, -7.65150609899996 ], [ 112.150453630000015, -7.651358657999936 ], [ 112.150520783000047, -7.651410888999976 ], [ 112.150621565000051, -7.651456078999956 ], [ 112.150622358000078, -7.651453745999959 ], [ 112.15079374600009, -7.651514611999971 ], [ 112.150812967000093, -7.651458550999962 ], [ 112.151312715000017, -7.651644354999974 ], [ 112.151565793000032, -7.65096400799996 ], [ 112.15156889800005, -7.650965042999928 ], [ 112.15212762200008, -7.65115128399998 ], [ 112.151953664000075, -7.651612184999976 ], [ 112.151847027000031, -7.65214472699995 ], [ 112.151741304000097, -7.652423664999958 ], [ 112.151259457000037, -7.652231798999935 ], [ 112.151240236000035, -7.652279851999936 ], [ 112.150892654000018, -7.652153312999928 ], [ 112.150242184000035, -7.651942141999939 ], [ 112.150263965000022, -7.651882815999954 ], [ 112.150260775000106, -7.651881602999936 ], [ 112.150401716000033, -7.651507403999972 ], [ 112.150400135000041, -7.651506792999953 ], [ 112.150398340000038, -7.65150609899996 ] ] ] ] } },
{ "type": "Feature", "properties": { "fid": 6987, "kk": null, "gid": 0.0, "bstt": null, "luas": 13710.091157414869, "bsbtt": null, "idsls": "35061500100008", "kdkab": "06", "kdkec": "150", "kdsls": "0008", "nmkab": "KEDIRI", "nmkec": "KUNJANG", "nmsls": "RT 008 RW 002 DUSUN KLEPEK", "bstt_k": null, "kddesa": "010", "kdprov": "35", "khusus": null, "muatan": null, "nmdesa": "KLEPEK", "nmprov": "JAWA TIMUR", "posisi": null, "rw_dki": null, "segmen": null, "subsls": null, "sumber": null, "dom_sls": null, "periode": "2025_1", "tingkat": null, "idsubsls": "3506150010000800", "nm_gedung": null, "wil_campur": null, "iddesa": "3506150010", "kdsubsls": "00" }, "geometry": { "type": "MultiPolygon", "coordinates": [ [ [ [ 112.152520277, -7.651316874999964 ], [ 112.152608538000095, -7.651357239999982 ], [ 112.152550874000099, -7.651710426999955 ], [ 112.152691829000105, -7.651766488999954 ], [ 112.152635767000106, -7.651979522999966 ], [ 112.152920880000011, -7.652086038999926 ], [ 112.152845921000107, -7.652381788999946 ], [ 112.15284349, -7.652384219999931 ], [ 112.152842820000046, -7.652384889999951 ], [ 112.152842240000041, -7.652385469999956 ], [ 112.152711140000065, -7.652727699999957 ], [ 112.152711094000097, -7.652727818999949 ], [ 112.152694410000095, -7.652771363999932 ], [ 112.152158844000041, -7.652556355999934 ], [ 112.152152437000041, -7.652566966999927 ], [ 112.152082370000016, -7.652547292999941 ], [ 112.151989859000082, -7.65252131699998 ], [ 112.151978646000089, -7.652551750999976 ], [ 112.151771219000011, -7.652482073999977 ], [ 112.151790440000013, -7.65244323099995 ], [ 112.151743845000055, -7.652424676999942 ], [ 112.151741304000097, -7.652423664999958 ], [ 112.151847027000031, -7.65214472699995 ], [ 112.151953664000075, -7.651612184999976 ], [ 112.15212762200008, -7.65115128399998 ], [ 112.152134986000078, -7.651153738999938 ], [ 112.152139222000073, -7.651142603999972 ], [ 112.152520277, -7.651316874999964 ] ] ] ] } },
{ "type": "Feature", "properties": { "fid": 6988, "kk": null, "gid": 0.0, "bstt": null, "luas": 13798.713776010649, "bsbtt": null, "idsls": "35061500100013", "kdkab": "06", "kdkec": "150", "kdsls": "0013", "nmkab": "KEDIRI", "nmkec": "KUNJANG", "nmsls": "RT 013 RW 004 DUSUN BANENGAN", "bstt_k": null, "kddesa": "010", "kdprov": "35", "khusus": null, "muatan": null, "nmdesa": "KLEPEK", "nmprov": "JAWA TIMUR", "posisi": null, "rw_dki": null, "segmen": null, "subsls": null, "sumber": null, "dom_sls": null, "periode": "2025_1", "tingkat": null, "idsubsls": "3506150010001300", "nm_gedung": null, "wil_campur": null, "iddesa": "3506150010", "kdsubsls": "00" }, "geometry": { "type": "MultiPolygon", "coordinates": [ [ [ [ 112.148908385000027, -7.647569601999976 ], [ 112.148971134000021, -7.647443039999928 ], [ 112.149073989000044, -7.647488623999948 ], [ 112.149149962000024, -7.647319145999973 ], [ 112.149981910000065, -7.647621672999946 ], [ 112.149908775000085, -7.647764896999945 ], [ 112.149543574000063, -7.647822560999941 ], [ 112.149460197000053, -7.647790433999944 ], [ 112.149388940000108, -7.647762975999967 ], [ 112.149387286000092, -7.647762338999939 ], [ 112.149097365000102, -7.648481772999958 ], [ 112.149096683000039, -7.648481683999933 ], [ 112.148901144000092, -7.648929284999952 ], [ 112.148289860000091, -7.648686932999965 ], [ 112.148576112000114, -7.64796912099996 ], [ 112.148758713, -7.647515823999981 ], [ 112.14875921600003, -7.647516014999951 ], [ 112.14884079, -7.647547070999963 ], [ 112.148842309000088, -7.647543851999956 ], [ 112.148908385000027, -7.647569601999976 ] ] ] ] } },
{ "type": "Feature", "properties": { "fid": 6989, "kk": null, "gid": 0.0, "bstt": null, "luas": 15951.180427061969, "bsbtt": null, "idsls": "35061500100014", "kdkab": "06", "kdkec": "150", "kdsls": "0014", "nmkab": "KEDIRI", "nmkec": "KUNJANG", "nmsls": "RT 014 RW 004 DUSUN BANENGAN", "bstt_k": null, "kddesa": "010", "kdprov": "35", "khusus": null, "muatan": null, "nmdesa": "KLEPEK", "nmprov": "JAWA TIMUR", "posisi": null, "rw_dki": null, "segmen": null, "subsls": null, "sumber": null, "dom_sls": null, "periode": "2025_1", "tingkat": null, "idsubsls": "3506150010001400", "nm_gedung": null, "wil_campur": null, "iddesa": "3506150010", "kdsubsls": "00" }, "geometry": { "type": "MultiPolygon", "coordinates": [ [ [ [ 112.149048693000054, -7.646762038999952 ], [ 112.148930101000019, -7.647081747999948 ], [ 112.14875921600003, -7.647516014999951 ], [ 112.148758713, -7.647515823999981 ], [ 112.148576112000114, -7.64796912099996 ], [ 112.148289860000091, -7.648686932999965 ], [ 112.148278185000095, -7.648682303999976 ], [ 112.148264458000085, -7.64871803099993 ], [ 112.148159655000086, -7.648680301999946 ], [ 112.148199699000088, -7.648574585999938 ], [ 112.14769995100005, -7.648366356999929 ], [ 112.148206106000089, -7.647297183999967 ], [ 112.148383901000102, -7.646854297999937 ], [ 112.148193292000087, -7.646772607999935 ], [ 112.148315437000065, -7.64646801799995 ], [ 112.149048693000054, -7.646762038999952 ] ] ] ] } },
{ "type": "Feature", "properties": { "fid": 6990, "kk": null, "gid": 0.0, "bstt": null, "luas": 15944.849300294809, "bsbtt": null, "idsls": "35061500100016", "kdkab": "06", "kdkec": "150", "kdsls": "0016", "nmkab": "KEDIRI", "nmkec": "KUNJANG", "nmsls": "RT 016 RW 005 DUSUN BANENGAN", "bstt_k": null, "kddesa": "010", "kdprov": "35", "khusus": null, "muatan": null, "nmdesa": "KLEPEK", "nmprov": "JAWA TIMUR", "posisi": null, "rw_dki": null, "segmen": null, "subsls": null, "sumber": null, "dom_sls": null, "periode": "2025_1", "tingkat": null, "idsubsls": "3506150010001600", "nm_gedung": null, "wil_campur": null, "iddesa": "3506150010", "kdsubsls": "00" }, "geometry": { "type": "MultiPolygon", "coordinates": [ [ [ [ 112.149400693000075, -7.645817893999947 ], [ 112.149341856000092, -7.645974741999964 ], [ 112.14924084200004, -7.646244027999956 ], [ 112.14915140100004, -7.646485149999933 ], [ 112.149048693000054, -7.646762038999952 ], [ 112.148315437000065, -7.64646801799995 ], [ 112.148254159000089, -7.646443446999967 ], [ 112.148355070000093, -7.646074241999941 ], [ 112.148204504000091, -7.646016578999934 ], [ 112.14823974300009, -7.64589684699996 ], [ 112.147651898000049, -7.645680609999943 ], [ 112.147725579000053, -7.645476385999928 ], [ 112.147826490000057, -7.645409111999982 ], [ 112.147943697000073, -7.645302991999927 ], [ 112.147945020000066, -7.645301793999977 ], [ 112.148340654000094, -7.645380279999927 ], [ 112.148536068000112, -7.645439144999955 ], [ 112.148809969000013, -7.64555286999996 ], [ 112.148968543000024, -7.64560893099997 ], [ 112.149045427000033, -7.645647372999974 ], [ 112.149199196000041, -7.64571945299997 ], [ 112.149400693000075, -7.645817893999947 ] ] ] ] } },
{ "type": "Feature", "properties": { "fid": 6991, "kk": null, "gid": 0.0, "bstt": null, "luas": 210634.79148325525, "bsbtt": null, "idsls": "35061500101001", "kdkab": "06", "kdkec": "150", "kdsls": "1001", "nmkab": "KEDIRI", "nmkec": "KUNJANG", "nmsls": "PERSAWAHAN KLEPEK", "bstt_k": null, "kddesa": "010", "kdprov": "35", "khusus": null, "muatan": null, "nmdesa": "KLEPEK", "nmprov": "JAWA TIMUR", "posisi": null, "rw_dki": null, "segmen": null, "subsls": null, "sumber": null, "dom_sls": null, "periode": "2025_1", "tingkat": null, "idsubsls": "3506150010100100", "nm_gedung": null, "wil_campur": null, "iddesa": "3506150010", "kdsubsls": "00" }, "geometry": { "type": "MultiPolygon", "coordinates": [ [ [ [ 112.148205854000025, -7.651185019999957 ], [ 112.148009372000047, -7.651880262999953 ], [ 112.148005486000102, -7.65187881199995 ], [ 112.147898168000097, -7.652240007999978 ], [ 112.147707559000082, -7.652179141999966 ], [ 112.147664312000074, -7.652312087999974 ], [ 112.147816479000085, -7.65236334399998 ], [ 112.14765571800001, -7.652797094999926 ], [ 112.147607410000091, -7.652777919999949 ], [ 112.147545550000018, -7.652774659999977 ], [ 112.147461020000037, -7.652770199999964 ], [ 112.147384340000031, -7.652766149999934 ], [ 112.146493040000109, -7.652572489999955 ], [ 112.146493010000086, -7.652572589999977 ], [ 112.146472330000051, -7.652568029999941 ], [ 112.146460570000045, -7.652565429999981 ], [ 112.146435417000021, -7.652559964999966 ], [ 112.145979387000011, -7.652460874999974 ], [ 112.14569817000006, -7.652399769999931 ], [ 112.14558683000007, -7.652520039999956 ], [ 112.145311830000082, -7.652468819999967 ], [ 112.145101200000113, -7.652394289999961 ], [ 112.14498454000011, -7.652371599999981 ], [ 112.144803080000088, -7.652326239999979 ], [ 112.144637820000071, -7.65229058999995 ], [ 112.14455681000004, -7.652293829999962 ], [ 112.14422629, -7.652206339999964 ], [ 112.144200408000074, -7.652199465999956 ], [ 112.144018900000106, -7.652151259999926 ], [ 112.143945740000049, -7.652359499999932 ], [ 112.143918450000115, -7.652433169999938 ], [ 112.14378884000007, -7.652410489999966 ], [ 112.143481, -7.652387809999937 ], [ 112.143324470000039, -7.652339139999981 ], [ 112.143095390000099, -7.652267909999978 ], [ 112.143092400000114, -7.652275799999927 ], [ 112.142755960000045, -7.652146399999936 ], [ 112.142963340000051, -7.65153719999995 ], [ 112.142153498000084, -7.651258401999939 ], [ 112.142344018000017, -7.650717791999966 ], [ 112.141790947000118, -7.650517220999973 ], [ 112.141850708000106, -7.65036620799998 ], [ 112.14154994, -7.650256573999968 ], [ 112.141583385000104, -7.650159887999962 ], [ 112.141621035000071, -7.650051216999941 ], [ 112.141400127000111, -7.649977060999959 ], [ 112.141472590000035, -7.649512419999951 ], [ 112.141462665000063, -7.649510247999956 ], [ 112.141771845000108, -7.648319905999927 ], [ 112.141779793000069, -7.648322992999965 ], [ 112.143091693000088, -7.648832468999956 ], [ 112.144168075000039, -7.649229704999925 ], [ 112.14622793500007, -7.650042596999981 ], [ 112.147558931000049, -7.650546805999966 ], [ 112.147557394000046, -7.650550754999927 ], [ 112.148320079000086, -7.650842779999948 ], [ 112.148208475000047, -7.651177166999958 ], [ 112.148205854000025, -7.651185019999957 ] ] ] ] } },
{ "type": "Feature", "properties": { "fid": 6992, "kk": null, "gid": 0.0, "bstt": null, "luas": 142162.96333842393, "bsbtt": null, "idsls": "35061500101002", "kdkab": "06", "kdkec": "150", "kdsls": "1002", "nmkab": "KEDIRI", "nmkec": "KUNJANG", "nmsls": "PERSAWAHAN KLEPEK", "bstt_k": null, "kddesa": "010", "kdprov": "35", "khusus": null, "muatan": null, "nmdesa": "KLEPEK", "nmprov": "JAWA TIMUR", "posisi": null, "rw_dki": null, "segmen": null, "subsls": null, "sumber": null, "dom_sls": null, "periode": "2025_1", "tingkat": null, "idsubsls": "3506150010100200", "nm_gedung": null, "wil_campur": null, "iddesa": "3506150010", "kdsubsls": "00" }, "geometry": { "type": "MultiPolygon", "coordinates": [ [ [ [ 112.143174410000029, -7.643735032999928 ], [ 112.142345274000036, -7.646539552999968 ], [ 112.141779793000069, -7.648322992999965 ], [ 112.141771845000108, -7.648319905999927 ], [ 112.141462665000063, -7.649510247999956 ], [ 112.141370510000115, -7.649490079999964 ], [ 112.141306100000065, -7.649469089999968 ], [ 112.141224690000058, -7.64944147999995 ], [ 112.141087150000089, -7.64939204999996 ], [ 112.140549240000041, -7.649155499999949 ], [ 112.139454980000096, -7.648629299999925 ], [ 112.139544920000048, -7.64855541999998 ], [ 112.139651850000064, -7.648445249999952 ], [ 112.13979767, -7.648072599999978 ], [ 112.139982370000098, -7.647521729999937 ], [ 112.140329090000023, -7.646478319999972 ], [ 112.140458710000075, -7.646099189999973 ], [ 112.140517040000077, -7.64596309999996 ], [ 112.140591570000083, -7.645697379999945 ], [ 112.140635570000086, -7.645401789999937 ], [ 112.140721180000014, -7.645302049999941 ], [ 112.140792470000065, -7.645146509999961 ], [ 112.140841080000087, -7.644955329999959 ], [ 112.141059640000094, -7.644208079999942 ], [ 112.141179640000018, -7.643768079999973 ], [ 112.141359640000019, -7.643088079999927 ], [ 112.141365400000041, -7.643068309999933 ], [ 112.141369260000033, -7.643043489999968 ], [ 112.141586370000027, -7.643014329999971 ], [ 112.141780800000106, -7.643118019999974 ], [ 112.141975220000063, -7.64326707999993 ], [ 112.14212104, -7.643361049999953 ], [ 112.142338190000032, -7.643444809999949 ], [ 112.142608190000033, -7.643545039999935 ], [ 112.142697830000088, -7.643578159999947 ], [ 112.142780720000019, -7.643605789999981 ], [ 112.14303811000002, -7.643691119999971 ], [ 112.143174410000029, -7.643735032999928 ] ] ] ] } },
{ "type": "Feature", "properties": { "fid": 6993, "kk": null, "gid": 0.0, "bstt": null, "luas": 354641.33446716989, "bsbtt": null, "idsls": "35061500101003", "kdkab": "06", "kdkec": "150", "kdsls": "1003", "nmkab": "KEDIRI", "nmkec": "KUNJANG", "nmsls": "PERSAWAHAN KLEPEK", "bstt_k": null, "kddesa": "010", "kdprov": "35", "khusus": null, "muatan": null, "nmdesa": "KLEPEK", "nmprov": "JAWA TIMUR", "posisi": null, "rw_dki": null, "segmen": null, "subsls": null, "sumber": null, "dom_sls": null, "periode": "2025_1", "tingkat": null, "idsubsls": "3506150010100300", "nm_gedung": null, "wil_campur": null, "iddesa": "3506150010", "kdsubsls": "00" }, "geometry": { "type": "MultiPolygon", "coordinates": [ [ [ [ 112.144041823000066, -7.643983893999973 ], [ 112.144930511000098, -7.644266657999935 ], [ 112.146445774000085, -7.644785627999966 ], [ 112.147943697000073, -7.645302991999927 ], [ 112.147826490000057, -7.645409111999982 ], [ 112.147725579000053, -7.645476385999928 ], [ 112.147651898000049, -7.645680609999943 ], [ 112.14823974300009, -7.64589684699996 ], [ 112.148204504000091, -7.646016578999934 ], [ 112.148355070000093, -7.646074241999941 ], [ 112.148254159000089, -7.646443446999967 ], [ 112.148315437000065, -7.64646801799995 ], [ 112.148193292000087, -7.646772607999935 ], [ 112.148383901000102, -7.646854297999937 ], [ 112.148206106000089, -7.647297183999967 ], [ 112.14769995100005, -7.648366356999929 ], [ 112.148199699000088, -7.648574585999938 ], [ 112.148159655000086, -7.648680301999946 ], [ 112.148264458000085, -7.64871803099993 ], [ 112.147778437000056, -7.649982930999954 ], [ 112.147558931000049, -7.650546805999966 ], [ 112.14622793500007, -7.650042596999981 ], [ 112.144168075000039, -7.649229704999925 ], [ 112.143091693000088, -7.648832468999956 ], [ 112.141779793000069, -7.648322992999965 ], [ 112.142345274000036, -7.646539552999968 ], [ 112.143174410000029, -7.643735032999928 ], [ 112.143188680000094, -7.64373962999997 ], [ 112.14319037000007, -7.643740179999952 ], [ 112.144023880000077, -7.644033929999978 ], [ 112.14402404000009, -7.644033989999969 ], [ 112.144041823000066, -7.643983893999973 ] ] ] ] } },
{ "type": "Feature", "properties": { "fid": 6994, "kk": null, "gid": 0.0, "bstt": null, "luas": 160166.83378676904, "bsbtt": null, "idsls": "35061500101004", "kdkab": "06", "kdkec": "150", "kdsls": "1004", "nmkab": "KEDIRI", "nmkec": "KUNJANG", "nmsls": "PERSAWAHAN KLEPEK", "bstt_k": null, "kddesa": "010", "kdprov": "35", "khusus": null, "muatan": null, "nmdesa": "KLEPEK", "nmprov": "JAWA TIMUR", "posisi": null, "rw_dki": null, "segmen": null, "subsls": null, "sumber": null, "dom_sls": null, "periode": "2025_1", "tingkat": null, "idsubsls": "3506150010100400", "nm_gedung": null, "wil_campur": null, "iddesa": "3506150010", "kdsubsls": "00" }, "geometry": { "type": "MultiPolygon", "coordinates": [ [ [ [ 112.152203367000084, -7.646687575999977 ], [ 112.152203650000047, -7.646687709999981 ], [ 112.152203500000041, -7.646687709999981 ], [ 112.152203640000039, -7.646687779999979 ], [ 112.152203540000073, -7.64668839999996 ], [ 112.15217971300001, -7.64682886199995 ], [ 112.152004820000116, -7.64785988999995 ], [ 112.154088008000031, -7.64841268999993 ], [ 112.154120380000109, -7.64842127999998 ], [ 112.154392790000088, -7.648493559999963 ], [ 112.154512180000097, -7.648525249999977 ], [ 112.154512110000042, -7.648525419999942 ], [ 112.15450141000008, -7.648552179999967 ], [ 112.154274580000106, -7.649640959999942 ], [ 112.154132010000012, -7.650444579999942 ], [ 112.153986190000069, -7.651157459999979 ], [ 112.153953290000118, -7.651332079999975 ], [ 112.153819480000038, -7.652042279999932 ], [ 112.15381802200011, -7.652050051999936 ], [ 112.153817690000096, -7.65205181999994 ], [ 112.15356673000008, -7.651986139999963 ], [ 112.153499630000056, -7.65202807999998 ], [ 112.153402310000047, -7.652068629999974 ], [ 112.153403010000034, -7.65206902999995 ], [ 112.153337700000066, -7.652118249999944 ], [ 112.152954760000057, -7.652245389999962 ], [ 112.152899630000093, -7.652328079999961 ], [ 112.152845921000107, -7.652381788999946 ], [ 112.152920880000011, -7.652086038999926 ], [ 112.152635767000106, -7.651979522999966 ], [ 112.152691829000105, -7.651766488999954 ], [ 112.152550874000099, -7.651710426999955 ], [ 112.152608538000095, -7.651357239999982 ], [ 112.152520277, -7.651316874999964 ], [ 112.152139222000073, -7.651142603999972 ], [ 112.152134986000078, -7.651153738999938 ], [ 112.15212762200008, -7.65115128399998 ], [ 112.15156889800005, -7.650965042999928 ], [ 112.151686726000094, -7.650597605999963 ], [ 112.151766814000098, -7.650598005999939 ], [ 112.151906167000107, -7.650215185999969 ], [ 112.15167551400009, -7.65015832399996 ], [ 112.151707549000093, -7.649892431999945 ], [ 112.151259057000061, -7.649674592999929 ], [ 112.151185376000058, -7.64964656199993 ], [ 112.151323127000069, -7.649217691999979 ], [ 112.151207050000039, -7.649046276999968 ], [ 112.151183147000097, -7.649019882999937 ], [ 112.151054032000047, -7.648877317999961 ], [ 112.150762512000028, -7.648803636999958 ], [ 112.150217914000109, -7.64869792099995 ], [ 112.14947630000006, -7.648531337999941 ], [ 112.149097365000102, -7.648481772999958 ], [ 112.149387286000092, -7.647762338999939 ], [ 112.149388940000108, -7.647762975999967 ], [ 112.149460197000053, -7.647790433999944 ], [ 112.149543574000063, -7.647822560999941 ], [ 112.149908775000085, -7.647764896999945 ], [ 112.149981910000065, -7.647621672999946 ], [ 112.149985659000095, -7.647614331999932 ], [ 112.150700043000029, -7.647861002999946 ], [ 112.151011712000013, -7.64720618399997 ], [ 112.151025200000049, -7.647211489999961 ], [ 112.151041217000056, -7.647172246999958 ], [ 112.151281647000019, -7.646617529999958 ], [ 112.151283083000067, -7.646618038999975 ], [ 112.151398599000117, -7.646388137999963 ], [ 112.15143128200009, -7.646323092999978 ], [ 112.152203367000084, -7.646687575999977 ] ] ] ] } },
{ "type": "Feature", "properties": { "fid": 6995, "kk": null, "gid": 0.0, "bstt": null, "luas": 406390.68430690083, "bsbtt": null, "idsls": "35061500101005", "kdkab": "06", "kdkec": "150", "kdsls": "1005", "nmkab": "KEDIRI", "nmkec": "KUNJANG", "nmsls": "PERSAWAHAN BANENGAN", "bstt_k": null, "kddesa": "010", "kdprov": "35", "khusus": null, "muatan": null, "nmdesa": "KLEPEK", "nmprov": "JAWA TIMUR", "posisi": null, "rw_dki": null, "segmen": null, "subsls": null, "sumber": null, "dom_sls": null, "periode": "2025_1", "tingkat": null, "idsubsls": "3506150010100500", "nm_gedung": null, "wil_campur": null, "iddesa": "3506150010", "kdsubsls": "00" }, "geometry": { "type": "MultiPolygon", "coordinates": [ [ [ [ 112.145518547000052, -7.63982378399993 ], [ 112.145631280000089, -7.639870633999976 ], [ 112.145690545000093, -7.639915482999982 ], [ 112.145829898000102, -7.64002920799993 ], [ 112.146110206000117, -7.640141330999938 ], [ 112.146702856000047, -7.640369981999982 ], [ 112.147356374000083, -7.640606240999944 ], [ 112.148328641000035, -7.640947014999938 ], [ 112.149461083, -7.641278578999959 ], [ 112.150036114000045, -7.641294596999956 ], [ 112.150402917000065, -7.641304206999962 ], [ 112.150682424000024, -7.641286587999957 ], [ 112.150830186, -7.641281782999954 ], [ 112.150883696000051, -7.641240354999979 ], [ 112.150950020000096, -7.641252059999943 ], [ 112.151296810000076, -7.641362729999969 ], [ 112.151695250000103, -7.641480789999946 ], [ 112.152246240000068, -7.64166285999994 ], [ 112.152920060000042, -7.641856289999964 ], [ 112.152919980000092, -7.64185705999995 ], [ 112.152920060000042, -7.641857089999974 ], [ 112.152909630000067, -7.641948079999963 ], [ 112.152869630000055, -7.642028079999932 ], [ 112.152799630000118, -7.642168079999976 ], [ 112.152209630000016, -7.644018079999967 ], [ 112.152119630000016, -7.644318079999948 ], [ 112.152039630000104, -7.644518079999955 ], [ 112.151969630000053, -7.64468807999998 ], [ 112.151829630000066, -7.645158079999931 ], [ 112.151825920000078, -7.645193269999936 ], [ 112.151821900000073, -7.645231549999949 ], [ 112.151818224000067, -7.645234655999957 ], [ 112.151748280000106, -7.645293749999951 ], [ 112.15153169000007, -7.645866606999959 ], [ 112.150121809000098, -7.64555286999996 ], [ 112.149554786000067, -7.645407109999951 ], [ 112.149400693000075, -7.645817893999947 ], [ 112.149199196000041, -7.64571945299997 ], [ 112.149045427000033, -7.645647372999974 ], [ 112.148968543000024, -7.64560893099997 ], [ 112.148809969000013, -7.64555286999996 ], [ 112.148536068000112, -7.645439144999955 ], [ 112.148340654000094, -7.645380279999927 ], [ 112.147945020000066, -7.645301793999977 ], [ 112.147943697000073, -7.645302991999927 ], [ 112.146445774000085, -7.644785627999966 ], [ 112.144930511000098, -7.644266657999935 ], [ 112.144041823000066, -7.643983893999973 ], [ 112.145493300000112, -7.639894909999953 ], [ 112.145489990000101, -7.639872289999971 ], [ 112.145504740000092, -7.639820639999925 ], [ 112.145517590000054, -7.639826479999954 ], [ 112.145518547000052, -7.63982378399993 ] ] ] ] } },
{ "type": "Feature", "properties": { "fid": 6996, "kk": null, "gid": 0.0, "bstt": null, "luas": 228097.7032323379, "bsbtt": null, "idsls": "35061500101006", "kdkab": "06", "kdkec": "150", "kdsls": "1006", "nmkab": "KEDIRI", "nmkec": "KUNJANG", "nmsls": "PERSAWAHAN BANENGAN", "bstt_k": null, "kddesa": "010", "kdprov": "35", "khusus": null, "muatan": null, "nmdesa": "KLEPEK", "nmprov": "JAWA TIMUR", "posisi": null, "rw_dki": null, "segmen": null, "subsls": null, "sumber": null, "dom_sls": null, "periode": "2025_1", "tingkat": null, "idsubsls": "3506150010100600", "nm_gedung": null, "wil_campur": null, "iddesa": "3506150010", "kdsubsls": "00" }, "geometry": { "type": "MultiPolygon", "coordinates": [ [ [ [ 112.15097585, -7.639160269999934 ], [ 112.151012260000016, -7.639289369999972 ], [ 112.151037910000014, -7.639310019999925 ], [ 112.151159630000052, -7.639408079999953 ], [ 112.150919630000089, -7.640988079999943 ], [ 112.150880890000053, -7.641239859999928 ], [ 112.150883696000051, -7.641240354999979 ], [ 112.150830186, -7.641281782999954 ], [ 112.150682424000024, -7.641286587999957 ], [ 112.150402917000065, -7.641304206999962 ], [ 112.150036114000045, -7.641294596999956 ], [ 112.149461083, -7.641278578999959 ], [ 112.148328641000035, -7.640947014999938 ], [ 112.147356374000083, -7.640606240999944 ], [ 112.146702856000047, -7.640369981999982 ], [ 112.146110206000117, -7.640141330999938 ], [ 112.145829898000102, -7.64002920799993 ], [ 112.145690545000093, -7.639915482999982 ], [ 112.145631280000089, -7.639870633999976 ], [ 112.145518547000052, -7.63982378399993 ], [ 112.145525430000021, -7.639804399999946 ], [ 112.145519100000115, -7.639800089999937 ], [ 112.14537164, -7.63958066999993 ], [ 112.144806650000078, -7.639394439999933 ], [ 112.144965530000036, -7.639074379999954 ], [ 112.144989590000023, -7.639025939999954 ], [ 112.145674180000015, -7.637646889999928 ], [ 112.145674450000115, -7.637644009999974 ], [ 112.145935020000024, -7.637112209999941 ], [ 112.145951170000103, -7.637079179999944 ], [ 112.145955957000069, -7.637080591999961 ], [ 112.146165110000084, -7.63714226999997 ], [ 112.146342200000049, -7.63719760999993 ], [ 112.146482390000074, -7.636872959999948 ], [ 112.146995190000098, -7.637009459999945 ], [ 112.147297700000081, -7.636356469999953 ], [ 112.147600220000072, -7.636526169999968 ], [ 112.148046610000051, -7.636784419999969 ], [ 112.148566790000018, -7.637090619999981 ], [ 112.148647950000054, -7.637171789999968 ], [ 112.148710670000014, -7.637330419999955 ], [ 112.148773390000088, -7.637474299999951 ], [ 112.148976290000064, -7.637721479999925 ], [ 112.149433760000079, -7.638001859999974 ], [ 112.149920730000076, -7.638322819999928 ], [ 112.150444600000014, -7.638736009999946 ], [ 112.150389260000111, -7.63888357999997 ], [ 112.150592170000095, -7.638953679999929 ], [ 112.15097585, -7.639160269999934 ] ] ] ] } },
{ "type": "Feature", "properties": { "fid": 6997, "kk": null, "gid": 0.0, "bstt": null, "luas": 22778.254406642423, "bsbtt": null, "idsls": "35061500100002", "kdkab": "06", "kdkec": "150", "kdsls": "0002", "nmkab": "KEDIRI", "nmkec": "KUNJANG", "nmsls": "RT 002 RW 001 DUSUN KLEPEK", "bstt_k": null, "kddesa": "010", "kdprov": "35", "khusus": null, "muatan": null, "nmdesa": "KLEPEK", "nmprov": "JAWA TIMUR", "posisi": null, "rw_dki": null, "segmen": null, "subsls": null, "sumber": null, "dom_sls": null, "periode": "2025_1", "tingkat": null, "idsubsls": "3506150010000200", "nm_gedung": null, "wil_campur": null, "iddesa": "3506150010", "kdsubsls": "00" }, "geometry": { "type": "MultiPolygon", "coordinates": [ [ [ [ 112.14997366700004, -7.653370862999964 ], [ 112.149984181000036, -7.653343366999934 ], [ 112.150106699000048, -7.653010583999958 ], [ 112.150108300000056, -7.65301154499997 ], [ 112.15010845300003, -7.653011067999955 ], [ 112.150139218000049, -7.653019006999955 ], [ 112.15023566800005, -7.652737953999974 ], [ 112.150241123000114, -7.652740323999979 ], [ 112.150269561000073, -7.652752677999956 ], [ 112.150308814000027, -7.652650258999927 ], [ 112.150462582000046, -7.65269670999993 ], [ 112.150455375000092, -7.652722337999933 ], [ 112.150548277000098, -7.652755173999935 ], [ 112.150621957000112, -7.652771190999943 ], [ 112.150694036, -7.652787008999951 ], [ 112.151233829000034, -7.652982422999969 ], [ 112.151546172000053, -7.653102554999975 ], [ 112.151570198000059, -7.653031876999933 ], [ 112.15184810300002, -7.653112765999936 ], [ 112.151840094000022, -7.653138393999939 ], [ 112.152009080000084, -7.653177636999942 ], [ 112.152227734, -7.653263458999959 ], [ 112.152191332000029, -7.653344662999928 ], [ 112.152431647000071, -7.653436262999946 ], [ 112.152402460000076, -7.653512289999981 ], [ 112.152401380000015, -7.653511969999954 ], [ 112.152344010000093, -7.653684079999948 ], [ 112.152520670000058, -7.653740079999977 ], [ 112.152514326000073, -7.653759982999929 ], [ 112.152371985000059, -7.654206540999951 ], [ 112.151904165000019, -7.654049593999957 ], [ 112.151487707000115, -7.653910240999949 ], [ 112.151145732000032, -7.653750866999928 ], [ 112.150900596000042, -7.653674358999979 ], [ 112.150921077000021, -7.653558920999956 ], [ 112.150336671000105, -7.65339996299997 ], [ 112.15031303100011, -7.653478764999932 ], [ 112.150105265000093, -7.653409035999971 ], [ 112.150102306, -7.65341717299998 ], [ 112.14997366700004, -7.653370862999964 ] ] ] ] } },
{ "type": "Feature", "properties": { "fid": 6998, "kk": null, "gid": 0.0, "bstt": null, "luas": 25684.190586748588, "bsbtt": null, "idsls": "35061500100009", "kdkab": "06", "kdkec": "150", "kdsls": "0009", "nmkab": "KEDIRI", "nmkec": "KUNJANG", "nmsls": "RT 009 RW 003 DUSUN KLEPEK", "bstt_k": null, "kddesa": "010", "kdprov": "35", "khusus": null, "muatan": null, "nmdesa": "KLEPEK", "nmprov": "JAWA TIMUR", "posisi": null, "rw_dki": null, "segmen": null, "subsls": null, "sumber": null, "dom_sls": null, "periode": "2025_1", "tingkat": null, "idsubsls": "3506150010000900", "nm_gedung": null, "wil_campur": null, "iddesa": "3506150010", "kdsubsls": "00" }, "geometry": { "type": "MultiPolygon", "coordinates": [ [ [ [ 112.15156889800005, -7.650965042999928 ], [ 112.151565793000032, -7.65096400799996 ], [ 112.151312715000017, -7.651644354999974 ], [ 112.150812967000093, -7.651458550999962 ], [ 112.15079374600009, -7.651514611999971 ], [ 112.150622358000078, -7.651453745999959 ], [ 112.150621565000051, -7.651456078999956 ], [ 112.150520783000047, -7.651410888999976 ], [ 112.150453630000015, -7.651358657999936 ], [ 112.150374049000106, -7.651296760999969 ], [ 112.150387271000113, -7.651270021999949 ], [ 112.150312904000089, -7.651237551999941 ], [ 112.150411499000029, -7.650981939999951 ], [ 112.150562292000018, -7.650590998999974 ], [ 112.150659999000027, -7.650373159999958 ], [ 112.150598331000083, -7.650349933999962 ], [ 112.150610345000018, -7.650315495999962 ], [ 112.150503521000019, -7.650278562999972 ], [ 112.150592725000024, -7.650071428999979 ], [ 112.150595135000117, -7.650072252999962 ], [ 112.150648234000073, -7.649899139999945 ], [ 112.150732518000041, -7.649921716999927 ], [ 112.150743291000026, -7.649898438999969 ], [ 112.150829785000042, -7.649924066999972 ], [ 112.150889280000115, -7.649765732999981 ], [ 112.150874362000081, -7.649760137999976 ], [ 112.15103449500009, -7.649353762999965 ], [ 112.151050439000073, -7.649357958999929 ], [ 112.151050700000042, -7.649353481999981 ], [ 112.151183147000097, -7.649019882999937 ], [ 112.151207050000039, -7.649046276999968 ], [ 112.151323127000069, -7.649217691999979 ], [ 112.151185376000058, -7.64964656199993 ], [ 112.151259057000061, -7.649674592999929 ], [ 112.151707549000093, -7.649892431999945 ], [ 112.15167551400009, -7.65015832399996 ], [ 112.151906167000107, -7.650215185999969 ], [ 112.151766814000098, -7.650598005999939 ], [ 112.151686726000094, -7.650597605999963 ], [ 112.15156889800005, -7.650965042999928 ] ] ] ] } },
{ "type": "Feature", "properties": { "fid": 6999, "kk": null, "gid": 0.0, "bstt": null, "luas": 11825.394355419965, "bsbtt": null, "idsls": "35061500100010", "kdkab": "06", "kdkec": "150", "kdsls": "0010", "nmkab": "KEDIRI", "nmkec": "KUNJANG", "nmsls": "RT 010 RW 003 DUSUN KLEPEK", "bstt_k": null, "kddesa": "010", "kdprov": "35", "khusus": null, "muatan": null, "nmdesa": "KLEPEK", "nmprov": "JAWA TIMUR", "posisi": null, "rw_dki": null, "segmen": null, "subsls": null, "sumber": null, "dom_sls": null, "periode": "2025_1", "tingkat": null, "idsubsls": "3506150010001000", "nm_gedung": null, "wil_campur": null, "iddesa": "3506150010", "kdsubsls": "00" }, "geometry": { "type": "MultiPolygon", "coordinates": [ [ [ [ 112.149639175000061, -7.650020231999974 ], [ 112.149699745000021, -7.650037991999966 ], [ 112.149940810000089, -7.650128490999975 ], [ 112.149946416000034, -7.650114875999975 ], [ 112.149947943000029, -7.65011549899998 ], [ 112.150050530000044, -7.650157322999974 ], [ 112.150047327000038, -7.650171537999938 ], [ 112.150202697000054, -7.65024601999994 ], [ 112.150222719000112, -7.650201971999934 ], [ 112.15044776600007, -7.650296475999937 ], [ 112.150459779000016, -7.650263438999957 ], [ 112.150503521000019, -7.650278562999972 ], [ 112.150610345000018, -7.650315495999962 ], [ 112.150598331000083, -7.650349933999962 ], [ 112.150659999000027, -7.650373159999958 ], [ 112.150562292000018, -7.650590998999974 ], [ 112.150411499000029, -7.650981939999951 ], [ 112.150003463000075, -7.650817837999966 ], [ 112.149724506000098, -7.650757059999933 ], [ 112.149458017000029, -7.65063706199993 ], [ 112.149347879000061, -7.650882986999932 ], [ 112.149103902000093, -7.650797977999957 ], [ 112.149185952000039, -7.650556145999929 ], [ 112.14908777100004, -7.650509393999926 ], [ 112.149080180000055, -7.650462896999954 ], [ 112.149212811000098, -7.650106266999956 ], [ 112.149369783000111, -7.65015832399996 ], [ 112.149431451000055, -7.649975723999944 ], [ 112.149630069000068, -7.650035788999958 ], [ 112.149634874000071, -7.650018970999952 ], [ 112.149639175000061, -7.650020231999974 ] ] ] ] } },
{ "type": "Feature", "properties": { "fid": 7000, "kk": null, "gid": 0.0, "bstt": null, "luas": 19174.57572045541, "bsbtt": null, "idsls": "35061500100015", "kdkab": "06", "kdkec": "150", "kdsls": "0015", "nmkab": "KEDIRI", "nmkec": "KUNJANG", "nmsls": "RT 015 RW 004 DUSUN BANENGAN", "bstt_k": null, "kddesa": "010", "kdprov": "35", "khusus": null, "muatan": null, "nmdesa": "KLEPEK", "nmprov": "JAWA TIMUR", "posisi": null, "rw_dki": null, "segmen": null, "subsls": null, "sumber": null, "dom_sls": null, "periode": "2025_1", "tingkat": null, "idsubsls": "3506150010001500", "nm_gedung": null, "wil_campur": null, "iddesa": "3506150010", "kdsubsls": "00" }, "geometry": { "type": "MultiPolygon", "coordinates": [ [ [ [ 112.149149962000024, -7.647319145999973 ], [ 112.149073989000044, -7.647488623999948 ], [ 112.148971134000021, -7.647443039999928 ], [ 112.148908385000027, -7.647569601999976 ], [ 112.148842309000088, -7.647543851999956 ], [ 112.14884079, -7.647547070999963 ], [ 112.14875921600003, -7.647516014999951 ], [ 112.148930101000019, -7.647081747999948 ], [ 112.149048693000054, -7.646762038999952 ], [ 112.14915140100004, -7.646485149999933 ], [ 112.149942412000087, -7.646787824999933 ], [ 112.149932, -7.64682666799996 ], [ 112.150071353000044, -7.646872317999964 ], [ 112.150084968000101, -7.646850693999966 ], [ 112.150176268000109, -7.646878724999965 ], [ 112.150349258, -7.646945597999945 ], [ 112.150453045000063, -7.646986423999977 ], [ 112.150470153000015, -7.646935099999951 ], [ 112.150636709000082, -7.646987696999929 ], [ 112.15061722900009, -7.647051007999949 ], [ 112.151011712000013, -7.64720618399997 ], [ 112.150700043000029, -7.647861002999946 ], [ 112.149985659000095, -7.647614331999932 ], [ 112.149981910000065, -7.647621672999946 ], [ 112.149149962000024, -7.647319145999973 ] ] ] ] } },
{ "type": "Feature", "properties": { "fid": 7001, "kk": null, "gid": 0.0, "bstt": null, "luas": 19135.290972862102, "bsbtt": null, "idsls": "35061500100017", "kdkab": "06", "kdkec": "150", "kdsls": "0017", "nmkab": "KEDIRI", "nmkec": "KUNJANG", "nmsls": "RT 017 RW 005 DUSUN BANENGAN", "bstt_k": null, "kddesa": "010", "kdprov": "35", "khusus": null, "muatan": null, "nmdesa": "KLEPEK", "nmprov": "JAWA TIMUR", "posisi": null, "rw_dki": null, "segmen": null, "subsls": null, "sumber": null, "dom_sls": null, "periode": "2025_1", "tingkat": null, "idsubsls": "3506150010001700", "nm_gedung": null, "wil_campur": null, "iddesa": "3506150010", "kdsubsls": "00" }, "geometry": { "type": "MultiPolygon", "coordinates": [ [ [ [ 112.150423176000118, -7.646185597999931 ], [ 112.150480563000087, -7.646212856999966 ], [ 112.150550261000035, -7.646040270999947 ], [ 112.150847972000065, -7.64607495499996 ], [ 112.151009268000053, -7.646125798999947 ], [ 112.151398599000117, -7.646388137999963 ], [ 112.151283083000067, -7.646618038999975 ], [ 112.151281647000019, -7.646617529999958 ], [ 112.151041217000056, -7.647172246999958 ], [ 112.151025200000049, -7.647211489999961 ], [ 112.151011712000013, -7.64720618399997 ], [ 112.15061722900009, -7.647051007999949 ], [ 112.150636709000082, -7.646987696999929 ], [ 112.150470153000015, -7.646935099999951 ], [ 112.150453045000063, -7.646986423999977 ], [ 112.150349258, -7.646945597999945 ], [ 112.150176268000109, -7.646878724999965 ], [ 112.150084968000101, -7.646850693999966 ], [ 112.150071353000044, -7.646872317999964 ], [ 112.149932, -7.64682666799996 ], [ 112.149942412000087, -7.646787824999933 ], [ 112.14915140100004, -7.646485149999933 ], [ 112.14924084200004, -7.646244027999956 ], [ 112.149341856000092, -7.645974741999964 ], [ 112.149506733000067, -7.646046611999964 ], [ 112.149498725000058, -7.646086655999966 ], [ 112.149596432000067, -7.646123495999973 ], [ 112.149586821000071, -7.646139513999969 ], [ 112.149671715000068, -7.646166742999981 ], [ 112.149686130000077, -7.646123495999973 ], [ 112.149791155000116, -7.646162799999956 ], [ 112.149848638000094, -7.646020604999933 ], [ 112.149967856000103, -7.646060929999976 ], [ 112.150001168000017, -7.64595398299997 ], [ 112.150087075000101, -7.645955735999962 ], [ 112.150043245, -7.64609599399995 ], [ 112.150143178, -7.646124044999965 ], [ 112.150199281000027, -7.645994306999967 ], [ 112.150274669000055, -7.646010085999933 ], [ 112.15020103400002, -7.646239757999979 ], [ 112.150381616, -7.646285340999952 ], [ 112.150423176000118, -7.646185597999931 ] ] ] ] } },
{ "type": "Feature", "properties": { "fid": 7002, "kk": null, "gid": 0.0, "bstt": null, "luas": 28931.028189914796, "bsbtt": null, "idsls": "35061500100011", "kdkab": "06", "kdkec": "150", "kdsls": "0011", "nmkab": "KEDIRI", "nmkec": "KUNJANG", "nmsls": "RT 011 RW 003 DUSUN KLEPEK", "bstt_k": null, "kddesa": "010", "kdprov": "35", "khusus": null, "muatan": null, "nmdesa": "KLEPEK", "nmprov": "JAWA TIMUR", "posisi": null, "rw_dki": null, "segmen": null, "subsls": null, "sumber": null, "dom_sls": null, "periode": "2025_1", "tingkat": null, "idsubsls": "3506150010001100", "nm_gedung": null, "wil_campur": null, "iddesa": "3506150010", "kdsubsls": "00" }, "geometry": { "type": "MultiPolygon", "coordinates": [ [ [ [ 112.148674760000063, -7.650353569999936 ], [ 112.148488758000099, -7.650284829999975 ], [ 112.148358961000099, -7.650726282999926 ], [ 112.148320079000086, -7.650842779999948 ], [ 112.147557394000046, -7.650550754999927 ], [ 112.147558931000049, -7.650546805999966 ], [ 112.147778437000056, -7.649982930999954 ], [ 112.148264458000085, -7.64871803099993 ], [ 112.148278185000095, -7.648682303999976 ], [ 112.148289860000091, -7.648686932999965 ], [ 112.148901144000092, -7.648929284999952 ], [ 112.148912481000025, -7.648933779999936 ], [ 112.148814774000016, -7.649258135999958 ], [ 112.149204694000105, -7.649402369999962 ], [ 112.149259606000101, -7.649418630999946 ], [ 112.149205293000023, -7.649584102999938 ], [ 112.149348417000056, -7.649644862999935 ], [ 112.149502700000085, -7.649700965999955 ], [ 112.149476207000021, -7.649789794999947 ], [ 112.149671009000031, -7.649866157999952 ], [ 112.149639175000061, -7.650020231999974 ], [ 112.149634874000071, -7.650018970999952 ], [ 112.149630069000068, -7.650035788999958 ], [ 112.149431451000055, -7.649975723999944 ], [ 112.149369783000111, -7.65015832399996 ], [ 112.149212811000098, -7.650106266999956 ], [ 112.149080180000055, -7.650462896999954 ], [ 112.14908777100004, -7.650509393999926 ], [ 112.149185952000039, -7.650556145999929 ], [ 112.149103902000093, -7.650797977999957 ], [ 112.149032213000055, -7.650772998999969 ], [ 112.148730071000045, -7.650672284999928 ], [ 112.148824388000094, -7.650410587999943 ], [ 112.148687892000112, -7.650364036999974 ], [ 112.148674760000063, -7.650353569999936 ] ] ] ] } },
{ "type": "Feature", "properties": { "fid": 7003, "kk": null, "gid": 0.0, "bstt": null, "luas": 32082.516907545058, "bsbtt": null, "idsls": "35061500100012", "kdkab": "06", "kdkec": "150", "kdsls": "0012", "nmkab": "KEDIRI", "nmkec": "KUNJANG", "nmsls": "RT 012 RW 003 DUSUN KLEPEK", "bstt_k": null, "kddesa": "010", "kdprov": "35", "khusus": null, "muatan": null, "nmdesa": "KLEPEK", "nmprov": "JAWA TIMUR", "posisi": null, "rw_dki": null, "segmen": null, "subsls": null, "sumber": null, "dom_sls": null, "periode": "2025_1", "tingkat": null, "idsubsls": "3506150010001200", "nm_gedung": null, "wil_campur": null, "iddesa": "3506150010", "kdsubsls": "00" }, "geometry": { "type": "MultiPolygon", "coordinates": [ [ [ [ 112.149205293000023, -7.649584102999938 ], [ 112.149259606000101, -7.649418630999946 ], [ 112.149204694000105, -7.649402369999962 ], [ 112.148814774000016, -7.649258135999958 ], [ 112.148912481000025, -7.648933779999936 ], [ 112.148901144000092, -7.648929284999952 ], [ 112.149096683000039, -7.648481683999933 ], [ 112.149097365000102, -7.648481772999958 ], [ 112.14947630000006, -7.648531337999941 ], [ 112.150217914000109, -7.64869792099995 ], [ 112.150762512000028, -7.648803636999958 ], [ 112.151054032000047, -7.648877317999961 ], [ 112.151183147000097, -7.649019882999937 ], [ 112.151050700000042, -7.649353481999981 ], [ 112.151050439000073, -7.649357958999929 ], [ 112.15103449500009, -7.649353762999965 ], [ 112.150874362000081, -7.649760137999976 ], [ 112.150889280000115, -7.649765732999981 ], [ 112.150829785000042, -7.649924066999972 ], [ 112.150743291000026, -7.649898438999969 ], [ 112.150732518000041, -7.649921716999927 ], [ 112.150648234000073, -7.649899139999945 ], [ 112.150595135000117, -7.650072252999962 ], [ 112.150592725000024, -7.650071428999979 ], [ 112.150503521000019, -7.650278562999972 ], [ 112.150459779000016, -7.650263438999957 ], [ 112.15044776600007, -7.650296475999937 ], [ 112.150222719000112, -7.650201971999934 ], [ 112.150202697000054, -7.65024601999994 ], [ 112.150047327000038, -7.650171537999938 ], [ 112.150050530000044, -7.650157322999974 ], [ 112.149947943000029, -7.65011549899998 ], [ 112.149946416000034, -7.650114875999975 ], [ 112.149940810000089, -7.650128490999975 ], [ 112.149699745000021, -7.650037991999966 ], [ 112.149639175000061, -7.650020231999974 ], [ 112.149671009000031, -7.649866157999952 ], [ 112.149476207000021, -7.649789794999947 ], [ 112.149502700000085, -7.649700965999955 ], [ 112.149348417000056, -7.649644862999935 ], [ 112.149205293000023, -7.649584102999938 ] ] ] ] } }
]
}
