{
"type": "FeatureCollection",
"name": "iddesa_3506150002",
"crs": { "type": "name", "properties": { "name": "urn:ogc:def:crs:OGC:1.3:CRS84" } },
"features": [
{ "type": "Feature", "properties": { "fid": 6719, "kk": null, "gid": 0.0, "bstt": null, "luas": 18506.864720333513, "bsbtt": null, "idsls": "35061500020012", "kdkab": "06", "kdkec": "150", "kdsls": "0012", "nmkab": "KEDIRI", "nmkec": "KUNJANG", "nmsls": "RT 003 RW 002 DUSUN TANJANGSARI", "bstt_k": null, "kddesa": "002", "kdprov": "35", "khusus": null, "muatan": null, "nmdesa": "KAPI", "nmprov": "JAWA TIMUR", "posisi": null, "rw_dki": null, "segmen": null, "subsls": null, "sumber": null, "dom_sls": null, "periode": "2025_1", "tingkat": null, "idsubsls": "3506150002001200", "nm_gedung": null, "wil_campur": null, "iddesa": "3506150002", "kdsubsls": "00" }, "geometry": { "type": "MultiPolygon", "coordinates": [ [ [ [ 112.158790504000081, -7.664612402999978 ], [ 112.158708656000044, -7.665321759999927 ], [ 112.158708585000113, -7.665321744999972 ], [ 112.157789819000072, -7.66512578399994 ], [ 112.156710401000055, -7.664919765999969 ], [ 112.156722070000114, -7.664873799999953 ], [ 112.156852911000101, -7.664413844999956 ], [ 112.156925830000091, -7.664157509999939 ], [ 112.156956800000103, -7.664132599999959 ], [ 112.156981039000016, -7.664113105999945 ], [ 112.157336825000016, -7.664227828999969 ], [ 112.157913508000092, -7.664375613999937 ], [ 112.158790504000081, -7.664612402999978 ] ] ] ] } },
{ "type": "Feature", "properties": { "fid": 6720, "kk": null, "gid": 0.0, "bstt": null, "luas": 14593.789650926132, "bsbtt": null, "idsls": "35061500020013", "kdkab": "06", "kdkec": "150", "kdsls": "0013", "nmkab": "KEDIRI", "nmkec": "KUNJANG", "nmsls": "RT 004 RW 002 DUSUN TANJANGSARI", "bstt_k": null, "kddesa": "002", "kdprov": "35", "khusus": null, "muatan": null, "nmdesa": "KAPI", "nmprov": "JAWA TIMUR", "posisi": null, "rw_dki": null, "segmen": null, "subsls": null, "sumber": null, "dom_sls": null, "periode": "2025_1", "tingkat": null, "idsubsls": "3506150002001300", "nm_gedung": null, "wil_campur": null, "iddesa": "3506150002", "kdsubsls": "00" }, "geometry": { "type": "MultiPolygon", "coordinates": [ [ [ [ 112.158708585000113, -7.665321744999972 ], [ 112.158644529000071, -7.665905306999946 ], [ 112.15864440100006, -7.665906473999939 ], [ 112.157519950000051, -7.665675157999942 ], [ 112.156580224000095, -7.665432548999945 ], [ 112.156710401000055, -7.664919765999969 ], [ 112.157789819000072, -7.66512578399994 ], [ 112.158708585000113, -7.665321744999972 ] ] ] ] } },
{ "type": "Feature", "properties": { "fid": 6721, "kk": null, "gid": 0.0, "bstt": null, "luas": 27488.503028929146, "bsbtt": null, "idsls": "35061500020001", "kdkab": "06", "kdkec": "150", "kdsls": "0001", "nmkab": "KEDIRI", "nmkec": "KUNJANG", "nmsls": "RT 001 RW 001 DUSUN KAPI", "bstt_k": null, "kddesa": "002", "kdprov": "35", "khusus": null, "muatan": null, "nmdesa": "KAPI", "nmprov": "JAWA TIMUR", "posisi": null, "rw_dki": null, "segmen": null, "subsls": null, "sumber": null, "dom_sls": null, "periode": "2025_1", "tingkat": null, "idsubsls": "3506150002000100", "nm_gedung": null, "wil_campur": null, "iddesa": "3506150002", "kdsubsls": "00" }, "geometry": { "type": "MultiPolygon", "coordinates": [ [ [ [ 112.162362209000094, -7.657160952999959 ], [ 112.162299597000015, -7.657137758999966 ], [ 112.162234838000018, -7.657565591999969 ], [ 112.161251715000049, -7.657296527999961 ], [ 112.161252709000109, -7.657275648999928 ], [ 112.161257550000073, -7.65717400099993 ], [ 112.160634256000094, -7.657040021999933 ], [ 112.160633248000067, -7.657039804999954 ], [ 112.160662421000097, -7.656765578999966 ], [ 112.158909124000047, -7.656838511999979 ], [ 112.158909174000087, -7.656838207999954 ], [ 112.15893100400001, -7.656705773999931 ], [ 112.158935380000116, -7.656510314999935 ], [ 112.1589718460001, -7.656209833999981 ], [ 112.159005395, -7.656007080999927 ], [ 112.159049154000058, -7.655899140999963 ], [ 112.159110962000113, -7.655790510999964 ], [ 112.15935305000005, -7.655894639999929 ], [ 112.159450300000117, -7.655935529999965 ], [ 112.160271636000061, -7.656280849999973 ], [ 112.160454280000067, -7.656357639999953 ], [ 112.161206510000056, -7.656661379999946 ], [ 112.16130046100011, -7.656699316999948 ], [ 112.161349950000044, -7.656719299999963 ], [ 112.16184618200009, -7.656919680999977 ], [ 112.161897170000088, -7.65694026999995 ], [ 112.161911520000103, -7.656946069999947 ], [ 112.16191326, -7.656946719999951 ], [ 112.162092046000112, -7.657013536999955 ], [ 112.162092381000093, -7.65701366299993 ], [ 112.162112280000088, -7.656912510999973 ], [ 112.162128819000031, -7.656828437999934 ], [ 112.162164880000091, -7.656838879999952 ], [ 112.162363092000078, -7.656896256999971 ], [ 112.162801284000011, -7.657024461999981 ], [ 112.16272608700001, -7.65728765199998 ], [ 112.162362744, -7.657156722999957 ], [ 112.162362209000094, -7.657160952999959 ] ] ] ] } },
{ "type": "Feature", "properties": { "fid": 6722, "kk": null, "gid": 0.0, "bstt": null, "luas": 17929.74966102434, "bsbtt": null, "idsls": "35061500020002", "kdkab": "06", "kdkec": "150", "kdsls": "0002", "nmkab": "KEDIRI", "nmkec": "KUNJANG", "nmsls": "RT 002 RW 001 DUSUN KAPI", "bstt_k": null, "kddesa": "002", "kdprov": "35", "khusus": null, "muatan": null, "nmdesa": "KAPI", "nmprov": "JAWA TIMUR", "posisi": null, "rw_dki": null, "segmen": null, "subsls": null, "sumber": null, "dom_sls": null, "periode": "2025_1", "tingkat": null, "idsubsls": "3506150002000200", "nm_gedung": null, "wil_campur": null, "iddesa": "3506150002", "kdsubsls": "00" }, "geometry": { "type": "MultiPolygon", "coordinates": [ [ [ [ 112.160634256000094, -7.657040021999933 ], [ 112.160492853000051, -7.657799214999955 ], [ 112.160280619000105, -7.657744514999933 ], [ 112.160066198000095, -7.657694191999951 ], [ 112.159878032000051, -7.657687627999962 ], [ 112.159538896000072, -7.65766137199995 ], [ 112.159350730000028, -7.657604484999979 ], [ 112.159123181000041, -7.657523529999935 ], [ 112.158812559000012, -7.657438217999982 ], [ 112.15881248900007, -7.657438198999955 ], [ 112.158838744000036, -7.657300355999951 ], [ 112.158865000000105, -7.657031235999966 ], [ 112.158872658000064, -7.656844710999962 ], [ 112.158873815000106, -7.656844504999981 ], [ 112.158909174000087, -7.656838207999954 ], [ 112.158909124000047, -7.656838511999979 ], [ 112.160662421000097, -7.656765578999966 ], [ 112.160633248000067, -7.657039804999954 ], [ 112.160634256000094, -7.657040021999933 ] ] ] ] } },
{ "type": "Feature", "properties": { "fid": 6723, "kk": null, "gid": 0.0, "bstt": null, "luas": 50548.191750803366, "bsbtt": null, "idsls": "35061500020003", "kdkab": "06", "kdkec": "150", "kdsls": "0003", "nmkab": "KEDIRI", "nmkec": "KUNJANG", "nmsls": "RT 003 RW 001 DUSUN KAPI", "bstt_k": null, "kddesa": "002", "kdprov": "35", "khusus": null, "muatan": null, "nmdesa": "KAPI", "nmprov": "JAWA TIMUR", "posisi": null, "rw_dki": null, "segmen": null, "subsls": null, "sumber": null, "dom_sls": null, "periode": "2025_1", "tingkat": null, "idsubsls": "3506150002000300", "nm_gedung": null, "wil_campur": null, "iddesa": "3506150002", "kdsubsls": "00" }, "geometry": { "type": "MultiPolygon", "coordinates": [ [ [ [ 112.161252709000109, -7.657275648999928 ], [ 112.160930757000074, -7.659194652999929 ], [ 112.160930721000113, -7.659194868999975 ], [ 112.160622225000111, -7.659112382999979 ], [ 112.160567603000118, -7.65945561999996 ], [ 112.160250869000038, -7.659418397999957 ], [ 112.160284509, -7.659207863999939 ], [ 112.159484470000052, -7.659067965999952 ], [ 112.159401327000069, -7.659527440999966 ], [ 112.158898093000062, -7.659363342999939 ], [ 112.158981236000045, -7.658967318999942 ], [ 112.158591777000083, -7.658899491999932 ], [ 112.158591945000012, -7.658898067999928 ], [ 112.158639912000012, -7.658490340999947 ], [ 112.158666168000082, -7.658448768999961 ], [ 112.158670544000074, -7.658249663999925 ], [ 112.158683672000052, -7.65815558099996 ], [ 112.158704457000113, -7.658063685999934 ], [ 112.158762439000043, -7.657714703999943 ], [ 112.158787311000083, -7.657560141999966 ], [ 112.158793070000115, -7.65752434999996 ], [ 112.158802561000016, -7.65748240399995 ], [ 112.158812559000012, -7.657438217999982 ], [ 112.159123181000041, -7.657523529999935 ], [ 112.159350730000028, -7.657604484999979 ], [ 112.159538896000072, -7.65766137199995 ], [ 112.159878032000051, -7.657687627999962 ], [ 112.160066198000095, -7.657694191999951 ], [ 112.160280619000105, -7.657744514999933 ], [ 112.160492853000051, -7.657799214999955 ], [ 112.160634256000094, -7.657040021999933 ], [ 112.161257550000073, -7.65717400099993 ], [ 112.161252709000109, -7.657275648999928 ] ] ] ] } },
{ "type": "Feature", "properties": { "fid": 6724, "kk": null, "gid": 0.0, "bstt": null, "luas": 22782.446866964303, "bsbtt": null, "idsls": "35061500020006", "kdkab": "06", "kdkec": "150", "kdsls": "0006", "nmkab": "KEDIRI", "nmkec": "KUNJANG", "nmsls": "RT 006 RW 002 DUSUN KAPI", "bstt_k": null, "kddesa": "002", "kdprov": "35", "khusus": null, "muatan": null, "nmdesa": "KAPI", "nmprov": "JAWA TIMUR", "posisi": null, "rw_dki": null, "segmen": null, "subsls": null, "sumber": null, "dom_sls": null, "periode": "2025_1", "tingkat": null, "idsubsls": "3506150002000600", "nm_gedung": null, "wil_campur": null, "iddesa": "3506150002", "kdsubsls": "00" }, "geometry": { "type": "MultiPolygon", "coordinates": [ [ [ [ 112.158517467000024, -7.655535230999931 ], [ 112.159110962000113, -7.655790510999964 ], [ 112.159049154000058, -7.655899140999963 ], [ 112.159005395, -7.656007080999927 ], [ 112.1589718460001, -7.656209833999981 ], [ 112.158935380000116, -7.656510314999935 ], [ 112.15893100400001, -7.656705773999931 ], [ 112.158909174000087, -7.656838207999954 ], [ 112.158873815000106, -7.656844504999981 ], [ 112.158873478000032, -7.656844436999961 ], [ 112.158364227000106, -7.656851547999963 ], [ 112.157813952000083, -7.656877803999976 ], [ 112.156601814000055, -7.656928126999958 ], [ 112.156157980000103, -7.656941942999936 ], [ 112.156346179000025, -7.656706998999937 ], [ 112.156349150000096, -7.656703289999939 ], [ 112.156356300000084, -7.656694369999968 ], [ 112.156358052000087, -7.65669543599995 ], [ 112.156645080000089, -7.656870139999967 ], [ 112.156688030000055, -7.656857569999943 ], [ 112.156770110000025, -7.656769729999951 ], [ 112.157199900000023, -7.656541 ], [ 112.157505480000054, -7.656412579999937 ], [ 112.15752176, -7.656405739999968 ], [ 112.157673970000019, -7.656341779999934 ], [ 112.157806780000101, -7.656183149999947 ], [ 112.157917460000021, -7.656087229999969 ], [ 112.15798755000003, -7.655928589999974 ], [ 112.158044690000111, -7.655810409999958 ], [ 112.158229452000114, -7.655428223999934 ], [ 112.158234380000067, -7.655418029999964 ], [ 112.158511400000066, -7.655534989999978 ], [ 112.158512280000082, -7.655533 ], [ 112.158517467000024, -7.655535230999931 ] ] ] ] } },
{ "type": "Feature", "properties": { "fid": 6725, "kk": null, "gid": 0.0, "bstt": null, "luas": 17842.380767274499, "bsbtt": null, "idsls": "35061500020007", "kdkab": "06", "kdkec": "150", "kdsls": "0007", "nmkab": "KEDIRI", "nmkec": "KUNJANG", "nmsls": "RT 007 RW 002 DUSUN KAPI", "bstt_k": null, "kddesa": "002", "kdprov": "35", "khusus": null, "muatan": null, "nmdesa": "KAPI", "nmprov": "JAWA TIMUR", "posisi": null, "rw_dki": null, "segmen": null, "subsls": null, "sumber": null, "dom_sls": null, "periode": "2025_1", "tingkat": null, "idsubsls": "3506150002000700", "nm_gedung": null, "wil_campur": null, "iddesa": "3506150002", "kdsubsls": "00" }, "geometry": { "type": "MultiPolygon", "coordinates": [ [ [ [ 112.157877650000046, -7.657423574999939 ], [ 112.157856712000012, -7.65761817799995 ], [ 112.157871268, -7.657637585999964 ], [ 112.157933876000016, -7.657648569999935 ], [ 112.157908261000102, -7.657955948999927 ], [ 112.158068990000061, -7.657973463999951 ], [ 112.158006921000037, -7.658287859999973 ], [ 112.157936183000061, -7.658283929999925 ], [ 112.157868236000013, -7.658799823999971 ], [ 112.157770192000044, -7.658954191999953 ], [ 112.157695801000045, -7.658952003999957 ], [ 112.157695811000053, -7.65895186399996 ], [ 112.157062972000062, -7.65881514199998 ], [ 112.156993872000044, -7.65880021299995 ], [ 112.156994965000081, -7.658795380999948 ], [ 112.156947924000065, -7.658791460999964 ], [ 112.156945323000059, -7.658798818999969 ], [ 112.156930146000036, -7.658780910999951 ], [ 112.156861159000073, -7.658762095999975 ], [ 112.156940660000032, -7.658163342999956 ], [ 112.156995814000084, -7.657691127999954 ], [ 112.157175416000086, -7.657309995999981 ], [ 112.157279059000075, -7.657324570999947 ], [ 112.157298481000112, -7.657327301999942 ], [ 112.157392767000033, -7.657340560999955 ], [ 112.157877650000046, -7.657423574999939 ] ] ] ] } },
{ "type": "Feature", "properties": { "fid": 6726, "kk": null, "gid": 0.0, "bstt": null, "luas": 33444.215498029538, "bsbtt": null, "idsls": "35061500020008", "kdkab": "06", "kdkec": "150", "kdsls": "0008", "nmkab": "KEDIRI", "nmkec": "KUNJANG", "nmsls": "RT 008 RW 002 DUSUN KAPI", "bstt_k": null, "kddesa": "002", "kdprov": "35", "khusus": null, "muatan": null, "nmdesa": "KAPI", "nmprov": "JAWA TIMUR", "posisi": null, "rw_dki": null, "segmen": null, "subsls": null, "sumber": null, "dom_sls": null, "periode": "2025_1", "tingkat": null, "idsubsls": "3506150002000800", "nm_gedung": null, "wil_campur": null, "iddesa": "3506150002", "kdsubsls": "00" }, "geometry": { "type": "MultiPolygon", "coordinates": [ [ [ [ 112.155127768000057, -7.659000000999981 ], [ 112.154902809000077, -7.658937352999942 ], [ 112.154966262000016, -7.658826829999953 ], [ 112.155091770000013, -7.658608219999962 ], [ 112.155091810000044, -7.658608149999964 ], [ 112.155154830000015, -7.658498369999961 ], [ 112.155288270000028, -7.658265959999937 ], [ 112.155195730000059, -7.658215189999964 ], [ 112.155155670000113, -7.658193209999979 ], [ 112.155988340000022, -7.65715371999994 ], [ 112.1560229480001, -7.657110521999925 ], [ 112.156543974000101, -7.65721039999994 ], [ 112.156574516000092, -7.657057686999963 ], [ 112.156751954000015, -7.657091419999972 ], [ 112.156736292, -7.657224751999934 ], [ 112.156725642000083, -7.657315409999967 ], [ 112.156895658000053, -7.657331601999942 ], [ 112.156903757, -7.65727179299995 ], [ 112.157175416000086, -7.657309995999981 ], [ 112.156995814000084, -7.657691127999954 ], [ 112.156940660000032, -7.658163342999956 ], [ 112.156861159000073, -7.658762095999975 ], [ 112.156930146000036, -7.658780910999951 ], [ 112.156945323000059, -7.658798818999969 ], [ 112.156871345000013, -7.65900806999997 ], [ 112.156481886000051, -7.658938054999965 ], [ 112.156416246000049, -7.659073709999973 ], [ 112.15524030600011, -7.658660348999945 ], [ 112.155162862000111, -7.65888248899995 ], [ 112.155127768000057, -7.659000000999981 ] ] ] ] } },
{ "type": "Feature", "properties": { "fid": 6727, "kk": null, "gid": 0.0, "bstt": null, "luas": 59506.794095834084, "bsbtt": null, "idsls": "35061500020009", "kdkab": "06", "kdkec": "150", "kdsls": "0009", "nmkab": "KEDIRI", "nmkec": "KUNJANG", "nmsls": "RT 009 RW 003 DUSUN KAPI", "bstt_k": null, "kddesa": "002", "kdprov": "35", "khusus": null, "muatan": null, "nmdesa": "KAPI", "nmprov": "JAWA TIMUR", "posisi": null, "rw_dki": null, "segmen": null, "subsls": null, "sumber": null, "dom_sls": null, "periode": "2025_1", "tingkat": null, "idsubsls": "3506150002000900", "nm_gedung": null, "wil_campur": null, "iddesa": "3506150002", "kdsubsls": "00" }, "geometry": { "type": "MultiPolygon", "coordinates": [ [ [ [ 112.162299597000015, -7.657137758999966 ], [ 112.162362209000094, -7.657160952999959 ], [ 112.162362744, -7.657156722999957 ], [ 112.16272608700001, -7.65728765199998 ], [ 112.162801284000011, -7.657024461999981 ], [ 112.162826102000054, -7.657031722999932 ], [ 112.162826555000038, -7.657030417999977 ], [ 112.162828290000107, -7.657030919999954 ], [ 112.162865800000077, -7.656881889999966 ], [ 112.162870457000054, -7.656883077999964 ], [ 112.163144960000068, -7.656953109999961 ], [ 112.163255640000102, -7.656967859999952 ], [ 112.163410590000012, -7.65697892999998 ], [ 112.163561850000065, -7.65699 ], [ 112.163934460000064, -7.657122809999976 ], [ 112.164118920000078, -7.657200279999927 ], [ 112.164380850000043, -7.657288819999962 ], [ 112.164569, -7.657310959999961 ], [ 112.164757150000014, -7.657355229999951 ], [ 112.164926850000029, -7.657425319999959 ], [ 112.165052290000062, -7.657451149999929 ], [ 112.165225680000049, -7.657547069999964 ], [ 112.165330634000043, -7.657595882999942 ], [ 112.165369731000055, -7.65761406699994 ], [ 112.16537578000009, -7.657616879999978 ], [ 112.165399630000024, -7.657748069999968 ], [ 112.165829630000076, -7.658358079999971 ], [ 112.165804340000022, -7.658516159999976 ], [ 112.166772950000109, -7.658911209999928 ], [ 112.166781262000086, -7.658914599999946 ], [ 112.16663567, -7.659431106999932 ], [ 112.16507746700006, -7.659111010999936 ], [ 112.165113704000078, -7.658676163999928 ], [ 112.164799648000098, -7.65860368899996 ], [ 112.163706490000095, -7.658325869999942 ], [ 112.162371751000023, -7.658078248999971 ], [ 112.162395909000111, -7.657860824999943 ], [ 112.162277759000062, -7.657829099999958 ], [ 112.162308517000042, -7.657585756999936 ], [ 112.162234838000018, -7.657565591999969 ], [ 112.162299597000015, -7.657137758999966 ] ] ] ] } },
{ "type": "Feature", "properties": { "fid": 6728, "kk": null, "gid": 0.0, "bstt": null, "luas": 10348.841468795634, "bsbtt": null, "idsls": "35061500020010", "kdkab": "06", "kdkec": "150", "kdsls": "0010", "nmkab": "KEDIRI", "nmkec": "KUNJANG", "nmsls": "RT 001 RW 001 DUSUN TANJANGSARI", "bstt_k": null, "kddesa": "002", "kdprov": "35", "khusus": null, "muatan": null, "nmdesa": "KAPI", "nmprov": "JAWA TIMUR", "posisi": null, "rw_dki": null, "segmen": null, "subsls": null, "sumber": null, "dom_sls": null, "periode": "2025_1", "tingkat": null, "idsubsls": "3506150002001000", "nm_gedung": null, "wil_campur": null, "iddesa": "3506150002", "kdsubsls": "00" }, "geometry": { "type": "MultiPolygon", "coordinates": [ [ [ [ 112.159567277000065, -7.664829547999943 ], [ 112.159388406000062, -7.664809624999975 ], [ 112.159373660000028, -7.664867380999965 ], [ 112.159377386000074, -7.664868578999972 ], [ 112.159016005000012, -7.666007087999958 ], [ 112.159015771000099, -7.666007824999951 ], [ 112.158644529000071, -7.665905306999946 ], [ 112.158708585000113, -7.665321744999972 ], [ 112.158708656000044, -7.665321759999927 ], [ 112.158790504000081, -7.664612402999978 ], [ 112.159359231000053, -7.664765958999965 ], [ 112.15952306500003, -7.663978912999937 ], [ 112.159759515000019, -7.664031200999943 ], [ 112.159568612000044, -7.664824001999932 ], [ 112.159567277000065, -7.664829547999943 ] ] ] ] } },
{ "type": "Feature", "properties": { "fid": 6729, "kk": null, "gid": 0.0, "bstt": null, "luas": 20925.31355394793, "bsbtt": null, "idsls": "35061500020011", "kdkab": "06", "kdkec": "150", "kdsls": "0011", "nmkab": "KEDIRI", "nmkec": "KUNJANG", "nmsls": "RT 002 RW 001 DUSUN TANJANGSARI", "bstt_k": null, "kddesa": "002", "kdprov": "35", "khusus": null, "muatan": null, "nmdesa": "KAPI", "nmprov": "JAWA TIMUR", "posisi": null, "rw_dki": null, "segmen": null, "subsls": null, "sumber": null, "dom_sls": null, "periode": "2025_1", "tingkat": null, "idsubsls": "3506150002001100", "nm_gedung": null, "wil_campur": null, "iddesa": "3506150002", "kdsubsls": "00" }, "geometry": { "type": "MultiPolygon", "coordinates": [ [ [ [ 112.15952306500003, -7.663978912999937 ], [ 112.159359231000053, -7.664765958999965 ], [ 112.158790504000081, -7.664612402999978 ], [ 112.157913508000092, -7.664375613999937 ], [ 112.157336825000016, -7.664227828999969 ], [ 112.156981039000016, -7.664113105999945 ], [ 112.157003030000055, -7.664095419999967 ], [ 112.157014540000091, -7.664040149999948 ], [ 112.157069810000053, -7.663791429999947 ], [ 112.157195920000049, -7.663428339999939 ], [ 112.157209630000011, -7.663408069999946 ], [ 112.157235688000014, -7.663337339999941 ], [ 112.157383410000079, -7.663406979999934 ], [ 112.157449271000019, -7.663506573999939 ], [ 112.157552077000105, -7.663596530999939 ], [ 112.157865317000073, -7.663670422999928 ], [ 112.158141611000019, -7.663782867999942 ], [ 112.158417905000078, -7.663859972999944 ], [ 112.158771304000084, -7.663859972999944 ], [ 112.159147191000102, -7.663933865999979 ], [ 112.15952307900011, -7.663978843999928 ], [ 112.15952306500003, -7.663978912999937 ] ] ] ] } },
{ "type": "Feature", "properties": { "fid": 6730, "kk": null, "gid": 0.0, "bstt": null, "luas": 67793.895312855209, "bsbtt": null, "idsls": "35061500020016", "kdkab": "06", "kdkec": "150", "kdsls": "0016", "nmkab": "KEDIRI", "nmkec": "KUNJANG", "nmsls": "RT 001 RW 001 DUSUN MANGU", "bstt_k": null, "kddesa": "002", "kdprov": "35", "khusus": null, "muatan": null, "nmdesa": "KAPI", "nmprov": "JAWA TIMUR", "posisi": null, "rw_dki": null, "segmen": null, "subsls": null, "sumber": null, "dom_sls": null, "periode": "2025_1", "tingkat": null, "idsubsls": "3506150002001600", "nm_gedung": null, "wil_campur": null, "iddesa": "3506150002", "kdsubsls": "00" }, "geometry": { "type": "MultiPolygon", "coordinates": [ [ [ [ 112.169519195000021, -7.659368392999966 ], [ 112.170246261000102, -7.659564355999976 ], [ 112.171097082000074, -7.659793673999957 ], [ 112.171161130000087, -7.659810935999928 ], [ 112.171185128000047, -7.659815 ], [ 112.171099033000019, -7.660173730999929 ], [ 112.171005212000068, -7.660564651999948 ], [ 112.170985516000087, -7.660646718999942 ], [ 112.170714110000063, -7.661281806999966 ], [ 112.171502605000114, -7.661567074999937 ], [ 112.171348351, -7.661889427999938 ], [ 112.170989523000117, -7.66273836199997 ], [ 112.170698522000066, -7.663326926999957 ], [ 112.170697747000077, -7.663326611999935 ], [ 112.170249988000023, -7.663145324999959 ], [ 112.169939295000063, -7.66299872999997 ], [ 112.169676738000021, -7.66286963999994 ], [ 112.169423068000015, -7.662823716999981 ], [ 112.169422933000078, -7.66282369299995 ], [ 112.169410148000111, -7.66278671799995 ], [ 112.169141110000055, -7.662709948999975 ], [ 112.169236677000072, -7.662354985999968 ], [ 112.169324848000088, -7.662380293999945 ], [ 112.169331038000109, -7.66229857899998 ], [ 112.169473560000029, -7.661791685999958 ], [ 112.169105478, -7.661678209999934 ], [ 112.169222627000067, -7.661272935999932 ], [ 112.169584569000108, -7.661400000999947 ], [ 112.169766283000058, -7.66078002699993 ], [ 112.169912391000025, -7.660245417999931 ], [ 112.169869941000115, -7.66015072099998 ], [ 112.169391510000082, -7.659962434999954 ], [ 112.169448650000049, -7.659596819999933 ], [ 112.169448912, -7.659596908999958 ], [ 112.169452312000089, -7.659598068999969 ], [ 112.169487828000115, -7.65939541399996 ], [ 112.169493536, -7.659362847999944 ], [ 112.169493765000084, -7.659361538999974 ], [ 112.169519195000021, -7.659368392999966 ] ] ] ] } },
{ "type": "Feature", "properties": { "fid": 6731, "kk": null, "gid": 0.0, "bstt": null, "luas": 9561.2104936915603, "bsbtt": null, "idsls": "35061500020017", "kdkab": "06", "kdkec": "150", "kdsls": "0017", "nmkab": "KEDIRI", "nmkec": "KUNJANG", "nmsls": "RT 002 RW 001 DUSUN MANGU", "bstt_k": null, "kddesa": "002", "kdprov": "35", "khusus": null, "muatan": null, "nmdesa": "KAPI", "nmprov": "JAWA TIMUR", "posisi": null, "rw_dki": null, "segmen": null, "subsls": null, "sumber": null, "dom_sls": null, "periode": "2025_1", "tingkat": null, "idsubsls": "3506150002001700", "nm_gedung": null, "wil_campur": null, "iddesa": "3506150002", "kdsubsls": "00" }, "geometry": { "type": "MultiPolygon", "coordinates": [ [ [ [ 112.170697747000077, -7.663326611999935 ], [ 112.170736080000097, -7.663348052999936 ], [ 112.170572790000051, -7.663791496999977 ], [ 112.170572231000051, -7.663793014999953 ], [ 112.169881497, -7.663584187999959 ], [ 112.169450993000055, -7.663465316999975 ], [ 112.169239167000114, -7.66336903399997 ], [ 112.169238953000104, -7.663368935999927 ], [ 112.169394770000054, -7.66287899699995 ], [ 112.169423068000015, -7.662823716999981 ], [ 112.169676738000021, -7.66286963999994 ], [ 112.169939295000063, -7.66299872999997 ], [ 112.170249988000023, -7.663145324999959 ], [ 112.170697747000077, -7.663326611999935 ] ] ] ] } },
{ "type": "Feature", "properties": { "fid": 6732, "kk": null, "gid": 0.0, "bstt": null, "luas": 19333.572933667056, "bsbtt": null, "idsls": "35061500020018", "kdkab": "06", "kdkec": "150", "kdsls": "0018", "nmkab": "KEDIRI", "nmkec": "KUNJANG", "nmsls": "RT 003 RW 001 DUSUN MANGU", "bstt_k": null, "kddesa": "002", "kdprov": "35", "khusus": null, "muatan": null, "nmdesa": "KAPI", "nmprov": "JAWA TIMUR", "posisi": null, "rw_dki": null, "segmen": null, "subsls": null, "sumber": null, "dom_sls": null, "periode": "2025_1", "tingkat": null, "idsubsls": "3506150002001800", "nm_gedung": null, "wil_campur": null, "iddesa": "3506150002", "kdsubsls": "00" }, "geometry": { "type": "MultiPolygon", "coordinates": [ [ [ [ 112.169951790000027, -7.664142097999957 ], [ 112.169758066000099, -7.664100337999969 ], [ 112.169703905, -7.664342259999955 ], [ 112.169468408000057, -7.664353607999942 ], [ 112.169216996000046, -7.664439157999936 ], [ 112.169082478000064, -7.664437263999957 ], [ 112.168898700000113, -7.664403791999973 ], [ 112.168809653000039, -7.664382319999959 ], [ 112.168727553000053, -7.664376003999962 ], [ 112.168644132000054, -7.664368469999943 ], [ 112.168695684000113, -7.66414055499996 ], [ 112.168462738000017, -7.664089561999958 ], [ 112.168658218000019, -7.66322981199994 ], [ 112.168659917000014, -7.66322951199993 ], [ 112.169239167000114, -7.66336903399997 ], [ 112.169450993000055, -7.663465316999975 ], [ 112.169881497, -7.663584187999959 ], [ 112.170572231000051, -7.663793014999953 ], [ 112.170572790000051, -7.663791496999977 ], [ 112.170572934, -7.663791708999952 ], [ 112.170465308000075, -7.664270803999955 ], [ 112.170465265000075, -7.664270792999957 ], [ 112.169957698000076, -7.664119807999953 ], [ 112.169951790000027, -7.664142097999957 ] ] ] ] } },
{ "type": "Feature", "properties": { "fid": 6733, "kk": null, "gid": 0.0, "bstt": null, "luas": 9562.7419431547023, "bsbtt": null, "idsls": "35061500020019", "kdkab": "06", "kdkec": "150", "kdsls": "0019", "nmkab": "KEDIRI", "nmkec": "KUNJANG", "nmsls": "RT 004 RW 002 DUSUN MANGU", "bstt_k": null, "kddesa": "002", "kdprov": "35", "khusus": null, "muatan": null, "nmdesa": "KAPI", "nmprov": "JAWA TIMUR", "posisi": null, "rw_dki": null, "segmen": null, "subsls": null, "sumber": null, "dom_sls": null, "periode": "2025_1", "tingkat": null, "idsubsls": "3506150002001900", "nm_gedung": null, "wil_campur": null, "iddesa": "3506150002", "kdsubsls": "00" }, "geometry": { "type": "MultiPolygon", "coordinates": [ [ [ [ 112.169951790000027, -7.664142097999957 ], [ 112.169957698000076, -7.664119807999953 ], [ 112.170465265000075, -7.664270792999957 ], [ 112.170406727000113, -7.664526326999976 ], [ 112.170188813000095, -7.665477582999927 ], [ 112.170169570000098, -7.665543328999945 ], [ 112.170169537000106, -7.665543442999933 ], [ 112.169910913000081, -7.665469550999944 ], [ 112.169837953000069, -7.665427573999978 ], [ 112.169676486000071, -7.66533467499994 ], [ 112.169676385000116, -7.665334616999928 ], [ 112.169677763000095, -7.665328408999926 ], [ 112.169833770000082, -7.664625786999977 ], [ 112.169653231000098, -7.664565781999954 ], [ 112.169707931000062, -7.664342065999961 ], [ 112.169703905, -7.664342259999955 ], [ 112.169758066000099, -7.664100337999969 ], [ 112.169951790000027, -7.664142097999957 ] ] ] ] } },
{ "type": "Feature", "properties": { "fid": 6734, "kk": null, "gid": 0.0, "bstt": null, "luas": 14994.420863272637, "bsbtt": null, "idsls": "35061500020021", "kdkab": "06", "kdkec": "150", "kdsls": "0021", "nmkab": "KEDIRI", "nmkec": "KUNJANG", "nmsls": "RT 006 RW 002 DUSUN MANGU", "bstt_k": null, "kddesa": "002", "kdprov": "35", "khusus": null, "muatan": null, "nmdesa": "KAPI", "nmprov": "JAWA TIMUR", "posisi": null, "rw_dki": null, "segmen": null, "subsls": null, "sumber": null, "dom_sls": null, "periode": "2025_1", "tingkat": null, "idsubsls": "3506150002002100", "nm_gedung": null, "wil_campur": null, "iddesa": "3506150002", "kdsubsls": "00" }, "geometry": { "type": "MultiPolygon", "coordinates": [ [ [ [ 112.168525229000011, -7.664893526999947 ], [ 112.169593353000096, -7.665096431999928 ], [ 112.169592066000064, -7.665101794999941 ], [ 112.169630432000076, -7.665109583999936 ], [ 112.169582415000036, -7.66533207599997 ], [ 112.169677763000095, -7.665328408999926 ], [ 112.169676385000116, -7.665334616999928 ], [ 112.169676486000071, -7.66533467499994 ], [ 112.169837953000069, -7.665427573999978 ], [ 112.169619195000109, -7.666254562999939 ], [ 112.169425032000049, -7.666207819999954 ], [ 112.16961784700004, -7.665568249999978 ], [ 112.169616244000053, -7.665547685999968 ], [ 112.169592252000029, -7.665553683999974 ], [ 112.169335235000062, -7.665553683999974 ], [ 112.169264555000041, -7.665595448999966 ], [ 112.169171386000016, -7.665736808999952 ], [ 112.168956134000041, -7.665836402999957 ], [ 112.168753733000017, -7.665846040999952 ], [ 112.168480652000085, -7.665765722999936 ], [ 112.168211503000066, -7.665621535999946 ], [ 112.168211386000053, -7.665621551999948 ], [ 112.16820335400007, -7.665617536999946 ], [ 112.168124922000061, -7.665569803999972 ], [ 112.168260570000029, -7.664869630999931 ], [ 112.168480461000058, -7.664896588999966 ], [ 112.168524824000087, -7.664895201999968 ], [ 112.168525229000011, -7.664893526999947 ] ] ] ] } },
{ "type": "Feature", "properties": { "fid": 6735, "kk": null, "gid": 0.0, "bstt": null, "luas": 9998.3971719445308, "bsbtt": null, "idsls": "35061500020022", "kdkab": "06", "kdkec": "150", "kdsls": "0022", "nmkab": "KEDIRI", "nmkec": "KUNJANG", "nmsls": "RT 007 RW 003 DUSUN MANGU", "bstt_k": null, "kddesa": "002", "kdprov": "35", "khusus": null, "muatan": null, "nmdesa": "KAPI", "nmprov": "JAWA TIMUR", "posisi": null, "rw_dki": null, "segmen": null, "subsls": null, "sumber": null, "dom_sls": null, "periode": "2025_1", "tingkat": null, "idsubsls": "3506150002002200", "nm_gedung": null, "wil_campur": null, "iddesa": "3506150002", "kdsubsls": "00" }, "geometry": { "type": "MultiPolygon", "coordinates": [ [ [ [ 112.167943809, -7.664509648999967 ], [ 112.168509276, -7.66462779699998 ], [ 112.168488684000067, -7.664811545999953 ], [ 112.168528843000104, -7.664851704999933 ], [ 112.16852563000009, -7.664891863999969 ], [ 112.168525229000011, -7.664893526999947 ], [ 112.168524824000087, -7.664895201999968 ], [ 112.168480461000058, -7.664896588999966 ], [ 112.168260570000029, -7.664869630999931 ], [ 112.168124922000061, -7.665569803999972 ], [ 112.168044325000096, -7.665520752999953 ], [ 112.167597757000067, -7.665286224999932 ], [ 112.167428001000076, -7.665215759999967 ], [ 112.167427483000097, -7.665215544999967 ], [ 112.16737286700004, -7.665054908999934 ], [ 112.16737286700004, -7.66471063299997 ], [ 112.16737286700004, -7.664672595999946 ], [ 112.167462668000098, -7.664409607999971 ], [ 112.167462823000051, -7.664409152999951 ], [ 112.167943809, -7.664509648999967 ] ] ] ] } },
{ "type": "Feature", "properties": { "fid": 6736, "kk": null, "gid": 0.0, "bstt": null, "luas": 14781.349486765701, "bsbtt": null, "idsls": "35061500020023", "kdkab": "06", "kdkec": "150", "kdsls": "0023", "nmkab": "KEDIRI", "nmkec": "KUNJANG", "nmsls": "RT 008 RW 003 DUSUN MANGU", "bstt_k": null, "kddesa": "002", "kdprov": "35", "khusus": null, "muatan": null, "nmdesa": "KAPI", "nmprov": "JAWA TIMUR", "posisi": null, "rw_dki": null, "segmen": null, "subsls": null, "sumber": null, "dom_sls": null, "periode": "2025_1", "tingkat": null, "idsubsls": "3506150002002300", "nm_gedung": null, "wil_campur": null, "iddesa": "3506150002", "kdsubsls": "00" }, "geometry": { "type": "MultiPolygon", "coordinates": [ [ [ [ 112.168243513000107, -7.663096758999927 ], [ 112.167943809, -7.664509648999967 ], [ 112.167462823000051, -7.664409152999951 ], [ 112.167462668000098, -7.664409607999971 ], [ 112.167560424000044, -7.663866150999979 ], [ 112.167258643000082, -7.66375743499998 ], [ 112.167289984000035, -7.663667328999964 ], [ 112.167577622000067, -7.663770540999963 ], [ 112.167591332000029, -7.663694323999948 ], [ 112.167621392000115, -7.663527259999967 ], [ 112.167392119000056, -7.66343924499995 ], [ 112.167431975000113, -7.663352174999943 ], [ 112.167639236000014, -7.663428087999932 ], [ 112.167758393000099, -7.662765848999925 ], [ 112.167806584, -7.662621275999925 ], [ 112.167832285000031, -7.66249597999996 ], [ 112.167938302000039, -7.662364261999926 ], [ 112.168506956000101, -7.662528107999947 ], [ 112.168506755000067, -7.662528938999969 ], [ 112.168362384000034, -7.663125672999968 ], [ 112.168243513000107, -7.663096758999927 ] ] ] ] } },
{ "type": "Feature", "properties": { "fid": 6737, "kk": null, "gid": 0.0, "bstt": null, "luas": 15924.040435789297, "bsbtt": null, "idsls": "35061500020024", "kdkab": "06", "kdkec": "150", "kdsls": "0024", "nmkab": "KEDIRI", "nmkec": "KUNJANG", "nmsls": "RT 009 RW 003 DUSUN MANGU", "bstt_k": null, "kddesa": "002", "kdprov": "35", "khusus": null, "muatan": null, "nmdesa": "KAPI", "nmprov": "JAWA TIMUR", "posisi": null, "rw_dki": null, "segmen": null, "subsls": null, "sumber": null, "dom_sls": null, "periode": "2025_1", "tingkat": null, "idsubsls": "3506150002002400", "nm_gedung": null, "wil_campur": null, "iddesa": "3506150002", "kdsubsls": "00" }, "geometry": { "type": "MultiPolygon", "coordinates": [ [ [ [ 112.169141110000055, -7.662709948999975 ], [ 112.169410148000111, -7.66278671799995 ], [ 112.169422933000078, -7.66282369299995 ], [ 112.169423068000015, -7.662823716999981 ], [ 112.169394770000054, -7.66287899699995 ], [ 112.169238953000104, -7.663368935999927 ], [ 112.169239167000114, -7.66336903399997 ], [ 112.168659917000014, -7.66322951199993 ], [ 112.168658218000019, -7.66322981199994 ], [ 112.168462738000017, -7.664089561999958 ], [ 112.168695684000113, -7.66414055499996 ], [ 112.168644132000054, -7.664368469999943 ], [ 112.168580246000033, -7.664650909999978 ], [ 112.168509566000012, -7.664625208999951 ], [ 112.168509276, -7.66462779699998 ], [ 112.167943809, -7.664509648999967 ], [ 112.168243513000107, -7.663096758999927 ], [ 112.168362384000034, -7.663125672999968 ], [ 112.168506755000067, -7.662528938999969 ], [ 112.169141110000055, -7.662709948999975 ] ] ] ] } },
{ "type": "Feature", "properties": { "fid": 6738, "kk": null, "gid": 0.0, "bstt": null, "luas": 39258.900921321147, "bsbtt": null, "idsls": "35061500020025", "kdkab": "06", "kdkec": "150", "kdsls": "0025", "nmkab": "KEDIRI", "nmkec": "KUNJANG", "nmsls": "RT 001 RW 001 DUSUN GUYANGAN", "bstt_k": null, "kddesa": "002", "kdprov": "35", "khusus": null, "muatan": null, "nmdesa": "KAPI", "nmprov": "JAWA TIMUR", "posisi": null, "rw_dki": null, "segmen": null, "subsls": null, "sumber": null, "dom_sls": null, "periode": "2025_1", "tingkat": null, "idsubsls": "3506150002002500", "nm_gedung": null, "wil_campur": null, "iddesa": "3506150002", "kdsubsls": "00" }, "geometry": { "type": "MultiPolygon", "coordinates": [ [ [ [ 112.170406727000113, -7.664526326999976 ], [ 112.170465265000075, -7.664270792999957 ], [ 112.170465308000075, -7.664270803999955 ], [ 112.170572934, -7.663791708999952 ], [ 112.170572790000051, -7.663791496999977 ], [ 112.170736080000097, -7.663348052999936 ], [ 112.170697747000077, -7.663326611999935 ], [ 112.170698522000066, -7.663326926999957 ], [ 112.170989523000117, -7.66273836199997 ], [ 112.171348351, -7.661889427999938 ], [ 112.171502605000114, -7.661567074999937 ], [ 112.171518760000026, -7.661572919999969 ], [ 112.171659330000011, -7.661195609999936 ], [ 112.17162049, -7.661171569999965 ], [ 112.171631580000053, -7.66114196999996 ], [ 112.171611240000061, -7.661123479999958 ], [ 112.171686260000115, -7.660959469999966 ], [ 112.171687540000107, -7.660959969999965 ], [ 112.17168799, -7.660959789999936 ], [ 112.171715880000079, -7.660889399999974 ], [ 112.171977540000057, -7.660993879999978 ], [ 112.172499709000022, -7.661202356999979 ], [ 112.171937771000103, -7.662582365999981 ], [ 112.172119289000079, -7.662665896999954 ], [ 112.171740188000058, -7.663546180999958 ], [ 112.171785065000108, -7.66366798599995 ], [ 112.171785167000053, -7.663668263999966 ], [ 112.171457469000075, -7.663537345999941 ], [ 112.171175270000049, -7.664388570999961 ], [ 112.171163506000084, -7.664424055999973 ], [ 112.171163454000066, -7.664424044999976 ], [ 112.171061857000041, -7.664687844999946 ], [ 112.170406727000113, -7.664526326999976 ] ] ] ] } },
{ "type": "Feature", "properties": { "fid": 6739, "kk": null, "gid": 0.0, "bstt": null, "luas": 9312.5667439148947, "bsbtt": null, "idsls": "35061500020026", "kdkab": "06", "kdkec": "150", "kdsls": "0026", "nmkab": "KEDIRI", "nmkec": "KUNJANG", "nmsls": "RT 002 RW 001 DUSUN GUYANGAN", "bstt_k": null, "kddesa": "002", "kdprov": "35", "khusus": null, "muatan": null, "nmdesa": "KAPI", "nmprov": "JAWA TIMUR", "posisi": null, "rw_dki": null, "segmen": null, "subsls": null, "sumber": null, "dom_sls": null, "periode": "2025_1", "tingkat": null, "idsubsls": "3506150002002600", "nm_gedung": null, "wil_campur": null, "iddesa": "3506150002", "kdsubsls": "00" }, "geometry": { "type": "MultiPolygon", "coordinates": [ [ [ [ 112.171785045000092, -7.664382405999959 ], [ 112.17134072500005, -7.664302519999978 ], [ 112.171293166000055, -7.664430759999959 ], [ 112.171175270000049, -7.664388570999961 ], [ 112.171457469000075, -7.663537345999941 ], [ 112.171785167000053, -7.663668263999966 ], [ 112.171785065000108, -7.66366798599995 ], [ 112.172220490000086, -7.664002386999925 ], [ 112.172855001000016, -7.664567824999949 ], [ 112.172824634000108, -7.66465093599993 ], [ 112.172824480000031, -7.664651355999979 ], [ 112.172553006000044, -7.664550154999972 ], [ 112.171957047000092, -7.664354179999975 ], [ 112.171793198000046, -7.664373455999964 ], [ 112.171785045000092, -7.664382405999959 ] ] ] ] } },
{ "type": "Feature", "properties": { "fid": 6740, "kk": null, "gid": 0.0, "bstt": null, "luas": 9779.1628146833336, "bsbtt": null, "idsls": "35061500020027", "kdkab": "06", "kdkec": "150", "kdsls": "0027", "nmkab": "KEDIRI", "nmkec": "KUNJANG", "nmsls": "RT 003 RW 001 DUSUN GUYANGAN", "bstt_k": null, "kddesa": "002", "kdprov": "35", "khusus": null, "muatan": null, "nmdesa": "KAPI", "nmprov": "JAWA TIMUR", "posisi": null, "rw_dki": null, "segmen": null, "subsls": null, "sumber": null, "dom_sls": null, "periode": "2025_1", "tingkat": null, "idsubsls": "3506150002002700", "nm_gedung": null, "wil_campur": null, "iddesa": "3506150002", "kdsubsls": "00" }, "geometry": { "type": "MultiPolygon", "coordinates": [ [ [ [ 112.171785045000092, -7.664382405999959 ], [ 112.171793198000046, -7.664373455999964 ], [ 112.171957047000092, -7.664354179999975 ], [ 112.172553006000044, -7.664550154999972 ], [ 112.172824480000031, -7.664651355999979 ], [ 112.172824634000108, -7.66465093599993 ], [ 112.172781033000092, -7.664796053999964 ], [ 112.172779980000087, -7.664797657999941 ], [ 112.172673407000048, -7.664959901999964 ], [ 112.172601121000071, -7.66519603699993 ], [ 112.172600915000089, -7.665195981999943 ], [ 112.172504740000022, -7.665170334999971 ], [ 112.172352136000086, -7.665102867999963 ], [ 112.171855771000082, -7.664958295999952 ], [ 112.171759389000044, -7.664924561999953 ], [ 112.171626241000013, -7.664900983999928 ], [ 112.171692635000113, -7.664731015999962 ], [ 112.171479, -7.664644406999969 ], [ 112.171477418000109, -7.664643765999926 ], [ 112.171522982000056, -7.664511920999928 ], [ 112.171411495000029, -7.664471203999938 ], [ 112.171339756000066, -7.664615651999952 ], [ 112.171292253000047, -7.664598201999979 ], [ 112.171221672000115, -7.664786144999937 ], [ 112.17104616600011, -7.664728586999956 ], [ 112.171061857000041, -7.664687844999946 ], [ 112.171163454000066, -7.664424044999976 ], [ 112.171163506000084, -7.664424055999973 ], [ 112.171175270000049, -7.664388570999961 ], [ 112.171293166000055, -7.664430759999959 ], [ 112.17134072500005, -7.664302519999978 ], [ 112.171785045000092, -7.664382405999959 ] ] ] ] } },
{ "type": "Feature", "properties": { "fid": 6741, "kk": null, "gid": 0.0, "bstt": null, "luas": 13920.770909839657, "bsbtt": null, "idsls": "35061500020028", "kdkab": "06", "kdkec": "150", "kdsls": "0028", "nmkab": "KEDIRI", "nmkec": "KUNJANG", "nmsls": "RT 004 RW 002 DUSUN GUYANGAN", "bstt_k": null, "kddesa": "002", "kdprov": "35", "khusus": null, "muatan": null, "nmdesa": "KAPI", "nmprov": "JAWA TIMUR", "posisi": null, "rw_dki": null, "segmen": null, "subsls": null, "sumber": null, "dom_sls": null, "periode": "2025_1", "tingkat": null, "idsubsls": "3506150002002800", "nm_gedung": null, "wil_campur": null, "iddesa": "3506150002", "kdsubsls": "00" }, "geometry": { "type": "MultiPolygon", "coordinates": [ [ [ [ 112.171479, -7.664644406999969 ], [ 112.171389756000053, -7.664831255999957 ], [ 112.17138731600005, -7.664831000999925 ], [ 112.171289756000078, -7.665103595999938 ], [ 112.171257628000035, -7.66520961599997 ], [ 112.171257628000035, -7.665402378999943 ], [ 112.171167739000111, -7.665838982999958 ], [ 112.171167672000024, -7.665839307999931 ], [ 112.170865677000052, -7.665791116999969 ], [ 112.170169570000098, -7.665543328999945 ], [ 112.170188813000095, -7.665477582999927 ], [ 112.170406727000113, -7.664526326999976 ], [ 112.171061857000041, -7.664687844999946 ], [ 112.17104616600011, -7.664728586999956 ], [ 112.171221672000115, -7.664786144999937 ], [ 112.171292253000047, -7.664598201999979 ], [ 112.171339756000066, -7.664615651999952 ], [ 112.171411495000029, -7.664471203999938 ], [ 112.171522982000056, -7.664511920999928 ], [ 112.171477418000109, -7.664643765999926 ], [ 112.171479, -7.664644406999969 ] ] ] ] } },
{ "type": "Feature", "properties": { "fid": 6742, "kk": null, "gid": 0.0, "bstt": null, "luas": 16921.51036936343, "bsbtt": null, "idsls": "35061500020029", "kdkab": "06", "kdkec": "150", "kdsls": "0029", "nmkab": "KEDIRI", "nmkec": "KUNJANG", "nmsls": "RT 005 RW 002 DUSUN GUYANGAN", "bstt_k": null, "kddesa": "002", "kdprov": "35", "khusus": null, "muatan": null, "nmdesa": "KAPI", "nmprov": "JAWA TIMUR", "posisi": null, "rw_dki": null, "segmen": null, "subsls": null, "sumber": null, "dom_sls": null, "periode": "2025_1", "tingkat": null, "idsubsls": "3506150002002900", "nm_gedung": null, "wil_campur": null, "iddesa": "3506150002", "kdsubsls": "00" }, "geometry": { "type": "MultiPolygon", "coordinates": [ [ [ [ 112.172600915000089, -7.665195981999943 ], [ 112.172600946000102, -7.665196161999972 ], [ 112.172452682000085, -7.66554879499995 ], [ 112.17243910500008, -7.665581085999975 ], [ 112.172172495000041, -7.666371279999964 ], [ 112.172172450000062, -7.666371413999968 ], [ 112.171398185000044, -7.665899144999969 ], [ 112.171167739000111, -7.665838982999958 ], [ 112.171257628000035, -7.665402378999943 ], [ 112.171257628000035, -7.66520961599997 ], [ 112.171289756000078, -7.665103595999938 ], [ 112.17138731600005, -7.664831000999925 ], [ 112.171389756000053, -7.664831255999957 ], [ 112.171479, -7.664644406999969 ], [ 112.171692635000113, -7.664731015999962 ], [ 112.171626241000013, -7.664900983999928 ], [ 112.171759389000044, -7.664924561999953 ], [ 112.171855771000082, -7.664958295999952 ], [ 112.172352136000086, -7.665102867999963 ], [ 112.172504740000022, -7.665170334999971 ], [ 112.172600915000089, -7.665195981999943 ] ] ] ] } },
{ "type": "Feature", "properties": { "fid": 6743, "kk": null, "gid": 0.0, "bstt": null, "luas": 11336.0461282128, "bsbtt": null, "idsls": "35061500020030", "kdkab": "06", "kdkec": "150", "kdsls": "0030", "nmkab": "KEDIRI", "nmkec": "KUNJANG", "nmsls": "RT 001 RW 001 DUSUN BULUREJO", "bstt_k": null, "kddesa": "002", "kdprov": "35", "khusus": null, "muatan": null, "nmdesa": "KAPI", "nmprov": "JAWA TIMUR", "posisi": null, "rw_dki": null, "segmen": null, "subsls": null, "sumber": null, "dom_sls": null, "periode": "2025_1", "tingkat": null, "idsubsls": "3506150002003000", "nm_gedung": null, "wil_campur": null, "iddesa": "3506150002", "kdsubsls": "00" }, "geometry": { "type": "MultiPolygon", "coordinates": [ [ [ [ 112.173792720000051, -7.665359536999972 ], [ 112.173767965000025, -7.665467837999927 ], [ 112.173488723000105, -7.665917192999927 ], [ 112.173488459000055, -7.66591761799998 ], [ 112.172452682000085, -7.66554879499995 ], [ 112.172600946000102, -7.665196161999972 ], [ 112.172600915000089, -7.665195981999943 ], [ 112.172601121000071, -7.66519603699993 ], [ 112.172673407000048, -7.664959901999964 ], [ 112.172779980000087, -7.664797657999941 ], [ 112.173607329000106, -7.665091949999976 ], [ 112.17378081600009, -7.66523652199993 ], [ 112.173793667000041, -7.66535539299997 ], [ 112.173792720000051, -7.665359536999972 ] ] ] ] } },
{ "type": "Feature", "properties": { "fid": 6744, "kk": null, "gid": 0.0, "bstt": null, "luas": 13516.585036438846, "bsbtt": null, "idsls": "35061500020031", "kdkab": "06", "kdkec": "150", "kdsls": "0031", "nmkab": "KEDIRI", "nmkec": "KUNJANG", "nmsls": "RT 002 RW 001 DUSUN BULUREJO", "bstt_k": null, "kddesa": "002", "kdprov": "35", "khusus": null, "muatan": null, "nmdesa": "KAPI", "nmprov": "JAWA TIMUR", "posisi": null, "rw_dki": null, "segmen": null, "subsls": null, "sumber": null, "dom_sls": null, "periode": "2025_1", "tingkat": null, "idsubsls": "3506150002003100", "nm_gedung": null, "wil_campur": null, "iddesa": "3506150002", "kdsubsls": "00" }, "geometry": { "type": "MultiPolygon", "coordinates": [ [ [ [ 112.173488723000105, -7.665917192999927 ], [ 112.173413261000064, -7.666245415999981 ], [ 112.173063075000073, -7.666974701999948 ], [ 112.173002083000029, -7.666933375999974 ], [ 112.172172495000041, -7.666371279999964 ], [ 112.17243910500008, -7.665581085999975 ], [ 112.172452682000085, -7.66554879499995 ], [ 112.173488459000055, -7.66591761799998 ], [ 112.173488723000105, -7.665917192999927 ] ] ] ] } },
{ "type": "Feature", "properties": { "fid": 6745, "kk": null, "gid": 0.0, "bstt": null, "luas": 259009.33607986107, "bsbtt": null, "idsls": "35061500021002", "kdkab": "06", "kdkec": "150", "kdsls": "1002", "nmkab": "KEDIRI", "nmkec": "KUNJANG", "nmsls": "PERSAWAHAN DSN TANJANGSARI", "bstt_k": null, "kddesa": "002", "kdprov": "35", "khusus": null, "muatan": null, "nmdesa": "KAPI", "nmprov": "JAWA TIMUR", "posisi": null, "rw_dki": null, "segmen": null, "subsls": null, "sumber": null, "dom_sls": null, "periode": "2025_1", "tingkat": null, "idsubsls": "3506150002100200", "nm_gedung": null, "wil_campur": null, "iddesa": "3506150002", "kdsubsls": "00" }, "geometry": { "type": "MultiPolygon", "coordinates": [ [ [ [ 112.158299938000027, -7.662588715999959 ], [ 112.15907741500007, -7.662768627999981 ], [ 112.159687803000111, -7.66294210999996 ], [ 112.159686752000084, -7.66302421499995 ], [ 112.163387802000102, -7.663901286999931 ], [ 112.164004644000102, -7.663618567999947 ], [ 112.16737286700004, -7.66471063299997 ], [ 112.16737286700004, -7.665054908999934 ], [ 112.167427483000097, -7.665215544999967 ], [ 112.167428001000076, -7.665215759999967 ], [ 112.167380808000075, -7.665371104999963 ], [ 112.167216959000029, -7.665387167999938 ], [ 112.166943878000097, -7.665432145999944 ], [ 112.166770391000114, -7.665496400999928 ], [ 112.166725413000108, -7.665640972999938 ], [ 112.166725413000108, -7.665824097999973 ], [ 112.166821795000033, -7.666103603999943 ], [ 112.166886049000027, -7.666238537999959 ], [ 112.166969580000114, -7.666424875999951 ], [ 112.167053111000087, -7.666611213999943 ], [ 112.167046685000059, -7.66683610399997 ], [ 112.167020983000043, -7.667080269999929 ], [ 112.166943878000097, -7.667253756999969 ], [ 112.166783242000065, -7.667395116999955 ], [ 112.166680435000103, -7.667407966999974 ], [ 112.16642984300006, -7.667395116999955 ], [ 112.16612142300005, -7.667273032999958 ], [ 112.165825853000115, -7.667125247999934 ], [ 112.165478879000034, -7.666971037999929 ], [ 112.165183309000099, -7.666874655999948 ], [ 112.1649648450001, -7.666771848999929 ], [ 112.164662849000024, -7.666559809999967 ], [ 112.164515064000057, -7.66641845099997 ], [ 112.163576951000096, -7.665888351999968 ], [ 112.16349342, -7.665843373999962 ], [ 112.163342422000028, -7.665791970999976 ], [ 112.163201550000053, -7.665770297999927 ], [ 112.163091831000088, -7.665753417999952 ], [ 112.162905493000039, -7.665798395999957 ], [ 112.162622774000056, -7.66591084099997 ], [ 112.162295077000067, -7.666023285999927 ], [ 112.161785861000112, -7.66614376299998 ], [ 112.161565790000054, -7.666151794999962 ], [ 112.161558488000082, -7.666141419999974 ], [ 112.161563857000033, -7.666141554999967 ], [ 112.161589559000049, -7.665858834999938 ], [ 112.160622531000058, -7.665733538999973 ], [ 112.160375152000029, -7.665643582999962 ], [ 112.160391216000107, -7.665518286999941 ], [ 112.16019501400001, -7.665456973999937 ], [ 112.16018560200007, -7.665454032999946 ], [ 112.160237005000113, -7.665132760999938 ], [ 112.159851588000038, -7.665009106999946 ], [ 112.159851479000054, -7.665009071999975 ], [ 112.159850274000064, -7.664895823999927 ], [ 112.159794120000015, -7.664874362999967 ], [ 112.159788783000067, -7.66487232299994 ], [ 112.159787534000088, -7.664871845999926 ], [ 112.159787127000072, -7.664871756999958 ], [ 112.159568612000044, -7.664824001999932 ], [ 112.159759515000019, -7.664031200999943 ], [ 112.15952306500003, -7.663978912999937 ], [ 112.15952307900011, -7.663978843999928 ], [ 112.159147191000102, -7.663933865999979 ], [ 112.158771304000084, -7.663859972999944 ], [ 112.158417905000078, -7.663859972999944 ], [ 112.158141611000019, -7.663782867999942 ], [ 112.157865317000073, -7.663670422999928 ], [ 112.157552077000105, -7.663596530999939 ], [ 112.157449271000019, -7.663506573999939 ], [ 112.157383410000079, -7.663406979999934 ], [ 112.157235688000014, -7.663337339999941 ], [ 112.157254581000075, -7.663286059999962 ], [ 112.157267560000037, -7.663250829999981 ], [ 112.157267830000023, -7.663250099999971 ], [ 112.157329750000031, -7.663082029999941 ], [ 112.157268540000018, -7.663060089999931 ], [ 112.157003710000026, -7.662963359999935 ], [ 112.157158010000103, -7.662615629999948 ], [ 112.15715416, -7.662615919999951 ], [ 112.15714274700008, -7.662616797999931 ], [ 112.157297570000082, -7.662556588999962 ], [ 112.157413228000109, -7.662408803999938 ], [ 112.157734500000061, -7.662453781999943 ], [ 112.158299938000027, -7.662588715999959 ] ] ] ] } },
{ "type": "Feature", "properties": { "fid": 6746, "kk": null, "gid": 0.0, "bstt": null, "luas": 62432.132120189344, "bsbtt": null, "idsls": "35061500021003", "kdkab": "06", "kdkec": "150", "kdsls": "1003", "nmkab": "KEDIRI", "nmkec": "KUNJANG", "nmsls": "PERSAWAHAN DSN BULUREJO", "bstt_k": null, "kddesa": "002", "kdprov": "35", "khusus": null, "muatan": null, "nmdesa": "KAPI", "nmprov": "JAWA TIMUR", "posisi": null, "rw_dki": null, "segmen": null, "subsls": null, "sumber": null, "dom_sls": null, "periode": "2025_1", "tingkat": null, "idsubsls": "3506150002100300", "nm_gedung": null, "wil_campur": null, "iddesa": "3506150002", "kdsubsls": "00" }, "geometry": { "type": "MultiPolygon", "coordinates": [ [ [ [ 112.17501409800002, -7.665805710999962 ], [ 112.175014020000049, -7.665806079999982 ], [ 112.175033830000075, -7.665811159999976 ], [ 112.1753797, -7.665892539999959 ], [ 112.17545245000008, -7.665907089999962 ], [ 112.17561089000003, -7.665938779999976 ], [ 112.175999300000058, -7.666023859999939 ], [ 112.175703370000065, -7.666933839999956 ], [ 112.175333460000047, -7.668210029999955 ], [ 112.175324640000099, -7.668215119999957 ], [ 112.175323970000022, -7.668218369999977 ], [ 112.175322390000019, -7.668226048999941 ], [ 112.174806620000027, -7.668080987999929 ], [ 112.174014582000041, -7.667620500999931 ], [ 112.173535675000039, -7.667399466999939 ], [ 112.173222543000065, -7.667270530999929 ], [ 112.173081169000056, -7.667154816999926 ], [ 112.173002083000029, -7.666933375999974 ], [ 112.173063075000073, -7.666974701999948 ], [ 112.173413261000064, -7.666245415999981 ], [ 112.173488723000105, -7.665917192999927 ], [ 112.173767965000025, -7.665467837999927 ], [ 112.173792720000051, -7.665359536999972 ], [ 112.174446375000116, -7.665620089999948 ], [ 112.174899369000059, -7.66578072599998 ], [ 112.17501409800002, -7.665805710999962 ] ] ] ] } },
{ "type": "Feature", "properties": { "fid": 6747, "kk": null, "gid": 0.0, "bstt": null, "luas": 140849.35294425531, "bsbtt": null, "idsls": "35061500021004", "kdkab": "06", "kdkec": "150", "kdsls": "1004", "nmkab": "KEDIRI", "nmkec": "KUNJANG", "nmsls": "PERSAWAHAN DSN GUYANGAN", "bstt_k": null, "kddesa": "002", "kdprov": "35", "khusus": null, "muatan": null, "nmdesa": "KAPI", "nmprov": "JAWA TIMUR", "posisi": null, "rw_dki": null, "segmen": null, "subsls": null, "sumber": null, "dom_sls": null, "periode": "2025_1", "tingkat": null, "idsubsls": "3506150002100400", "nm_gedung": null, "wil_campur": null, "iddesa": "3506150002", "kdsubsls": "00" }, "geometry": { "type": "MultiPolygon", "coordinates": [ [ [ [ 112.173120441000037, -7.661442502999932 ], [ 112.173150530000044, -7.661454079999942 ], [ 112.17391624000004, -7.661764809999966 ], [ 112.174872460000074, -7.662147669999968 ], [ 112.175186880000069, -7.662273439999979 ], [ 112.175413910000088, -7.662364869999976 ], [ 112.175815980000039, -7.662526799999966 ], [ 112.175818798000023, -7.662527934999957 ], [ 112.175861970000028, -7.662545319999936 ], [ 112.175861944000076, -7.662545400999932 ], [ 112.17586166000001, -7.66254626999995 ], [ 112.1757776500001, -7.662811499999975 ], [ 112.175767640000117, -7.662843099999975 ], [ 112.175695510000082, -7.663124229999937 ], [ 112.175503150000054, -7.663893639999969 ], [ 112.175288610000052, -7.664742579999938 ], [ 112.175101800000107, -7.66542321999998 ], [ 112.175062960000105, -7.665574879999951 ], [ 112.175028150000117, -7.665739339999959 ], [ 112.17501409800002, -7.665805710999962 ], [ 112.174899369000059, -7.66578072599998 ], [ 112.174446375000116, -7.665620089999948 ], [ 112.173792720000051, -7.665359536999972 ], [ 112.173793667000041, -7.66535539299997 ], [ 112.17378081600009, -7.66523652199993 ], [ 112.173607329000106, -7.665091949999976 ], [ 112.172779980000087, -7.664797657999941 ], [ 112.172781033000092, -7.664796053999964 ], [ 112.172824634000108, -7.66465093599993 ], [ 112.172855001000016, -7.664567824999949 ], [ 112.172220490000086, -7.664002386999925 ], [ 112.171785065000108, -7.66366798599995 ], [ 112.171740188000058, -7.663546180999958 ], [ 112.172119289000079, -7.662665896999954 ], [ 112.171937771000103, -7.662582365999981 ], [ 112.172499709000022, -7.661202356999979 ], [ 112.172503650000067, -7.661203929999942 ], [ 112.172502660000077, -7.661206689999972 ], [ 112.172506880000014, -7.661206249999964 ], [ 112.17286243, -7.661343149999936 ], [ 112.17311734000009, -7.66144130999993 ], [ 112.173120441000037, -7.661442502999932 ] ] ] ] } },
{ "type": "Feature", "properties": { "fid": 6748, "kk": null, "gid": 0.0, "bstt": null, "luas": 219141.11594131967, "bsbtt": null, "idsls": "35061500021006", "kdkab": "06", "kdkec": "150", "kdsls": "1006", "nmkab": "KEDIRI", "nmkec": "KUNJANG", "nmsls": "PERSAWAHAN DSN KAPI", "bstt_k": null, "kddesa": "002", "kdprov": "35", "khusus": null, "muatan": null, "nmdesa": "KAPI", "nmprov": "JAWA TIMUR", "posisi": null, "rw_dki": null, "segmen": null, "subsls": null, "sumber": null, "dom_sls": null, "periode": "2025_1", "tingkat": null, "idsubsls": "3506150002100600", "nm_gedung": null, "wil_campur": null, "iddesa": "3506150002", "kdsubsls": "00" }, "geometry": { "type": "MultiPolygon", "coordinates": [ [ [ [ 112.154902809000077, -7.658937352999942 ], [ 112.155127768000057, -7.659000000999981 ], [ 112.155162862000111, -7.65888248899995 ], [ 112.15524030600011, -7.658660348999945 ], [ 112.156416246000049, -7.659073709999973 ], [ 112.156481886000051, -7.658938054999965 ], [ 112.156871345000013, -7.65900806999997 ], [ 112.156945323000059, -7.658798818999969 ], [ 112.156947924000065, -7.658791460999964 ], [ 112.156994965000081, -7.658795380999948 ], [ 112.156993872000044, -7.65880021299995 ], [ 112.157062972000062, -7.65881514199998 ], [ 112.157695811000053, -7.65895186399996 ], [ 112.157695801000045, -7.658952003999957 ], [ 112.157770192000044, -7.658954191999953 ], [ 112.157868236000013, -7.658799823999971 ], [ 112.157873027000051, -7.658792280999933 ], [ 112.158591945000012, -7.658898067999928 ], [ 112.158591777000083, -7.658899491999932 ], [ 112.158981236000045, -7.658967318999942 ], [ 112.158898093000062, -7.659363342999939 ], [ 112.159401327000069, -7.659527440999966 ], [ 112.159484470000052, -7.659067965999952 ], [ 112.160284509, -7.659207863999939 ], [ 112.160250869000038, -7.659418397999957 ], [ 112.159687831000042, -7.662942114999964 ], [ 112.159687803000111, -7.66294210999996 ], [ 112.15907741500007, -7.662768627999981 ], [ 112.158299938000027, -7.662588715999959 ], [ 112.157734500000061, -7.662453781999943 ], [ 112.157413228000109, -7.662408803999938 ], [ 112.157297570000082, -7.662556588999962 ], [ 112.15714274700008, -7.662616797999931 ], [ 112.15709813, -7.662620229999959 ], [ 112.156939230000035, -7.662606409999967 ], [ 112.156844810000052, -7.662583389999952 ], [ 112.156743480000046, -7.662532719999945 ], [ 112.156642160000047, -7.662452119999955 ], [ 112.156577680000055, -7.662389939999969 ], [ 112.156483260000073, -7.662341579999975 ], [ 112.156444110000052, -7.662318549999952 ], [ 112.15639805, -7.662260979999928 ], [ 112.156342780000045, -7.662191889999974 ], [ 112.156257570000093, -7.66213431999995 ], [ 112.156126310000104, -7.662069839999958 ], [ 112.155988130000082, -7.66201456999994 ], [ 112.155859170000099, -7.661961599999927 ], [ 112.155748630000062, -7.661910939999927 ], [ 112.155686450000076, -7.661857969999971 ], [ 112.15563119, -7.661784279999949 ], [ 112.155592040000101, -7.661729009999931 ], [ 112.15551374000006, -7.661636899999962 ], [ 112.155417020000073, -7.661535569999955 ], [ 112.155306480000036, -7.661494119999929 ], [ 112.155182120000063, -7.661475689999975 ], [ 112.155050860000074, -7.661399699999947 ], [ 112.154935710000018, -7.661307579999971 ], [ 112.154841290000036, -7.661222369999962 ], [ 112.154845900000055, -7.661194739999928 ], [ 112.154917290000071, -7.660982869999941 ], [ 112.154905770000028, -7.660971359999962 ], [ 112.154820570000084, -7.660865429999944 ], [ 112.154772210000033, -7.66078712999996 ], [ 112.154707730000041, -7.660653559999957 ], [ 112.154659360000096, -7.660577559999979 ], [ 112.15463864000003, -7.660526899999979 ], [ 112.15463864000003, -7.660487749999959 ], [ 112.154613310000059, -7.660434789999954 ], [ 112.154539610000029, -7.660395639999933 ], [ 112.15443138, -7.660351879999951 ], [ 112.15426557, -7.660280489999934 ], [ 112.154236806000085, -7.660266109999952 ], [ 112.154271774000108, -7.660276308999926 ], [ 112.154888142, -7.658948682999949 ], [ 112.154889084000047, -7.65894665299993 ], [ 112.154895370000077, -7.658950309999966 ], [ 112.154902809000077, -7.658937352999942 ] ] ] ] } },
{ "type": "Feature", "properties": { "fid": 6749, "kk": null, "gid": 0.0, "bstt": null, "luas": 219527.44677763269, "bsbtt": null, "idsls": "35061500021007", "kdkab": "06", "kdkec": "150", "kdsls": "1007", "nmkab": "KEDIRI", "nmkec": "KUNJANG", "nmsls": "PERSAWAHAN DSN MANGU", "bstt_k": null, "kddesa": "002", "kdprov": "35", "khusus": null, "muatan": null, "nmdesa": "KAPI", "nmprov": "JAWA TIMUR", "posisi": null, "rw_dki": null, "segmen": null, "subsls": null, "sumber": null, "dom_sls": null, "periode": "2025_1", "tingkat": null, "idsubsls": "3506150002100700", "nm_gedung": null, "wil_campur": null, "iddesa": "3506150002", "kdsubsls": "00" }, "geometry": { "type": "MultiPolygon", "coordinates": [ [ [ [ 112.162308517000042, -7.657585756999936 ], [ 112.162277759000062, -7.657829099999958 ], [ 112.162395909000111, -7.657860824999943 ], [ 112.162371751000023, -7.658078248999971 ], [ 112.163706490000095, -7.658325869999942 ], [ 112.164799648000098, -7.65860368899996 ], [ 112.165113704000078, -7.658676163999928 ], [ 112.16507746700006, -7.659111010999936 ], [ 112.16663567, -7.659431106999932 ], [ 112.166781262000086, -7.658914599999946 ], [ 112.166781560000118, -7.658914720999974 ], [ 112.16680546300006, -7.658837035999966 ], [ 112.169493536, -7.659362847999944 ], [ 112.169487828000115, -7.65939541399996 ], [ 112.169452312000089, -7.659598068999969 ], [ 112.169448912, -7.659596908999958 ], [ 112.169448650000049, -7.659596819999933 ], [ 112.169391510000082, -7.659962434999954 ], [ 112.169869941000115, -7.66015072099998 ], [ 112.169912391000025, -7.660245417999931 ], [ 112.169766283000058, -7.66078002699993 ], [ 112.169584569000108, -7.661400000999947 ], [ 112.169222627000067, -7.661272935999932 ], [ 112.169105478, -7.661678209999934 ], [ 112.169473560000029, -7.661791685999958 ], [ 112.169331038000109, -7.66229857899998 ], [ 112.169324848000088, -7.662380293999945 ], [ 112.169236677000072, -7.662354985999968 ], [ 112.169141110000055, -7.662709948999975 ], [ 112.168506755000067, -7.662528938999969 ], [ 112.168506956000101, -7.662528107999947 ], [ 112.167938302000039, -7.662364261999926 ], [ 112.167879406000111, -7.662345804999973 ], [ 112.167838043000074, -7.662333555999965 ], [ 112.167636445000085, -7.662184967999963 ], [ 112.166878243000042, -7.661680571999966 ], [ 112.166216424000027, -7.661330384999928 ], [ 112.166084702000035, -7.660353718999943 ], [ 112.163585209000075, -7.659903938999946 ], [ 112.160930757000074, -7.659194652999929 ], [ 112.161252709000109, -7.657275648999928 ], [ 112.161251715000049, -7.657296527999961 ], [ 112.162234838000018, -7.657565591999969 ], [ 112.162308517000042, -7.657585756999936 ] ] ] ] } },
{ "type": "Feature", "properties": { "fid": 6750, "kk": null, "gid": 0.0, "bstt": null, "luas": 9308.6435766281356, "bsbtt": null, "idsls": "35061500020020", "kdkab": "06", "kdkec": "150", "kdsls": "0020", "nmkab": "KEDIRI", "nmkec": "KUNJANG", "nmsls": "RT 005 RW 002 DUSUN MANGU", "bstt_k": null, "kddesa": "002", "kdprov": "35", "khusus": null, "muatan": null, "nmdesa": "KAPI", "nmprov": "JAWA TIMUR", "posisi": null, "rw_dki": null, "segmen": null, "subsls": null, "sumber": null, "dom_sls": null, "periode": "2025_1", "tingkat": null, "idsubsls": "3506150002002000", "nm_gedung": null, "wil_campur": null, "iddesa": "3506150002", "kdsubsls": "00" }, "geometry": { "type": "MultiPolygon", "coordinates": [ [ [ [ 112.169582415000036, -7.66533207599997 ], [ 112.169630432000076, -7.665109583999936 ], [ 112.169592066000064, -7.665101794999941 ], [ 112.169593353000096, -7.665096431999928 ], [ 112.168525229000011, -7.664893526999947 ], [ 112.16852563000009, -7.664891863999969 ], [ 112.168528843000104, -7.664851704999933 ], [ 112.168488684000067, -7.664811545999953 ], [ 112.168509276, -7.66462779699998 ], [ 112.168509566000012, -7.664625208999951 ], [ 112.168580246000033, -7.664650909999978 ], [ 112.168644132000054, -7.664368469999943 ], [ 112.168727553000053, -7.664376003999962 ], [ 112.168809653000039, -7.664382319999959 ], [ 112.168898700000113, -7.664403791999973 ], [ 112.169082478000064, -7.664437263999957 ], [ 112.169216996000046, -7.664439157999936 ], [ 112.169468408000057, -7.664353607999942 ], [ 112.169703905, -7.664342259999955 ], [ 112.169707931000062, -7.664342065999961 ], [ 112.169653231000098, -7.664565781999954 ], [ 112.169833770000082, -7.664625786999977 ], [ 112.169677763000095, -7.665328408999926 ], [ 112.169582415000036, -7.66533207599997 ] ] ] ] } },
{ "type": "Feature", "properties": { "fid": 6751, "kk": null, "gid": 0.0, "bstt": null, "luas": 1767017.0266876253, "bsbtt": null, "idsls": "35061500021001", "kdkab": "06", "kdkec": "150", "kdsls": "1001", "nmkab": "KEDIRI", "nmkec": "KUNJANG", "nmsls": "PERSAWAHAN DSN KAPI, GUYANGAN, BULUREJO", "bstt_k": null, "kddesa": "002", "kdprov": "35", "khusus": null, "muatan": null, "nmdesa": "KAPI", "nmprov": "JAWA TIMUR", "posisi": null, "rw_dki": null, "segmen": null, "subsls": null, "sumber": null, "dom_sls": null, "periode": "2025_1", "tingkat": null, "idsubsls": "3506150002100100", "nm_gedung": null, "wil_campur": null, "iddesa": "3506150002", "kdsubsls": "00" }, "geometry": { "type": "MultiPolygon", "coordinates": [ [ [ [ 112.160329348, -7.666110420999928 ], [ 112.160342871000012, -7.666360606999945 ], [ 112.160466332000055, -7.666514246999952 ], [ 112.161097355000038, -7.666560887999935 ], [ 112.163207165000017, -7.666459374999931 ], [ 112.163242831000048, -7.666420964999929 ], [ 112.163201550000053, -7.665770297999927 ], [ 112.163342422000028, -7.665791970999976 ], [ 112.16349342, -7.665843373999962 ], [ 112.163576951000096, -7.665888351999968 ], [ 112.164515064000057, -7.66641845099997 ], [ 112.164662849000024, -7.666559809999967 ], [ 112.1649648450001, -7.666771848999929 ], [ 112.165183309000099, -7.666874655999948 ], [ 112.165478879000034, -7.666971037999929 ], [ 112.165825853000115, -7.667125247999934 ], [ 112.16612142300005, -7.667273032999958 ], [ 112.16642984300006, -7.667395116999955 ], [ 112.166680435000103, -7.667407966999974 ], [ 112.166783242000065, -7.667395116999955 ], [ 112.166943878000097, -7.667253756999969 ], [ 112.167020983000043, -7.667080269999929 ], [ 112.167046685000059, -7.66683610399997 ], [ 112.167053111000087, -7.666611213999943 ], [ 112.166969580000114, -7.666424875999951 ], [ 112.166886049000027, -7.666238537999959 ], [ 112.166821795000033, -7.666103603999943 ], [ 112.166725413000108, -7.665824097999973 ], [ 112.166725413000108, -7.665640972999938 ], [ 112.166770391000114, -7.665496400999928 ], [ 112.166943878000097, -7.665432145999944 ], [ 112.167216959000029, -7.665387167999938 ], [ 112.167380808000075, -7.665371104999963 ], [ 112.167428001000076, -7.665215759999967 ], [ 112.167597757000067, -7.665286224999932 ], [ 112.168044325000096, -7.665520752999953 ], [ 112.168124922000061, -7.665569803999972 ], [ 112.16820335400007, -7.665617536999946 ], [ 112.168211386000053, -7.665621551999948 ], [ 112.168211503000066, -7.665621535999946 ], [ 112.168480652000085, -7.665765722999936 ], [ 112.168753733000017, -7.665846040999952 ], [ 112.168956134000041, -7.665836402999957 ], [ 112.169171386000016, -7.665736808999952 ], [ 112.169264555000041, -7.665595448999966 ], [ 112.169335235000062, -7.665553683999974 ], [ 112.169592252000029, -7.665553683999974 ], [ 112.169616244000053, -7.665547685999968 ], [ 112.16961784700004, -7.665568249999978 ], [ 112.169425032000049, -7.666207819999954 ], [ 112.169619195000109, -7.666254562999939 ], [ 112.169837953000069, -7.665427573999978 ], [ 112.169910913000081, -7.665469550999944 ], [ 112.170169537000106, -7.665543442999933 ], [ 112.170169570000098, -7.665543328999945 ], [ 112.170865677000052, -7.665791116999969 ], [ 112.171167672000024, -7.665839307999931 ], [ 112.171167739000111, -7.665838982999958 ], [ 112.171398185000044, -7.665899144999969 ], [ 112.172172450000062, -7.666371413999968 ], [ 112.172172495000041, -7.666371279999964 ], [ 112.173002083000029, -7.666933375999974 ], [ 112.173081169000056, -7.667154816999926 ], [ 112.173222543000065, -7.667270530999929 ], [ 112.173535675000039, -7.667399466999939 ], [ 112.174014582000041, -7.667620500999931 ], [ 112.174806620000027, -7.668080987999929 ], [ 112.175322390000019, -7.668226048999941 ], [ 112.175320593000038, -7.668234785999971 ], [ 112.175309630000015, -7.66828806999996 ], [ 112.17523613000003, -7.668505069999981 ], [ 112.175230300000067, -7.668507389999945 ], [ 112.175156320000042, -7.668614669999954 ], [ 112.174860390000049, -7.669790979999959 ], [ 112.174753120000105, -7.670190489999925 ], [ 112.174878890000059, -7.67026446999995 ], [ 112.174878320000062, -7.670266239999933 ], [ 112.174876542000106, -7.670271750999973 ], [ 112.174353620000034, -7.671892069999956 ], [ 112.175108230000092, -7.672180599999933 ], [ 112.175211810000064, -7.672232389999976 ], [ 112.175411560000043, -7.672350759999972 ], [ 112.175426360000074, -7.672387749999928 ], [ 112.174967670000115, -7.673970969999971 ], [ 112.174845600000026, -7.674366769999949 ], [ 112.174882590000038, -7.674414859999956 ], [ 112.174908480000113, -7.674499939999976 ], [ 112.174886290000018, -7.674666399999978 ], [ 112.174812310000107, -7.674877249999952 ], [ 112.174776920000113, -7.675485139999978 ], [ 112.174778670000023, -7.675489739999932 ], [ 112.174767570000085, -7.675674689999937 ], [ 112.17464920000009, -7.675700579999955 ], [ 112.174545620000117, -7.675700579999955 ], [ 112.174467940000113, -7.67564509999994 ], [ 112.174386560000016, -7.675900339999941 ], [ 112.174371770000107, -7.676040899999975 ], [ 112.174364370000035, -7.676155569999935 ], [ 112.17443465000008, -7.67626654999998 ], [ 112.174497540000061, -7.676381219999939 ], [ 112.174534530000074, -7.676440399999933 ], [ 112.174608510000098, -7.67651068999993 ], [ 112.1746233, -7.676529179999932 ], [ 112.174553020000076, -7.676706739999929 ], [ 112.174553020000076, -7.676795519999928 ], [ 112.174530830000094, -7.676902789999929 ], [ 112.174516030000063, -7.676976769999953 ], [ 112.174519730000043, -7.677017459999945 ], [ 112.174490140000103, -7.677069249999931 ], [ 112.174493840000082, -7.677128439999933 ], [ 112.174493840000082, -7.677202419999958 ], [ 112.17448274000003, -7.677258829999971 ], [ 112.174479960000099, -7.677323559999934 ], [ 112.174477190000061, -7.677349459999959 ], [ 112.174438350000059, -7.677447489999963 ], [ 112.17441615000007, -7.677483549999977 ], [ 112.174403210000037, -7.67758157999998 ], [ 112.174353270000097, -7.677731389999963 ], [ 112.174347720000014, -7.67777762999998 ], [ 112.174399510000057, -7.677834969999935 ], [ 112.174412460000099, -7.677925589999973 ], [ 112.17440876, -7.677999579999948 ], [ 112.174412460000099, -7.67808464999996 ], [ 112.174373610000089, -7.678221519999965 ], [ 112.17437510000002, -7.67823336999993 ], [ 112.174372230000017, -7.678235389999941 ], [ 112.174323220000019, -7.678448089999961 ], [ 112.17421317000003, -7.678793029999952 ], [ 112.174173400000086, -7.678850369999964 ], [ 112.174132710000094, -7.678845739999929 ], [ 112.174092950000045, -7.678867939999975 ], [ 112.174075370000082, -7.678906779999977 ], [ 112.174037460000022, -7.679089879999935 ], [ 112.174152130000039, -7.679137049999952 ], [ 112.174199290000047, -7.679157389999943 ], [ 112.174204800000098, -7.679159579999975 ], [ 112.174204840000016, -7.679159709999965 ], [ 112.174205710000024, -7.679160139999965 ], [ 112.174236210000117, -7.679175389999955 ], [ 112.174245550000023, -7.679175739999948 ], [ 112.174249690000011, -7.679175889999954 ], [ 112.174299630000064, -7.679175889999954 ], [ 112.174329230000012, -7.679170339999928 ], [ 112.174342170000045, -7.679169879999961 ], [ 112.174342260000117, -7.679170389999967 ], [ 112.174342170000045, -7.679170339999928 ], [ 112.174109410000028, -7.679378779999979 ], [ 112.174099630000114, -7.679368069999953 ], [ 112.174019630000089, -7.679348069999946 ], [ 112.173639630000025, -7.679188069999952 ], [ 112.172869630000037, -7.678768069999933 ], [ 112.172609630000011, -7.678518069999939 ], [ 112.172359630000074, -7.678128069999957 ], [ 112.17206963000001, -7.677678069999956 ], [ 112.171559630000047, -7.677098069999943 ], [ 112.171199630000046, -7.67678806999993 ], [ 112.171039630000109, -7.676558069999942 ], [ 112.170689630000084, -7.675718069999959 ], [ 112.170569630000045, -7.675278069999933 ], [ 112.17026963, -7.674298069999963 ], [ 112.170169630000032, -7.674158069999976 ], [ 112.169709630000057, -7.673598069999969 ], [ 112.16945963, -7.673448069999949 ], [ 112.169119630000068, -7.673238069999968 ], [ 112.16870963000008, -7.672788069999967 ], [ 112.168219630000067, -7.672548069999948 ], [ 112.167809630000079, -7.672508069999935 ], [ 112.167339630000015, -7.672538069999973 ], [ 112.166849630000115, -7.672698069999967 ], [ 112.166379630000051, -7.673088069999949 ], [ 112.166159630000038, -7.673428069999943 ], [ 112.166179630000101, -7.674008069999957 ], [ 112.166429630000039, -7.674778069999945 ], [ 112.166469630000051, -7.675018069999965 ], [ 112.166419630000064, -7.675328069999978 ], [ 112.166329630000064, -7.675598069999978 ], [ 112.166239630000064, -7.675698069999953 ], [ 112.165759630000025, -7.675708069999928 ], [ 112.164789630000087, -7.675688069999978 ], [ 112.164579630000048, -7.675678069999947 ], [ 112.163839630000098, -7.675698069999953 ], [ 112.16287963000002, -7.675578069999972 ], [ 112.162849630000096, -7.675528069999928 ], [ 112.16256963, -7.674798069999952 ], [ 112.162399630000095, -7.674698069999977 ], [ 112.162009630000057, -7.674418069999945 ], [ 112.161719630000107, -7.674068069999976 ], [ 112.161589630000094, -7.673828069999956 ], [ 112.161539630000107, -7.673488069999962 ], [ 112.161534026000027, -7.673343766999949 ], [ 112.161499630000094, -7.672458069999948 ], [ 112.161359630000106, -7.671828069999947 ], [ 112.161189630000081, -7.671078069999965 ], [ 112.16091963000008, -7.670878069999958 ], [ 112.160319630000117, -7.67064806999997 ], [ 112.159519630000091, -7.670418069999926 ], [ 112.158649630000014, -7.670218069999976 ], [ 112.157929630000012, -7.670028069999944 ], [ 112.15759963000005, -7.669928069999969 ], [ 112.156629630000111, -7.66968806999995 ], [ 112.155632310000101, -7.669381939999937 ], [ 112.155632321000098, -7.669381876999978 ], [ 112.155685690000041, -7.669078009999964 ], [ 112.155721610000114, -7.668879879999963 ], [ 112.155806690000077, -7.668325019999941 ], [ 112.155969450000043, -7.66775905999998 ], [ 112.155995340000118, -7.66761108999998 ], [ 112.155984240000066, -7.667518609999945 ], [ 112.155965750000064, -7.667426139999975 ], [ 112.155995340000118, -7.667281869999954 ], [ 112.156013840000014, -7.667196789999934 ], [ 112.156050830000027, -7.667119109999931 ], [ 112.15608412000006, -7.666704809999942 ], [ 112.156091520000018, -7.666316409999979 ], [ 112.156087820000039, -7.666183239999953 ], [ 112.156121110000072, -7.66590580999997 ], [ 112.156172900000115, -7.665694959999939 ], [ 112.156174750000105, -7.66569200999993 ], [ 112.156431830000088, -7.665615429999946 ], [ 112.15655356000002, -7.665537049999955 ], [ 112.15655369000001, -7.665537069999971 ], [ 112.156553780000081, -7.665536716999952 ], [ 112.156580224000095, -7.665432548999945 ], [ 112.157519950000051, -7.665675157999942 ], [ 112.15864440100006, -7.665906473999939 ], [ 112.158644529000071, -7.665905306999946 ], [ 112.159015771000099, -7.666007824999951 ], [ 112.159016005000012, -7.666007087999958 ], [ 112.159023401000013, -7.666012242999955 ], [ 112.159502899000017, -7.66608974899998 ], [ 112.15950293700007, -7.666089578999959 ], [ 112.159531609000055, -7.66609030199993 ], [ 112.160329348, -7.666110420999928 ] ] ] ] } },
{ "type": "Feature", "properties": { "fid": 6752, "kk": null, "gid": 0.0, "bstt": null, "luas": 12625.129866158142, "bsbtt": null, "idsls": "35061500020004", "kdkab": "06", "kdkec": "150", "kdsls": "0004", "nmkab": "KEDIRI", "nmkec": "KUNJANG", "nmsls": "RT 004 RW 001 DUSUN KAPI", "bstt_k": null, "kddesa": "002", "kdprov": "35", "khusus": null, "muatan": null, "nmdesa": "KAPI", "nmprov": "JAWA TIMUR", "posisi": null, "rw_dki": null, "segmen": null, "subsls": null, "sumber": null, "dom_sls": null, "periode": "2025_1", "tingkat": null, "idsubsls": "3506150002000400", "nm_gedung": null, "wil_campur": null, "iddesa": "3506150002", "kdsubsls": "00" }, "geometry": { "type": "MultiPolygon", "coordinates": [ [ [ [ 112.158637882000107, -7.657500112999969 ], [ 112.158648395000114, -7.65746291399995 ], [ 112.158663760000081, -7.657459679999931 ], [ 112.158802561000016, -7.65748240399995 ], [ 112.158793070000115, -7.65752434999996 ], [ 112.158787311000083, -7.657560141999966 ], [ 112.158762439000043, -7.657714703999943 ], [ 112.158704457000113, -7.658063685999934 ], [ 112.158683672000052, -7.65815558099996 ], [ 112.158670544000074, -7.658249663999925 ], [ 112.158666168000082, -7.658448768999961 ], [ 112.158639912000012, -7.658490340999947 ], [ 112.158591945000012, -7.658898067999928 ], [ 112.157873027000051, -7.658792280999933 ], [ 112.157868236000013, -7.658799823999971 ], [ 112.157936183000061, -7.658283929999925 ], [ 112.158006921000037, -7.658287859999973 ], [ 112.158068990000061, -7.657973463999951 ], [ 112.157908261000102, -7.657955948999927 ], [ 112.157933876000016, -7.657648569999935 ], [ 112.157871268, -7.657637585999964 ], [ 112.157856712000012, -7.65761817799995 ], [ 112.157877650000046, -7.657423574999939 ], [ 112.157951571000012, -7.657436230999963 ], [ 112.157951794000041, -7.657433548999961 ], [ 112.158299682, -7.657499188999964 ], [ 112.158631131000107, -7.657540619999963 ], [ 112.158637882000107, -7.657500112999969 ] ] ] ] } },
{ "type": "Feature", "properties": { "fid": 6753, "kk": null, "gid": 0.0, "bstt": null, "luas": 15231.910072590716, "bsbtt": null, "idsls": "35061500020005", "kdkab": "06", "kdkec": "150", "kdsls": "0005", "nmkab": "KEDIRI", "nmkec": "KUNJANG", "nmsls": "RT 005 RW 002 DUSUN KAPI", "bstt_k": null, "kddesa": "002", "kdprov": "35", "khusus": null, "muatan": null, "nmdesa": "KAPI", "nmprov": "JAWA TIMUR", "posisi": null, "rw_dki": null, "segmen": null, "subsls": null, "sumber": null, "dom_sls": null, "periode": "2025_1", "tingkat": null, "idsubsls": "3506150002000500", "nm_gedung": null, "wil_campur": null, "iddesa": "3506150002", "kdsubsls": "00" }, "geometry": { "type": "MultiPolygon", "coordinates": [ [ [ [ 112.158873815000106, -7.656844504999981 ], [ 112.158872658000064, -7.656844710999962 ], [ 112.158865000000105, -7.657031235999966 ], [ 112.158838744000036, -7.657300355999951 ], [ 112.15881248900007, -7.657438198999955 ], [ 112.158812559000012, -7.657438217999982 ], [ 112.158802561000016, -7.65748240399995 ], [ 112.158663760000081, -7.657459679999931 ], [ 112.158648395000114, -7.65746291399995 ], [ 112.158637882000107, -7.657500112999969 ], [ 112.158631131000107, -7.657540619999963 ], [ 112.158299682, -7.657499188999964 ], [ 112.157951794000041, -7.657433548999961 ], [ 112.157951571000012, -7.657436230999963 ], [ 112.157877650000046, -7.657423574999939 ], [ 112.157392767000033, -7.657340560999955 ], [ 112.157298481000112, -7.657327301999942 ], [ 112.157279059000075, -7.657324570999947 ], [ 112.157175416000086, -7.657309995999981 ], [ 112.156903757, -7.65727179299995 ], [ 112.156895658000053, -7.657331601999942 ], [ 112.156725642000083, -7.657315409999967 ], [ 112.156736292, -7.657224751999934 ], [ 112.156751954000015, -7.657091419999972 ], [ 112.156574516000092, -7.657057686999963 ], [ 112.156543974000101, -7.65721039999994 ], [ 112.1560229480001, -7.657110521999925 ], [ 112.156026050000037, -7.657106649999946 ], [ 112.156112420000113, -7.656998819999956 ], [ 112.156157980000103, -7.656941942999936 ], [ 112.156601814000055, -7.656928126999958 ], [ 112.157813952000083, -7.656877803999976 ], [ 112.158364227000106, -7.656851547999963 ], [ 112.158873478000032, -7.656844436999961 ], [ 112.158873815000106, -7.656844504999981 ] ] ] ] } },
{ "type": "Feature", "properties": { "fid": 6754, "kk": null, "gid": 0.0, "bstt": null, "luas": 30501.788902221051, "bsbtt": null, "idsls": "35061500020015", "kdkab": "06", "kdkec": "150", "kdsls": "0015", "nmkab": "KEDIRI", "nmkec": "KUNJANG", "nmsls": "RT 002 RW 001 DUSUN TULUNGREJO", "bstt_k": null, "kddesa": "002", "kdprov": "35", "khusus": null, "muatan": null, "nmdesa": "KAPI", "nmprov": "JAWA TIMUR", "posisi": null, "rw_dki": null, "segmen": null, "subsls": null, "sumber": null, "dom_sls": null, "periode": "2025_1", "tingkat": null, "idsubsls": "3506150002001500", "nm_gedung": null, "wil_campur": null, "iddesa": "3506150002", "kdsubsls": "00" }, "geometry": { "type": "MultiPolygon", "coordinates": [ [ [ [ 112.159794120000015, -7.664874362999967 ], [ 112.159850274000064, -7.664895823999927 ], [ 112.159851479000054, -7.665009071999975 ], [ 112.159851588000038, -7.665009106999946 ], [ 112.160237005000113, -7.665132760999938 ], [ 112.16018560200007, -7.665454032999946 ], [ 112.16019501400001, -7.665456973999937 ], [ 112.160391216000107, -7.665518286999941 ], [ 112.160375152000029, -7.665643582999962 ], [ 112.160622531000058, -7.665733538999973 ], [ 112.161589559000049, -7.665858834999938 ], [ 112.161563857000033, -7.666141554999967 ], [ 112.161558488000082, -7.666141419999974 ], [ 112.161565790000054, -7.666151794999962 ], [ 112.161785861000112, -7.66614376299998 ], [ 112.162295077000067, -7.666023285999927 ], [ 112.162622774000056, -7.66591084099997 ], [ 112.162905493000039, -7.665798395999957 ], [ 112.163091831000088, -7.665753417999952 ], [ 112.163201550000053, -7.665770297999927 ], [ 112.163242831000048, -7.666420964999929 ], [ 112.163207165000017, -7.666459374999931 ], [ 112.161097355000038, -7.666560887999935 ], [ 112.160466332000055, -7.666514246999952 ], [ 112.160342871000012, -7.666360606999945 ], [ 112.160329348, -7.666110420999928 ], [ 112.159531609000055, -7.66609030199993 ], [ 112.159659641000076, -7.665516003999926 ], [ 112.15968001400006, -7.66543969099996 ], [ 112.159794120000015, -7.664874362999967 ] ] ] ] } },
{ "type": "Feature", "properties": { "fid": 6755, "kk": null, "gid": 0.0, "bstt": null, "luas": 7119.7044044166751, "bsbtt": null, "idsls": "35061500020014", "kdkab": "06", "kdkec": "150", "kdsls": "0014", "nmkab": "KEDIRI", "nmkec": "KUNJANG", "nmsls": "RT 001 RW 001 DUSUN TULUNGREJO", "bstt_k": null, "kddesa": "002", "kdprov": "35", "khusus": null, "muatan": null, "nmdesa": "KAPI", "nmprov": "JAWA TIMUR", "posisi": null, "rw_dki": null, "segmen": null, "subsls": null, "sumber": null, "dom_sls": null, "periode": "2025_1", "tingkat": null, "idsubsls": "3506150002001400", "nm_gedung": null, "wil_campur": null, "iddesa": "3506150002", "kdsubsls": "00" }, "geometry": { "type": "MultiPolygon", "coordinates": [ [ [ [ 112.159794120000015, -7.664874362999967 ], [ 112.15968001400006, -7.66543969099996 ], [ 112.159659641000076, -7.665516003999926 ], [ 112.159531609000055, -7.66609030199993 ], [ 112.15950293700007, -7.666089578999959 ], [ 112.159502899000017, -7.66608974899998 ], [ 112.159023401000013, -7.666012242999955 ], [ 112.159016005000012, -7.666007087999958 ], [ 112.159377386000074, -7.664868578999972 ], [ 112.159373660000028, -7.664867380999965 ], [ 112.159388406000062, -7.664809624999975 ], [ 112.159567277000065, -7.664829547999943 ], [ 112.159568612000044, -7.664824001999932 ], [ 112.159787127000072, -7.664871756999958 ], [ 112.159787534000088, -7.664871845999926 ], [ 112.159788783000067, -7.66487232299994 ], [ 112.159794120000015, -7.664874362999967 ] ] ] ] } },
{ "type": "Feature", "properties": { "fid": 6756, "kk": null, "gid": 0.0, "bstt": null, "luas": 347189.14735656796, "bsbtt": null, "idsls": "35061500021005", "kdkab": "06", "kdkec": "150", "kdsls": "1005", "nmkab": "KEDIRI", "nmkec": "KUNJANG", "nmsls": "PERSAWAHAN DSN MANGU DAN DSN KAPI", "bstt_k": null, "kddesa": "002", "kdprov": "35", "khusus": null, "muatan": null, "nmdesa": "KAPI", "nmprov": "JAWA TIMUR", "posisi": null, "rw_dki": null, "segmen": null, "subsls": null, "sumber": null, "dom_sls": null, "periode": "2025_1", "tingkat": null, "idsubsls": "3506150002100500", "nm_gedung": null, "wil_campur": null, "iddesa": "3506150002", "kdsubsls": "00" }, "geometry": { "type": "MultiPolygon", "coordinates": [ [ [ [ 112.167577622000067, -7.663770540999963 ], [ 112.167289984000035, -7.663667328999964 ], [ 112.167258643000082, -7.66375743499998 ], [ 112.167560424000044, -7.663866150999979 ], [ 112.167462668000098, -7.664409607999971 ], [ 112.16737286700004, -7.664672595999946 ], [ 112.16737286700004, -7.66471063299997 ], [ 112.164004644000102, -7.663618567999947 ], [ 112.163387802000102, -7.663901286999931 ], [ 112.159686752000084, -7.66302421499995 ], [ 112.159687803000111, -7.66294210999996 ], [ 112.159687831000042, -7.662942114999964 ], [ 112.160250869000038, -7.659418397999957 ], [ 112.160567603000118, -7.65945561999996 ], [ 112.160622225000111, -7.659112382999979 ], [ 112.160930721000113, -7.659194868999975 ], [ 112.160930757000074, -7.659194652999929 ], [ 112.163585209000075, -7.659903938999946 ], [ 112.166084702000035, -7.660353718999943 ], [ 112.166216424000027, -7.661330384999928 ], [ 112.166878243000042, -7.661680571999966 ], [ 112.167636445000085, -7.662184967999963 ], [ 112.167838043000074, -7.662333555999965 ], [ 112.167879406000111, -7.662345804999973 ], [ 112.167938302000039, -7.662364261999926 ], [ 112.167832285000031, -7.66249597999996 ], [ 112.167806584, -7.662621275999925 ], [ 112.167758393000099, -7.662765848999925 ], [ 112.167639236000014, -7.663428087999932 ], [ 112.167431975000113, -7.663352174999943 ], [ 112.167392119000056, -7.66343924499995 ], [ 112.167621392000115, -7.663527259999967 ], [ 112.167591332000029, -7.663694323999948 ], [ 112.167577622000067, -7.663770540999963 ] ] ] ] } }
]
}
