{
"type": "FeatureCollection",
"name": "iddesa_3506150007",
"crs": { "type": "name", "properties": { "name": "urn:ogc:def:crs:OGC:1.3:CRS84" } },
"features": [
{ "type": "Feature", "properties": { "fid": 6864, "kk": null, "gid": 0.0, "bstt": null, "luas": 25225.201550929392, "bsbtt": null, "idsls": "35061500070019", "kdkab": "06", "kdkec": "150", "kdsls": "0019", "nmkab": "KEDIRI", "nmkec": "KUNJANG", "nmsls": "RT 019 RW 010 DUSUN NGEMPLAK", "bstt_k": null, "kddesa": "007", "kdprov": "35", "khusus": null, "muatan": null, "nmdesa": "DUNGUS", "nmprov": "JAWA TIMUR", "posisi": null, "rw_dki": null, "segmen": null, "subsls": null, "sumber": null, "dom_sls": null, "periode": "2025_1", "tingkat": null, "idsubsls": "3506150007001900", "nm_gedung": null, "wil_campur": null, "iddesa": "3506150007", "kdsubsls": "00" }, "geometry": { "type": "MultiPolygon", "coordinates": [ [ [ [ 112.200229062000062, -7.657516842999939 ], [ 112.200281071000063, -7.657532183999933 ], [ 112.200281573000098, -7.657531904999928 ], [ 112.200564282000073, -7.657615380999971 ], [ 112.200566680000065, -7.657616429999962 ], [ 112.200686615000109, -7.657684028999938 ], [ 112.200756454000043, -7.657725557999981 ], [ 112.200634360000095, -7.658061503999932 ], [ 112.200513366000109, -7.658292888999938 ], [ 112.200460538000016, -7.658311467999965 ], [ 112.200232182000036, -7.658846861999962 ], [ 112.200189579000039, -7.658936375999929 ], [ 112.200159677000102, -7.658980828999972 ], [ 112.200128230000018, -7.65902757899994 ], [ 112.200017460000026, -7.659324831999982 ], [ 112.199978265000027, -7.659421101999953 ], [ 112.199856353000087, -7.659733231999951 ], [ 112.199016222000068, -7.659437256999979 ], [ 112.199265933000106, -7.658708368999953 ], [ 112.199470430000019, -7.658316534999926 ], [ 112.199829068000099, -7.657398855999929 ], [ 112.200229062000062, -7.657516842999939 ] ] ] ] } },
{ "type": "Feature", "properties": { "fid": 6865, "kk": null, "gid": 0.0, "bstt": null, "luas": 32172.806824103929, "bsbtt": null, "idsls": "35061500070021", "kdkab": "06", "kdkec": "150", "kdsls": "0021", "nmkab": "KEDIRI", "nmkec": "KUNJANG", "nmsls": "RT 021 RW 011 DUSUN BAKALAN", "bstt_k": null, "kddesa": "007", "kdprov": "35", "khusus": null, "muatan": null, "nmdesa": "DUNGUS", "nmprov": "JAWA TIMUR", "posisi": null, "rw_dki": null, "segmen": null, "subsls": null, "sumber": null, "dom_sls": null, "periode": "2025_1", "tingkat": null, "idsubsls": "3506150007002100", "nm_gedung": null, "wil_campur": null, "iddesa": "3506150007", "kdsubsls": "00" }, "geometry": { "type": "MultiPolygon", "coordinates": [ [ [ [ 112.198489603000098, -7.668841649999933 ], [ 112.197463936000077, -7.668317448999971 ], [ 112.196291011000085, -7.667717985999957 ], [ 112.196345031000078, -7.667588731999956 ], [ 112.196413197000084, -7.667428285999961 ], [ 112.196525670000028, -7.667207038999948 ], [ 112.196612582000057, -7.667060103999972 ], [ 112.196745505000081, -7.66687094599996 ], [ 112.196838390000039, -7.66681897899997 ], [ 112.197350476000111, -7.667007746999957 ], [ 112.198212772000034, -7.667521174999933 ], [ 112.198962596000115, -7.66797717999998 ], [ 112.198489603000098, -7.668841649999933 ] ] ] ] } },
{ "type": "Feature", "properties": { "fid": 6866, "kk": null, "gid": 0.0, "bstt": null, "luas": 18046.921027031727, "bsbtt": null, "idsls": "35061500070022", "kdkab": "06", "kdkec": "150", "kdsls": "0022", "nmkab": "KEDIRI", "nmkec": "KUNJANG", "nmsls": "RT 022 RW 011 DUSUN BAKALAN", "bstt_k": null, "kddesa": "007", "kdprov": "35", "khusus": null, "muatan": null, "nmdesa": "DUNGUS", "nmprov": "JAWA TIMUR", "posisi": null, "rw_dki": null, "segmen": null, "subsls": null, "sumber": null, "dom_sls": null, "periode": "2025_1", "tingkat": null, "idsubsls": "3506150007002200", "nm_gedung": null, "wil_campur": null, "iddesa": "3506150007", "kdsubsls": "00" }, "geometry": { "type": "MultiPolygon", "coordinates": [ [ [ [ 112.197463936000077, -7.668317448999971 ], [ 112.197310277000042, -7.66864585299993 ], [ 112.197480068, -7.668729872999961 ], [ 112.197277437000025, -7.669162766999932 ], [ 112.197104533000015, -7.669085577999965 ], [ 112.197089742000117, -7.669117188999962 ], [ 112.197045042000013, -7.669396831999961 ], [ 112.19702668900004, -7.669389101999968 ], [ 112.19654271200011, -7.669189811999956 ], [ 112.19628027400006, -7.66908172199993 ], [ 112.196409789000086, -7.66875069799994 ], [ 112.19593403500005, -7.668519758999935 ], [ 112.196106451000105, -7.66815958199993 ], [ 112.196291011000085, -7.667717985999957 ], [ 112.197463936000077, -7.668317448999971 ] ] ] ] } },
{ "type": "Feature", "properties": { "fid": 6867, "kk": null, "gid": 0.0, "bstt": null, "luas": 23585.602282419732, "bsbtt": null, "idsls": "35061500070013", "kdkab": "06", "kdkec": "150", "kdsls": "0013", "nmkab": "KEDIRI", "nmkec": "KUNJANG", "nmsls": "RT 013 RW 007 DUSUN DUNGUS", "bstt_k": null, "kddesa": "007", "kdprov": "35", "khusus": null, "muatan": null, "nmdesa": "DUNGUS", "nmprov": "JAWA TIMUR", "posisi": null, "rw_dki": null, "segmen": null, "subsls": null, "sumber": null, "dom_sls": null, "periode": "2025_1", "tingkat": null, "idsubsls": "3506150007001300", "nm_gedung": null, "wil_campur": null, "iddesa": "3506150007", "kdsubsls": "00" }, "geometry": { "type": "MultiPolygon", "coordinates": [ [ [ [ 112.20809268000005, -7.665556289999927 ], [ 112.208105045000025, -7.665565910999931 ], [ 112.208139083000106, -7.665458221999927 ], [ 112.208199777, -7.665482407999946 ], [ 112.208308314000078, -7.66558086699996 ], [ 112.208425380000108, -7.665727392999941 ], [ 112.208532367000089, -7.665876243999946 ], [ 112.208640904000049, -7.666039825999974 ], [ 112.208740914000032, -7.666272405999962 ], [ 112.208810688000085, -7.666461570999957 ], [ 112.208821840000041, -7.666487061999931 ], [ 112.208803856000031, -7.666543382999976 ], [ 112.208834870000032, -7.666632952999976 ], [ 112.20883936000007, -7.666645919999951 ], [ 112.20904181700007, -7.667231622999964 ], [ 112.209051461000058, -7.667259521999938 ], [ 112.208902110000054, -7.66723165999997 ], [ 112.208814727000117, -7.667203399999948 ], [ 112.208653561, -7.667178761999935 ], [ 112.208654881000029, -7.667163144999961 ], [ 112.208655120000117, -7.667163186999971 ], [ 112.208752497000091, -7.666730282999936 ], [ 112.208398713000065, -7.666735983999956 ], [ 112.207714155000076, -7.666516488999946 ], [ 112.207840712, -7.666177269999935 ], [ 112.207737165000026, -7.666066096999941 ], [ 112.20732010200004, -7.665903612999955 ], [ 112.207187793000116, -7.665852301999962 ], [ 112.206785111000045, -7.665704071999926 ], [ 112.206582246000039, -7.665629051999929 ], [ 112.206510977000107, -7.66560269699994 ], [ 112.206651705000013, -7.665252934999955 ], [ 112.206684557000017, -7.665208014999962 ], [ 112.206795247000059, -7.664941539999973 ], [ 112.206892560000028, -7.66498801399996 ], [ 112.207733120000057, -7.665389439999956 ], [ 112.208068800000092, -7.665537709999967 ], [ 112.20809268000005, -7.665556289999927 ] ] ] ] } },
{ "type": "Feature", "properties": { "fid": 6868, "kk": null, "gid": 0.0, "bstt": null, "luas": 16594.542491931286, "bsbtt": null, "idsls": "35061500070014", "kdkab": "06", "kdkec": "150", "kdsls": "0014", "nmkab": "KEDIRI", "nmkec": "KUNJANG", "nmsls": "RT 014 RW 007 DUSUN DUNGUS", "bstt_k": null, "kddesa": "007", "kdprov": "35", "khusus": null, "muatan": null, "nmdesa": "DUNGUS", "nmprov": "JAWA TIMUR", "posisi": null, "rw_dki": null, "segmen": null, "subsls": null, "sumber": null, "dom_sls": null, "periode": "2025_1", "tingkat": null, "idsubsls": "3506150007001400", "nm_gedung": null, "wil_campur": null, "iddesa": "3506150007", "kdsubsls": "00" }, "geometry": { "type": "MultiPolygon", "coordinates": [ [ [ [ 112.206651705000013, -7.665252934999955 ], [ 112.206510977000107, -7.66560269699994 ], [ 112.20620697600009, -7.665490276999947 ], [ 112.205632845000082, -7.665287062999937 ], [ 112.205562685000018, -7.665262229999939 ], [ 112.205154251000067, -7.665056986999957 ], [ 112.205155267, -7.665054993999945 ], [ 112.205427499000052, -7.664521074999925 ], [ 112.205436946000077, -7.664523828999961 ], [ 112.205740071000037, -7.663843843999928 ], [ 112.205757200000107, -7.663853109999934 ], [ 112.20576152600006, -7.663855450999961 ], [ 112.205798880000089, -7.663875659999974 ], [ 112.206103090000056, -7.663970419999941 ], [ 112.206103880000114, -7.663970659999961 ], [ 112.206092790000071, -7.664017099999967 ], [ 112.205963090000068, -7.664483449999977 ], [ 112.205948270000022, -7.664535309999962 ], [ 112.205947830000014, -7.664536839999926 ], [ 112.206795247000059, -7.664941539999973 ], [ 112.206684557000017, -7.665208014999962 ], [ 112.206651705000013, -7.665252934999955 ] ] ] ] } },
{ "type": "Feature", "properties": { "fid": 6869, "kk": null, "gid": 0.0, "bstt": null, "luas": 40295.193321059625, "bsbtt": null, "idsls": "35061500070016", "kdkab": "06", "kdkec": "150", "kdsls": "0016", "nmkab": "KEDIRI", "nmkec": "KUNJANG", "nmsls": "RT 016 RW 008 DUSUN DUNGUS", "bstt_k": null, "kddesa": "007", "kdprov": "35", "khusus": null, "muatan": null, "nmdesa": "DUNGUS", "nmprov": "JAWA TIMUR", "posisi": null, "rw_dki": null, "segmen": null, "subsls": null, "sumber": null, "dom_sls": null, "periode": "2025_1", "tingkat": null, "idsubsls": "3506150007001600", "nm_gedung": null, "wil_campur": null, "iddesa": "3506150007", "kdsubsls": "00" }, "geometry": { "type": "MultiPolygon", "coordinates": [ [ [ [ 112.204498723000029, -7.664098930999955 ], [ 112.204289662000065, -7.664499096999975 ], [ 112.204247744000099, -7.664588850999962 ], [ 112.203991431000077, -7.664449660999935 ], [ 112.204080497000064, -7.664081868999972 ], [ 112.204061942000067, -7.664067156999977 ], [ 112.203490436000038, -7.66378027899998 ], [ 112.203572080000072, -7.663603737999949 ], [ 112.203037685000027, -7.663338926999927 ], [ 112.203379104000078, -7.662500357999932 ], [ 112.203668568000012, -7.661257211999953 ], [ 112.203349415000048, -7.661088026999948 ], [ 112.20355681, -7.660557590999929 ], [ 112.203586421000068, -7.660481726999933 ], [ 112.203610559000026, -7.660494356999948 ], [ 112.203719113000034, -7.660573111999952 ], [ 112.203914935000057, -7.660779575999925 ], [ 112.204064240000093, -7.66107760999995 ], [ 112.204217182000093, -7.661294672999929 ], [ 112.204395810000051, -7.661886299999935 ], [ 112.204392059000043, -7.662098844999946 ], [ 112.204391180000016, -7.662148619999925 ], [ 112.204383680000092, -7.66257367999998 ], [ 112.204480720000106, -7.663026539999976 ], [ 112.20470388800004, -7.663361296999938 ], [ 112.204707150000104, -7.663366189999977 ], [ 112.204742180000039, -7.663380391999965 ], [ 112.204635600000074, -7.663609624999935 ], [ 112.204599538000025, -7.663592576999974 ], [ 112.204599018000067, -7.663593728999956 ], [ 112.204411718000074, -7.663511455999981 ], [ 112.204360139000073, -7.663640402999931 ], [ 112.204323297000087, -7.663760139999965 ], [ 112.204487535000112, -7.663840817999926 ], [ 112.204393471000117, -7.664049299999931 ], [ 112.204476410000098, -7.664090399999964 ], [ 112.204498723000029, -7.664098930999955 ] ] ] ] } },
{ "type": "Feature", "properties": { "fid": 6870, "kk": null, "gid": 0.0, "bstt": null, "luas": 25284.582665377329, "bsbtt": null, "idsls": "35061500070011", "kdkab": "06", "kdkec": "150", "kdsls": "0011", "nmkab": "KEDIRI", "nmkec": "KUNJANG", "nmsls": "RT 011 RW 006 DUSUN PLOSOKEREP", "bstt_k": null, "kddesa": "007", "kdprov": "35", "khusus": null, "muatan": null, "nmdesa": "DUNGUS", "nmprov": "JAWA TIMUR", "posisi": null, "rw_dki": null, "segmen": null, "subsls": null, "sumber": null, "dom_sls": null, "periode": "2025_1", "tingkat": null, "idsubsls": "3506150007001100", "nm_gedung": null, "wil_campur": null, "iddesa": "3506150007", "kdsubsls": "00" }, "geometry": { "type": "MultiPolygon", "coordinates": [ [ [ [ 112.209229254000093, -7.669581608999977 ], [ 112.209233919000098, -7.669575020999957 ], [ 112.209276357000022, -7.669468925999979 ], [ 112.208711563000065, -7.669183620999945 ], [ 112.208857482000099, -7.668858238999974 ], [ 112.208558347, -7.668658698999934 ], [ 112.208449048000034, -7.668390744999954 ], [ 112.208414533000109, -7.668111388999932 ], [ 112.208650389000013, -7.667239111999947 ], [ 112.208649001000026, -7.667232690999981 ], [ 112.208653561, -7.667178761999935 ], [ 112.208814727000117, -7.667203399999948 ], [ 112.208902110000054, -7.66723165999997 ], [ 112.209051461000058, -7.667259521999938 ], [ 112.209055190000072, -7.667270309999935 ], [ 112.20907202, -7.667319009999972 ], [ 112.209098790000098, -7.667396459999964 ], [ 112.209312390000036, -7.667916679999962 ], [ 112.209386430000109, -7.668097949999947 ], [ 112.209386570000106, -7.668097 ], [ 112.209392550000075, -7.66811292999995 ], [ 112.209394010000096, -7.668116519999955 ], [ 112.209461850000025, -7.668282599999941 ], [ 112.209466414000076, -7.668293773999949 ], [ 112.209483800000044, -7.668336339999939 ], [ 112.209495800000013, -7.668365709999932 ], [ 112.209709130000078, -7.668888 ], [ 112.209823480000068, -7.669163869999977 ], [ 112.209823570000026, -7.669164089999981 ], [ 112.209842550000076, -7.669273719999978 ], [ 112.209879916000091, -7.669341655999972 ], [ 112.209628330000101, -7.669851661999928 ], [ 112.209200176000081, -7.669650520999937 ], [ 112.209229254000093, -7.669581608999977 ] ] ] ] } },
{ "type": "Feature", "properties": { "fid": 6871, "kk": null, "gid": 0.0, "bstt": null, "luas": 14007.754151107656, "bsbtt": null, "idsls": "35061500070023", "kdkab": "06", "kdkec": "150", "kdsls": "0023", "nmkab": "KEDIRI", "nmkec": "KUNJANG", "nmsls": "RT 023 RW 011 DUSUN BAKALAN", "bstt_k": null, "kddesa": "007", "kdprov": "35", "khusus": null, "muatan": null, "nmdesa": "DUNGUS", "nmprov": "JAWA TIMUR", "posisi": null, "rw_dki": null, "segmen": null, "subsls": null, "sumber": null, "dom_sls": null, "periode": "2025_1", "tingkat": null, "idsubsls": "3506150007002300", "nm_gedung": null, "wil_campur": null, "iddesa": "3506150007", "kdsubsls": "00" }, "geometry": { "type": "MultiPolygon", "coordinates": [ [ [ [ 112.197104533000015, -7.669085577999965 ], [ 112.197277437000025, -7.669162766999932 ], [ 112.197480068, -7.668729872999961 ], [ 112.197310277000042, -7.66864585299993 ], [ 112.197463936000077, -7.668317448999971 ], [ 112.198489603000098, -7.668841649999933 ], [ 112.19817528100009, -7.669416123999952 ], [ 112.198174750000021, -7.669417150999948 ], [ 112.197981009000046, -7.669791059999966 ], [ 112.197045042000013, -7.669396831999961 ], [ 112.197089742000117, -7.669117188999962 ], [ 112.197104533000015, -7.669085577999965 ] ] ] ] } },
{ "type": "Feature", "properties": { "fid": 6872, "kk": null, "gid": 0.0, "bstt": null, "luas": 14998.501615821891, "bsbtt": null, "idsls": "35061500070024", "kdkab": "06", "kdkec": "150", "kdsls": "0024", "nmkab": "KEDIRI", "nmkec": "KUNJANG", "nmsls": "RT 024 RW 012 DUSUN JOGOS", "bstt_k": null, "kddesa": "007", "kdprov": "35", "khusus": null, "muatan": null, "nmdesa": "DUNGUS", "nmprov": "JAWA TIMUR", "posisi": null, "rw_dki": null, "segmen": null, "subsls": null, "sumber": null, "dom_sls": null, "periode": "2025_1", "tingkat": null, "idsubsls": "3506150007002400", "nm_gedung": null, "wil_campur": null, "iddesa": "3506150007", "kdsubsls": "00" }, "geometry": { "type": "MultiPolygon", "coordinates": [ [ [ [ 112.191744263000032, -7.668755621999935 ], [ 112.191741051, -7.668816097999979 ], [ 112.191686130000107, -7.668803536999974 ], [ 112.191628594, -7.669277707999981 ], [ 112.191613332000088, -7.669411476999926 ], [ 112.191612400000054, -7.669411169999933 ], [ 112.19138462, -7.669336169999951 ], [ 112.191062790000046, -7.669310279999934 ], [ 112.19096705100003, -7.669350968999936 ], [ 112.19089082000005, -7.668840254999964 ], [ 112.190847532000021, -7.667942646999961 ], [ 112.190852702000029, -7.667943526999977 ], [ 112.191816506, -7.668107648999978 ], [ 112.191813176000096, -7.668167048999976 ], [ 112.192108177000023, -7.668268251999962 ], [ 112.192057907000049, -7.668389027999979 ], [ 112.191979096000068, -7.668574249999949 ], [ 112.191908639000076, -7.668736545999934 ], [ 112.191907947, -7.668738139999959 ], [ 112.191745191000109, -7.668738139999959 ], [ 112.191745032000085, -7.668741144999956 ], [ 112.191744263000032, -7.668755621999935 ] ] ] ] } },
{ "type": "Feature", "properties": { "fid": 6873, "kk": null, "gid": 0.0, "bstt": null, "luas": 23900.206000155595, "bsbtt": null, "idsls": "35061500070025", "kdkab": "06", "kdkec": "150", "kdsls": "0025", "nmkab": "KEDIRI", "nmkec": "KUNJANG", "nmsls": "RT 025 RW 012 DUSUN JOGOS", "bstt_k": null, "kddesa": "007", "kdprov": "35", "khusus": null, "muatan": null, "nmdesa": "DUNGUS", "nmprov": "JAWA TIMUR", "posisi": null, "rw_dki": null, "segmen": null, "subsls": null, "sumber": null, "dom_sls": null, "periode": "2025_1", "tingkat": null, "idsubsls": "3506150007002500", "nm_gedung": null, "wil_campur": null, "iddesa": "3506150007", "kdsubsls": "00" }, "geometry": { "type": "MultiPolygon", "coordinates": [ [ [ [ 112.190652656000111, -7.667108977999931 ], [ 112.190650814000037, -7.66721305599998 ], [ 112.190850266000098, -7.667220116999943 ], [ 112.190850948000048, -7.667273973999954 ], [ 112.190854192000074, -7.667530142999965 ], [ 112.190852702000029, -7.667943526999977 ], [ 112.190847532000021, -7.667942646999961 ], [ 112.19089082000005, -7.668840254999964 ], [ 112.19096705100003, -7.669350968999936 ], [ 112.190963120000106, -7.669352639999943 ], [ 112.190931450000107, -7.669366099999934 ], [ 112.190919620000045, -7.669368069999962 ], [ 112.190758210000013, -7.669401179999966 ], [ 112.190707050000015, -7.669411669999931 ], [ 112.190635550000025, -7.669772659999978 ], [ 112.190163240000061, -7.669731089999971 ], [ 112.190144780000082, -7.669729459999928 ], [ 112.190144080000096, -7.669721429999981 ], [ 112.190119620000019, -7.669438069999956 ], [ 112.19007962, -7.66906806999998 ], [ 112.190087530000028, -7.668957349999971 ], [ 112.190041840000049, -7.668685129999972 ], [ 112.190085840000052, -7.668157089999966 ], [ 112.190126920000012, -7.667664179999974 ], [ 112.190189800000098, -7.667068619999952 ], [ 112.190189706000069, -7.667068590999975 ], [ 112.19019086000003, -7.667062492999946 ], [ 112.190192360000083, -7.667054562999965 ], [ 112.190652656000111, -7.667108977999931 ] ] ] ] } },
{ "type": "Feature", "properties": { "fid": 6874, "kk": null, "gid": 0.0, "bstt": null, "luas": 23041.653683805489, "bsbtt": null, "idsls": "35061500070026", "kdkab": "06", "kdkec": "150", "kdsls": "0026", "nmkab": "KEDIRI", "nmkec": "KUNJANG", "nmsls": "RT 026 RW 013 DUSUN JOGOS", "bstt_k": null, "kddesa": "007", "kdprov": "35", "khusus": null, "muatan": null, "nmdesa": "DUNGUS", "nmprov": "JAWA TIMUR", "posisi": null, "rw_dki": null, "segmen": null, "subsls": null, "sumber": null, "dom_sls": null, "periode": "2025_1", "tingkat": null, "idsubsls": "3506150007002600", "nm_gedung": null, "wil_campur": null, "iddesa": "3506150007", "kdsubsls": "00" }, "geometry": { "type": "MultiPolygon", "coordinates": [ [ [ [ 112.191654438000114, -7.666851106999957 ], [ 112.192730758000039, -7.666905192999934 ], [ 112.192592509000065, -7.666964974999928 ], [ 112.192445967000026, -7.667086395999945 ], [ 112.192384684000103, -7.667208960999972 ], [ 112.192374763000089, -7.667225050999946 ], [ 112.19235905000005, -7.667329386999938 ], [ 112.192305705000081, -7.66767047299993 ], [ 112.192301695000083, -7.667698041999927 ], [ 112.192288957000073, -7.667785612999978 ], [ 112.192234527000096, -7.667930061999925 ], [ 112.192165443000022, -7.668124754999951 ], [ 112.192161736000116, -7.668129303999933 ], [ 112.192160088000037, -7.668143531999931 ], [ 112.192108177000023, -7.668268251999962 ], [ 112.191813176000096, -7.668167048999976 ], [ 112.191816506, -7.668107648999978 ], [ 112.190852702000029, -7.667943526999977 ], [ 112.190854192000074, -7.667530142999965 ], [ 112.190850948000048, -7.667273973999954 ], [ 112.190850266000098, -7.667220116999943 ], [ 112.190844203000097, -7.66674143399996 ], [ 112.191220471000065, -7.666754633999972 ], [ 112.191218658000025, -7.666767212999957 ], [ 112.191654438000114, -7.666851106999957 ] ] ] ] } },
{ "type": "Feature", "properties": { "fid": 6875, "kk": null, "gid": 0.0, "bstt": null, "luas": 176000.36845213769, "bsbtt": null, "idsls": "35061500071001", "kdkab": "06", "kdkec": "150", "kdsls": "1001", "nmkab": "KEDIRI", "nmkec": "KUNJANG", "nmsls": "SAWAH", "bstt_k": null, "kddesa": "007", "kdprov": "35", "khusus": null, "muatan": null, "nmdesa": "DUNGUS", "nmprov": "JAWA TIMUR", "posisi": null, "rw_dki": null, "segmen": null, "subsls": null, "sumber": null, "dom_sls": null, "periode": "2025_1", "tingkat": null, "idsubsls": "3506150007100100", "nm_gedung": null, "wil_campur": null, "iddesa": "3506150007", "kdsubsls": "00" }, "geometry": { "type": "MultiPolygon", "coordinates": [ [ [ [ 112.21012849400006, -7.68002129599995 ], [ 112.209987032000072, -7.680422245999978 ], [ 112.209884770000031, -7.680711801999962 ], [ 112.209797117000107, -7.680900012999928 ], [ 112.209624732000066, -7.681224314999952 ], [ 112.209645562000105, -7.681234282999981 ], [ 112.209471339000061, -7.681518937999954 ], [ 112.209220067000047, -7.682057509999936 ], [ 112.208922046000112, -7.682486050999955 ], [ 112.208343536000029, -7.683291011999927 ], [ 112.208559747000095, -7.683424206999973 ], [ 112.208361066000066, -7.683789044999969 ], [ 112.208390284000075, -7.683806417999961 ], [ 112.208609362000061, -7.683938571999931 ], [ 112.208606495000026, -7.683937440999955 ], [ 112.208536987000116, -7.684076437999977 ], [ 112.208537051, -7.684076240999957 ], [ 112.208211746000075, -7.683935982999969 ], [ 112.207888553000089, -7.683898300999942 ], [ 112.207259066, -7.683672213999955 ], [ 112.207136549000097, -7.683931795999968 ], [ 112.207035155000085, -7.684162069999957 ], [ 112.206909276000033, -7.684412488999953 ], [ 112.20689204200005, -7.684446772999934 ], [ 112.206870390000063, -7.68449125799998 ], [ 112.206840310000075, -7.684564252999962 ], [ 112.206829198000037, -7.68459121799998 ], [ 112.206809131000114, -7.684640412999954 ], [ 112.206790648000037, -7.684684373999971 ], [ 112.206770580000011, -7.684732521999933 ], [ 112.206744704000016, -7.684793230999958 ], [ 112.20672516400009, -7.684822014999952 ], [ 112.206697175000045, -7.684860742999945 ], [ 112.206689443000073, -7.684882829999935 ], [ 112.206543500000066, -7.685089446999939 ], [ 112.206484354000054, -7.68533856099998 ], [ 112.206488038000089, -7.685535743999935 ], [ 112.20637389, -7.685463609999942 ], [ 112.206229620000045, -7.685626369999966 ], [ 112.206198180000115, -7.685626369999966 ], [ 112.20615564000002, -7.685570889999951 ], [ 112.206122350000101, -7.685576429999969 ], [ 112.206029870000066, -7.685646719999966 ], [ 112.206011030000013, -7.685655759999975 ], [ 112.205983630000105, -7.685668909999947 ], [ 112.205937400000039, -7.68565781999996 ], [ 112.205846770000107, -7.685607879999964 ], [ 112.20581543000003, -7.685487 ], [ 112.205807930000105, -7.685458059999974 ], [ 112.205741340000031, -7.685348939999926 ], [ 112.20562852, -7.685173229999975 ], [ 112.205463910000049, -7.684897649999925 ], [ 112.205167980000056, -7.684505539999975 ], [ 112.205054630000063, -7.684321669999974 ], [ 112.20500152000011, -7.684235509999951 ], [ 112.205208140000082, -7.683991099999957 ], [ 112.205304850000061, -7.683876699999928 ], [ 112.205375130000107, -7.683725029999948 ], [ 112.205519400000071, -7.683436499999971 ], [ 112.205722850000029, -7.683086939999953 ], [ 112.205819020000035, -7.68290197999994 ], [ 112.205891160000078, -7.682691139999974 ], [ 112.206035420000035, -7.68241 ], [ 112.206168590000061, -7.682175109999946 ], [ 112.206274010000016, -7.681975359999967 ], [ 112.206286960000057, -7.681831099999954 ], [ 112.206246270000065, -7.681718269999976 ], [ 112.206218530000115, -7.68160174999997 ], [ 112.206164890000082, -7.681379799999945 ], [ 112.206109400000059, -7.681254039999942 ], [ 112.206009530000074, -7.680947009999954 ], [ 112.205991330000074, -7.680859849999933 ], [ 112.205974390000051, -7.680778699999962 ], [ 112.206268470000055, -7.680865629999971 ], [ 112.206367700000101, -7.680902569999944 ], [ 112.20677524000007, -7.681054279999955 ], [ 112.206960200000026, -7.681122719999962 ], [ 112.207122960000106, -7.681144909999944 ], [ 112.20742258000007, -7.681193 ], [ 112.207359700000097, -7.680948859999944 ], [ 112.207346750000056, -7.680693619999943 ], [ 112.207474370000114, -7.680445779999957 ], [ 112.20783133000009, -7.679659719999961 ], [ 112.207973652000078, -7.679309457999977 ], [ 112.21012849400006, -7.68002129599995 ] ] ] ] } },
{ "type": "Feature", "properties": { "fid": 6876, "kk": null, "gid": 0.0, "bstt": null, "luas": 491857.35011320666, "bsbtt": null, "idsls": "35061500071002", "kdkab": "06", "kdkec": "150", "kdsls": "1002", "nmkab": "KEDIRI", "nmkec": "KUNJANG", "nmsls": "SAWAH", "bstt_k": null, "kddesa": "007", "kdprov": "35", "khusus": null, "muatan": null, "nmdesa": "DUNGUS", "nmprov": "JAWA TIMUR", "posisi": null, "rw_dki": null, "segmen": null, "subsls": null, "sumber": null, "dom_sls": null, "periode": "2025_1", "tingkat": null, "idsubsls": "3506150007100200", "nm_gedung": null, "wil_campur": null, "iddesa": "3506150007", "kdsubsls": "00" }, "geometry": { "type": "MultiPolygon", "coordinates": [ [ [ [ 112.213214079000068, -7.681329004999952 ], [ 112.215674260000014, -7.682588118999945 ], [ 112.216451729000028, -7.682945514999972 ], [ 112.216521760000091, -7.682992319999926 ], [ 112.216682000000105, -7.683110589999956 ], [ 112.216727770000034, -7.683171619999939 ], [ 112.216715472000033, -7.683201370999939 ], [ 112.216660540000021, -7.683334259999981 ], [ 112.216628610000043, -7.683411479999961 ], [ 112.21630054000002, -7.683785779999937 ], [ 112.21606402000009, -7.684044719999974 ], [ 112.216051099000083, -7.684063166999977 ], [ 112.216983900000059, -7.684606327999973 ], [ 112.216031201000078, -7.68691083899995 ], [ 112.215284871000108, -7.686588449999931 ], [ 112.215201910000019, -7.686891419999938 ], [ 112.21505693000006, -7.68738258999997 ], [ 112.214881460000015, -7.687748299999953 ], [ 112.214888230000042, -7.687774049999973 ], [ 112.215041680000013, -7.688357699999926 ], [ 112.215186630000062, -7.68890461999996 ], [ 112.215197802000034, -7.688926770999956 ], [ 112.215228770000067, -7.688988169999959 ], [ 112.215175821000116, -7.688979941999946 ], [ 112.214800240000045, -7.688921579999942 ], [ 112.214688960000103, -7.688921579999942 ], [ 112.214549870000042, -7.688841209999964 ], [ 112.214435500000036, -7.688810299999943 ], [ 112.21429640000008, -7.688702119999959 ], [ 112.214021300000013, -7.688705209999966 ], [ 112.213863660000015, -7.688692839999931 ], [ 112.213733840000032, -7.688674299999946 ], [ 112.213597830000026, -7.688649569999939 ], [ 112.213384550000114, -7.688634119999961 ], [ 112.21309091, -7.688609389999954 ], [ 112.213056910000091, -7.688606299999947 ], [ 112.213027630000056, -7.688630197999942 ], [ 112.213023450000037, -7.688633609999954 ], [ 112.213022084000045, -7.688634357999945 ], [ 112.212991589000012, -7.688603928999953 ], [ 112.212742785000046, -7.688355659999957 ], [ 112.21256745800008, -7.688288671999942 ], [ 112.212566036000112, -7.688293754999961 ], [ 112.212559349000117, -7.688288880999949 ], [ 112.212457349000033, -7.688515971999948 ], [ 112.212191455000038, -7.688372406999974 ], [ 112.211361293000095, -7.68790348899995 ], [ 112.210972617000039, -7.68769415099996 ], [ 112.210537468000098, -7.687438757999928 ], [ 112.209646047000092, -7.686940530999948 ], [ 112.208879256000046, -7.686519758999964 ], [ 112.209088094000094, -7.686002353999982 ], [ 112.209158089000084, -7.685828939999965 ], [ 112.209216127000104, -7.685684098999957 ], [ 112.209447484000066, -7.685106717999929 ], [ 112.208794761000036, -7.684792707999975 ], [ 112.209003886, -7.684323785999936 ], [ 112.208523848000027, -7.684116947999939 ], [ 112.208536987000116, -7.684076437999977 ], [ 112.208606495000026, -7.683937440999955 ], [ 112.208609362000061, -7.683938571999931 ], [ 112.209172446000025, -7.684160772999974 ], [ 112.209252207000077, -7.684192247999931 ], [ 112.20967002000009, -7.68436018899996 ], [ 112.210017711000091, -7.683726066999952 ], [ 112.210467663000031, -7.682970330999979 ], [ 112.21084165000002, -7.682333310999979 ], [ 112.211546594000083, -7.682059625999955 ], [ 112.211794147000091, -7.682234861999973 ], [ 112.21197392900001, -7.681893718999959 ], [ 112.211975297000095, -7.681893187999947 ], [ 112.212349284000084, -7.681175090999943 ], [ 112.213114788000098, -7.68148201899993 ], [ 112.213184911000099, -7.681314076999968 ], [ 112.213214079000068, -7.681329004999952 ] ] ] ] } },
{ "type": "Feature", "properties": { "fid": 6877, "kk": null, "gid": 0.0, "bstt": null, "luas": 209850.93510627857, "bsbtt": null, "idsls": "35061500071005", "kdkab": "06", "kdkec": "150", "kdsls": "1005", "nmkab": "KEDIRI", "nmkec": "KUNJANG", "nmsls": "SAWAH", "bstt_k": null, "kddesa": "007", "kdprov": "35", "khusus": null, "muatan": null, "nmdesa": "DUNGUS", "nmprov": "JAWA TIMUR", "posisi": null, "rw_dki": null, "segmen": null, "subsls": null, "sumber": null, "dom_sls": null, "periode": "2025_1", "tingkat": null, "idsubsls": "3506150007100500", "nm_gedung": null, "wil_campur": null, "iddesa": "3506150007", "kdsubsls": "00" }, "geometry": { "type": "MultiPolygon", "coordinates": [ [ [ [ 112.19577073500011, -7.668443316999969 ], [ 112.195932629000026, -7.668522695999968 ], [ 112.19593403500005, -7.668519758999935 ], [ 112.196409789000086, -7.66875069799994 ], [ 112.19628027400006, -7.66908172199993 ], [ 112.19654271200011, -7.669189811999956 ], [ 112.19702668900004, -7.669389101999968 ], [ 112.197045042000013, -7.669396831999961 ], [ 112.197981009000046, -7.669791059999966 ], [ 112.198174750000021, -7.669417150999948 ], [ 112.199319031000073, -7.669905803999939 ], [ 112.199193342000058, -7.67022056299993 ], [ 112.19874710800002, -7.67127396799998 ], [ 112.198725717000116, -7.671391619999952 ], [ 112.19870220200005, -7.671520949999945 ], [ 112.198522579000041, -7.671913875999962 ], [ 112.198443333000114, -7.672098782999967 ], [ 112.19790407500011, -7.673449227999981 ], [ 112.197833133000017, -7.673626885999965 ], [ 112.197035526000036, -7.672898418999978 ], [ 112.197019430000068, -7.672938659999943 ], [ 112.197015730000089, -7.672947909999948 ], [ 112.196977530000026, -7.672929779999947 ], [ 112.196940660000109, -7.672912279999935 ], [ 112.196885650000013, -7.672900049999953 ], [ 112.196786530000054, -7.672878019999928 ], [ 112.196740910000017, -7.672867889999964 ], [ 112.196676180000054, -7.672840139999948 ], [ 112.196616990000052, -7.672784659999934 ], [ 112.196559660000048, -7.672703279999951 ], [ 112.196541680000109, -7.672598199999925 ], [ 112.196117910000112, -7.672226319999936 ], [ 112.195890120000058, -7.671921839999925 ], [ 112.195590490000086, -7.671563029999959 ], [ 112.195135500000106, -7.671085839999932 ], [ 112.19500848000007, -7.671018809999964 ], [ 112.194888220000053, -7.67095532999997 ], [ 112.194887975000029, -7.670955037999931 ], [ 112.194879260000107, -7.670944669999926 ], [ 112.194856860000073, -7.67091800999998 ], [ 112.194747100000086, -7.670852799999977 ], [ 112.194447470000114, -7.670634549999932 ], [ 112.194192230000112, -7.670445899999947 ], [ 112.194057130000033, -7.670197599999938 ], [ 112.19405676000008, -7.670198299999981 ], [ 112.193822320000095, -7.669846649999954 ], [ 112.193685460000097, -7.669469339999978 ], [ 112.193523470000059, -7.668814336999958 ], [ 112.193513934000066, -7.668780941999955 ], [ 112.193468972, -7.668623497999931 ], [ 112.193373482000084, -7.668338328999937 ], [ 112.19331266100005, -7.668158249999976 ], [ 112.193302200000062, -7.66812545199997 ], [ 112.193157745, -7.667672565999965 ], [ 112.193088364, -7.667554828999926 ], [ 112.193019576000097, -7.667438097999934 ], [ 112.19278130500004, -7.666965219999952 ], [ 112.192757780000079, -7.666920047999952 ], [ 112.192758857000058, -7.666920669999968 ], [ 112.193032176000088, -7.667078681999953 ], [ 112.193720650000046, -7.667436729999963 ], [ 112.194259160000115, -7.667713710999976 ], [ 112.194879468000067, -7.668065002999981 ], [ 112.19577073500011, -7.668443316999969 ] ] ] ] } },
{ "type": "Feature", "properties": { "fid": 6878, "kk": null, "gid": 0.0, "bstt": null, "luas": 258639.17509282992, "bsbtt": null, "idsls": "35061500071006", "kdkab": "06", "kdkec": "150", "kdsls": "1006", "nmkab": "KEDIRI", "nmkec": "KUNJANG", "nmsls": "SAWAH", "bstt_k": null, "kddesa": "007", "kdprov": "35", "khusus": null, "muatan": null, "nmdesa": "DUNGUS", "nmprov": "JAWA TIMUR", "posisi": null, "rw_dki": null, "segmen": null, "subsls": null, "sumber": null, "dom_sls": null, "periode": "2025_1", "tingkat": null, "idsubsls": "3506150007100600", "nm_gedung": null, "wil_campur": null, "iddesa": "3506150007", "kdsubsls": "00" }, "geometry": { "type": "MultiPolygon", "coordinates": [ [ [ [ 112.190867128000036, -7.661470552999958 ], [ 112.190901160000067, -7.661394919999964 ], [ 112.190960340000061, -7.661280249999948 ], [ 112.191008430000011, -7.661087899999927 ], [ 112.191030630000114, -7.661032409999962 ], [ 112.191093510000087, -7.660988019999934 ], [ 112.191145300000017, -7.660999119999929 ], [ 112.191215580000062, -7.660895549999964 ], [ 112.191248880000103, -7.660817859999952 ], [ 112.191296960000045, -7.660784569999976 ], [ 112.191400540000018, -7.660725389999925 ], [ 112.191504110000096, -7.660547829999928 ], [ 112.191592890000038, -7.660399869999935 ], [ 112.192018290000078, -7.660533029999954 ], [ 112.19202938, -7.660503439999957 ], [ 112.192877406000093, -7.660744690999934 ], [ 112.192714721000016, -7.661184129999981 ], [ 112.192564880000077, -7.66156363999994 ], [ 112.192451667000114, -7.661840845999961 ], [ 112.192351772000052, -7.662075151999943 ], [ 112.192388400000027, -7.662312756999938 ], [ 112.192358432000105, -7.662368857999979 ], [ 112.192042100000094, -7.662500860999955 ], [ 112.191902249, -7.66270876599998 ], [ 112.191812344000027, -7.66302557299997 ], [ 112.191835652, -7.663259877999963 ], [ 112.191762397000048, -7.663447980999933 ], [ 112.191539300000045, -7.663685585999929 ], [ 112.191432746000032, -7.663923190999981 ], [ 112.191432746000032, -7.664276296999958 ], [ 112.191542630000072, -7.664721804999942 ], [ 112.191634778000093, -7.66512804499996 ], [ 112.191637510000078, -7.665140086999941 ], [ 112.19163914, -7.665147273999935 ], [ 112.191639194000118, -7.665147511999976 ], [ 112.191628491000074, -7.665140086999941 ], [ 112.191472704000034, -7.665032009999948 ], [ 112.191241282000078, -7.664871956999946 ], [ 112.191041494000046, -7.664787805999936 ], [ 112.19093327500002, -7.664744904999964 ], [ 112.19080507700005, -7.664723454999944 ], [ 112.190796753000086, -7.664723454999944 ], [ 112.190723497000022, -7.664749854999968 ], [ 112.190635257000054, -7.664786155999934 ], [ 112.190588640000101, -7.664901657999962 ], [ 112.190498735, -7.665084810999929 ], [ 112.190427144000068, -7.665215162999971 ], [ 112.190365543000098, -7.665624368999943 ], [ 112.190307271000052, -7.66602037499996 ], [ 112.190282298000056, -7.66628107799994 ], [ 112.190210707, -7.666957586999956 ], [ 112.190192360000083, -7.667054562999965 ], [ 112.19019086000003, -7.667062492999946 ], [ 112.190189706000069, -7.667068590999975 ], [ 112.190188700000022, -7.667068279999967 ], [ 112.18855480000002, -7.666565539999965 ], [ 112.188140500000031, -7.666434229999936 ], [ 112.187977740000065, -7.666230779999978 ], [ 112.187741, -7.665870109999958 ], [ 112.187650370000028, -7.665722149999965 ], [ 112.187548650000053, -7.665526099999965 ], [ 112.187520900000095, -7.665167279999935 ], [ 112.187592100000074, -7.665200609999943 ], [ 112.187868620000017, -7.665330039999958 ], [ 112.187877750000098, -7.665238759999966 ], [ 112.187882280000053, -7.665241619999961 ], [ 112.188328990000059, -7.66298084999994 ], [ 112.187805650000087, -7.662738959999956 ], [ 112.18780568000011, -7.662738809999951 ], [ 112.187681810000072, -7.662707379999972 ], [ 112.187783540000055, -7.662331919999929 ], [ 112.187863070000049, -7.662072989999956 ], [ 112.188184890000116, -7.661068679999971 ], [ 112.18818766000004, -7.661074479999968 ], [ 112.18818852000004, -7.661071209999932 ], [ 112.188191330000109, -7.661072469999965 ], [ 112.188507840000057, -7.66123215999994 ], [ 112.18851944000005, -7.661219209999956 ], [ 112.18858737000005, -7.661143379999942 ], [ 112.188650260000031, -7.661208119999969 ], [ 112.188731640000015, -7.661263609999935 ], [ 112.18877362, -7.661091029999966 ], [ 112.188772420000078, -7.661089419999939 ], [ 112.188822260000052, -7.660915889999956 ], [ 112.189020170000049, -7.660174219999931 ], [ 112.189168130000098, -7.659571269999958 ], [ 112.189168471000016, -7.659569526999974 ], [ 112.18918478, -7.659486189999939 ], [ 112.189617570000109, -7.660218609999959 ], [ 112.190187230000106, -7.66110268999995 ], [ 112.19031378000011, -7.661304860999962 ], [ 112.190867128000036, -7.661470552999958 ] ] ] ] } },
{ "type": "Feature", "properties": { "fid": 6879, "kk": null, "gid": 0.0, "bstt": null, "luas": 821672.68408428808, "bsbtt": null, "idsls": "35061500071007", "kdkab": "06", "kdkec": "150", "kdsls": "1007", "nmkab": "KEDIRI", "nmkec": "KUNJANG", "nmsls": "SAWAH", "bstt_k": null, "kddesa": "007", "kdprov": "35", "khusus": null, "muatan": null, "nmdesa": "DUNGUS", "nmprov": "JAWA TIMUR", "posisi": null, "rw_dki": null, "segmen": null, "subsls": null, "sumber": null, "dom_sls": null, "periode": "2025_1", "tingkat": null, "idsubsls": "3506150007100700", "nm_gedung": null, "wil_campur": null, "iddesa": "3506150007", "kdsubsls": "00" }, "geometry": { "type": "MultiPolygon", "coordinates": [ [ [ [ 112.196059823000041, -7.655475380999974 ], [ 112.197597320000114, -7.656265419999954 ], [ 112.197959425000022, -7.656428682999945 ], [ 112.198005640000019, -7.656449519999967 ], [ 112.197972600000071, -7.656576979999954 ], [ 112.199100820000012, -7.65705375999994 ], [ 112.199819019000074, -7.65733924999995 ], [ 112.199820100000011, -7.65733967999995 ], [ 112.19980118, -7.657390629999952 ], [ 112.199806298000112, -7.657392139999956 ], [ 112.199829068000099, -7.657398855999929 ], [ 112.199470430000019, -7.658316534999926 ], [ 112.199265933000106, -7.658708368999953 ], [ 112.199016222000068, -7.659437256999979 ], [ 112.198768323000081, -7.660160856999937 ], [ 112.198772861000066, -7.660162936999939 ], [ 112.198766619000025, -7.660165922999965 ], [ 112.198575755000093, -7.660746916999926 ], [ 112.198105411000029, -7.661571115999948 ], [ 112.198125861000108, -7.662489892999929 ], [ 112.198194027000113, -7.662800654999955 ], [ 112.198337175, -7.663736318999952 ], [ 112.198378074000061, -7.664317306999976 ], [ 112.19828945900008, -7.664835804999939 ], [ 112.198221293000074, -7.665315457999952 ], [ 112.197716867000054, -7.666023112999937 ], [ 112.197451020000017, -7.666313604999971 ], [ 112.19685116200003, -7.66681183399993 ], [ 112.196838390000039, -7.66681897899997 ], [ 112.196745505000081, -7.66687094599996 ], [ 112.196612582000057, -7.667060103999972 ], [ 112.196525670000028, -7.667207038999948 ], [ 112.196413197000084, -7.667428285999961 ], [ 112.196345031000078, -7.667588731999956 ], [ 112.196291011000085, -7.667717985999957 ], [ 112.196106451000105, -7.66815958199993 ], [ 112.19593403500005, -7.668519758999935 ], [ 112.195932629000026, -7.668522695999968 ], [ 112.19577073500011, -7.668443316999969 ], [ 112.194879468000067, -7.668065002999981 ], [ 112.194259160000115, -7.667713710999976 ], [ 112.193720650000046, -7.667436729999963 ], [ 112.193032176000088, -7.667078681999953 ], [ 112.192758857000058, -7.666920669999968 ], [ 112.192757780000079, -7.666920047999952 ], [ 112.192754022000031, -7.666912832999969 ], [ 112.192750561000025, -7.666906187999928 ], [ 112.19274654100002, -7.666898466999953 ], [ 112.192734092000023, -7.666903864999938 ], [ 112.192734032000089, -7.666903776999959 ], [ 112.192684753000094, -7.666831359999946 ], [ 112.192571540000017, -7.666646557999968 ], [ 112.192265197000097, -7.666296753999973 ], [ 112.192092048000063, -7.666045949999955 ], [ 112.191992153000115, -7.66582154699995 ], [ 112.19163914, -7.665147273999935 ], [ 112.191637510000078, -7.665140086999941 ], [ 112.191634778000093, -7.66512804499996 ], [ 112.191542630000072, -7.664721804999942 ], [ 112.191432746000032, -7.664276296999958 ], [ 112.191432746000032, -7.663923190999981 ], [ 112.191539300000045, -7.663685585999929 ], [ 112.191762397000048, -7.663447980999933 ], [ 112.191835652, -7.663259877999963 ], [ 112.191812344000027, -7.66302557299997 ], [ 112.191902249, -7.66270876599998 ], [ 112.192042100000094, -7.662500860999955 ], [ 112.192358432000105, -7.662368857999979 ], [ 112.192388400000027, -7.662312756999938 ], [ 112.192351772000052, -7.662075151999943 ], [ 112.192451667000114, -7.661840845999961 ], [ 112.192564880000077, -7.66156363999994 ], [ 112.192714721000016, -7.661184129999981 ], [ 112.192877406000093, -7.660744690999934 ], [ 112.192881760000091, -7.660745929999962 ], [ 112.192887580000047, -7.660747579999963 ], [ 112.193092660000048, -7.659996829999955 ], [ 112.193099620000112, -7.65999807999998 ], [ 112.193239620000099, -7.659638069999971 ], [ 112.193419341000094, -7.659088920999977 ], [ 112.1934196200001, -7.659088069999939 ], [ 112.193500870000094, -7.658899719999965 ], [ 112.193522070000085, -7.658850579999978 ], [ 112.193639620000113, -7.658578079999927 ], [ 112.193769620000012, -7.658198069999969 ], [ 112.193919620000088, -7.657488079999951 ], [ 112.193978609000055, -7.65730689999998 ], [ 112.194059620000075, -7.657058079999956 ], [ 112.194209620000038, -7.656478079999943 ], [ 112.194342603000109, -7.656156126999974 ], [ 112.194343990000107, -7.656152769999949 ], [ 112.194399620000013, -7.656018079999967 ], [ 112.194489620000013, -7.655718079999929 ], [ 112.194495510000024, -7.655693029999952 ], [ 112.194569620000038, -7.655378079999934 ], [ 112.194576135000034, -7.655202178999957 ], [ 112.194580828000085, -7.655075469999929 ], [ 112.194589620000102, -7.654838079999934 ], [ 112.19459366000001, -7.654636029999949 ], [ 112.195008080000093, -7.654787879999958 ], [ 112.194984480000016, -7.654887019999933 ], [ 112.19514498, -7.654953109999951 ], [ 112.195126100000039, -7.654995589999942 ], [ 112.196059823000041, -7.655475380999974 ] ] ] ] } },
{ "type": "Feature", "properties": { "fid": 6880, "kk": null, "gid": 0.0, "bstt": null, "luas": 42971.094827988571, "bsbtt": null, "idsls": "35061500070027", "kdkab": "06", "kdkec": "150", "kdsls": "0027", "nmkab": "KEDIRI", "nmkec": "KUNJANG", "nmsls": "RT 027 RW 013 DUSUN JOGOS", "bstt_k": null, "kddesa": "007", "kdprov": "35", "khusus": null, "muatan": null, "nmdesa": "DUNGUS", "nmprov": "JAWA TIMUR", "posisi": null, "rw_dki": null, "segmen": null, "subsls": null, "sumber": null, "dom_sls": null, "periode": "2025_1", "tingkat": null, "idsubsls": "3506150007002700", "nm_gedung": null, "wil_campur": null, "iddesa": "3506150007", "kdsubsls": "00" }, "geometry": { "type": "MultiPolygon", "coordinates": [ [ [ [ 112.191654438000114, -7.666851106999957 ], [ 112.191218658000025, -7.666767212999957 ], [ 112.191220471000065, -7.666754633999972 ], [ 112.190844203000097, -7.66674143399996 ], [ 112.190850266000098, -7.667220116999943 ], [ 112.190650814000037, -7.66721305599998 ], [ 112.190652656000111, -7.667108977999931 ], [ 112.190192360000083, -7.667054562999965 ], [ 112.190210707, -7.666957586999956 ], [ 112.190282298000056, -7.66628107799994 ], [ 112.190307271000052, -7.66602037499996 ], [ 112.190365543000098, -7.665624368999943 ], [ 112.190427144000068, -7.665215162999971 ], [ 112.190498735, -7.665084810999929 ], [ 112.190588640000101, -7.664901657999962 ], [ 112.190635257000054, -7.664786155999934 ], [ 112.190723497000022, -7.664749854999968 ], [ 112.190796753000086, -7.664723454999944 ], [ 112.19080507700005, -7.664723454999944 ], [ 112.19093327500002, -7.664744904999964 ], [ 112.191041494000046, -7.664787805999936 ], [ 112.191241282000078, -7.664871956999946 ], [ 112.191472704000034, -7.665032009999948 ], [ 112.191628491000074, -7.665140086999941 ], [ 112.191639194000118, -7.665147511999976 ], [ 112.19163914, -7.665147273999935 ], [ 112.191992153000115, -7.66582154699995 ], [ 112.192092048000063, -7.666045949999955 ], [ 112.192265197000097, -7.666296753999973 ], [ 112.192571540000017, -7.666646557999968 ], [ 112.192684753000094, -7.666831359999946 ], [ 112.192734032000089, -7.666903776999959 ], [ 112.192734092000023, -7.666903864999938 ], [ 112.192731001000084, -7.666905204999978 ], [ 112.192730758000039, -7.666905192999934 ], [ 112.191654438000114, -7.666851106999957 ] ] ] ] } },
{ "type": "Feature", "properties": { "fid": 6881, "kk": null, "gid": 0.0, "bstt": null, "luas": 14634.884783296444, "bsbtt": null, "idsls": "35061500070003", "kdkab": "06", "kdkec": "150", "kdsls": "0003", "nmkab": "KEDIRI", "nmkec": "KUNJANG", "nmsls": "RT 003 RW 002 DUSUN KASEMBON", "bstt_k": null, "kddesa": "007", "kdprov": "35", "khusus": null, "muatan": null, "nmdesa": "DUNGUS", "nmprov": "JAWA TIMUR", "posisi": null, "rw_dki": null, "segmen": null, "subsls": null, "sumber": null, "dom_sls": null, "periode": "2025_1", "tingkat": null, "idsubsls": "3506150007000300", "nm_gedung": null, "wil_campur": null, "iddesa": "3506150007", "kdsubsls": "00" }, "geometry": { "type": "MultiPolygon", "coordinates": [ [ [ [ 112.207039102000067, -7.684479675999967 ], [ 112.206909276000033, -7.684412488999953 ], [ 112.207035155000085, -7.684162069999957 ], [ 112.207136549000097, -7.683931795999968 ], [ 112.207259066, -7.683672213999955 ], [ 112.207888553000089, -7.683898300999942 ], [ 112.208211746000075, -7.683935982999969 ], [ 112.208537051, -7.684076240999957 ], [ 112.208536987000116, -7.684076437999977 ], [ 112.208523848000027, -7.684116947999939 ], [ 112.208518040000058, -7.684114444999977 ], [ 112.208370174000038, -7.68443264299998 ], [ 112.208306803000028, -7.68454987299998 ], [ 112.208116689, -7.684960179999962 ], [ 112.207854755000085, -7.684840855999937 ], [ 112.207848645000013, -7.684854645999962 ], [ 112.207039102000067, -7.684479675999967 ] ] ] ] } },
{ "type": "Feature", "properties": { "fid": 6882, "kk": null, "gid": 0.0, "bstt": null, "luas": 16127.961085233837, "bsbtt": null, "idsls": "35061500070004", "kdkab": "06", "kdkec": "150", "kdsls": "0004", "nmkab": "KEDIRI", "nmkec": "KUNJANG", "nmsls": "RT 004 RW 002 DUSUN KASEMBON", "bstt_k": null, "kddesa": "007", "kdprov": "35", "khusus": null, "muatan": null, "nmdesa": "DUNGUS", "nmprov": "JAWA TIMUR", "posisi": null, "rw_dki": null, "segmen": null, "subsls": null, "sumber": null, "dom_sls": null, "periode": "2025_1", "tingkat": null, "idsubsls": "3506150007000400", "nm_gedung": null, "wil_campur": null, "iddesa": "3506150007", "kdsubsls": "00" }, "geometry": { "type": "MultiPolygon", "coordinates": [ [ [ [ 112.207039102000067, -7.684479675999967 ], [ 112.207848645000013, -7.684854645999962 ], [ 112.207748080000101, -7.685081596999964 ], [ 112.207738266000092, -7.685111567999968 ], [ 112.207696327, -7.685239647999936 ], [ 112.207582722000097, -7.685373585999969 ], [ 112.207683512000017, -7.685417948999941 ], [ 112.207597584000041, -7.685631176999948 ], [ 112.207476332000056, -7.685679236999931 ], [ 112.207327523000117, -7.686015249999969 ], [ 112.207326660000035, -7.686014829999976 ], [ 112.206976840000038, -7.685844619999955 ], [ 112.206490120000012, -7.685537059999945 ], [ 112.206488038000089, -7.685535743999935 ], [ 112.206484354000054, -7.68533856099998 ], [ 112.206543500000066, -7.685089446999939 ], [ 112.206689443000073, -7.684882829999935 ], [ 112.206697175000045, -7.684860742999945 ], [ 112.20672516400009, -7.684822014999952 ], [ 112.206744704000016, -7.684793230999958 ], [ 112.206770580000011, -7.684732521999933 ], [ 112.206790648000037, -7.684684373999971 ], [ 112.206809131000114, -7.684640412999954 ], [ 112.206829198000037, -7.68459121799998 ], [ 112.206840310000075, -7.684564252999962 ], [ 112.206870390000063, -7.68449125799998 ], [ 112.20689204200005, -7.684446772999934 ], [ 112.206909276000033, -7.684412488999953 ], [ 112.207039102000067, -7.684479675999967 ] ] ] ] } },
{ "type": "Feature", "properties": { "fid": 6883, "kk": null, "gid": 0.0, "bstt": null, "luas": 34109.205629350152, "bsbtt": null, "idsls": "35061500070005", "kdkab": "06", "kdkec": "150", "kdsls": "0005", "nmkab": "KEDIRI", "nmkec": "KUNJANG", "nmsls": "RT 005 RW 003 DUSUN GELARAN", "bstt_k": null, "kddesa": "007", "kdprov": "35", "khusus": null, "muatan": null, "nmdesa": "DUNGUS", "nmprov": "JAWA TIMUR", "posisi": null, "rw_dki": null, "segmen": null, "subsls": null, "sumber": null, "dom_sls": null, "periode": "2025_1", "tingkat": null, "idsubsls": "3506150007000500", "nm_gedung": null, "wil_campur": null, "iddesa": "3506150007", "kdsubsls": "00" }, "geometry": { "type": "MultiPolygon", "coordinates": [ [ [ [ 112.21037525600002, -7.68158348399993 ], [ 112.210330340000041, -7.681733208999958 ], [ 112.210119973000019, -7.682248615999981 ], [ 112.209868700000015, -7.682856680999976 ], [ 112.209442122000041, -7.683806417999961 ], [ 112.209360312000058, -7.683777462999956 ], [ 112.209172446000025, -7.684160772999974 ], [ 112.208609362000061, -7.683938571999931 ], [ 112.208390284000075, -7.683806417999961 ], [ 112.208361066000066, -7.683789044999969 ], [ 112.208559747000095, -7.683424206999973 ], [ 112.208343536000029, -7.683291011999927 ], [ 112.208922046000112, -7.682486050999955 ], [ 112.209220067000047, -7.682057509999936 ], [ 112.209471339000061, -7.681518937999954 ], [ 112.209645562000105, -7.681234282999981 ], [ 112.21037525600002, -7.68158348399993 ] ] ] ] } },
{ "type": "Feature", "properties": { "fid": 6884, "kk": null, "gid": 0.0, "bstt": null, "luas": 22909.622402096968, "bsbtt": null, "idsls": "35061500070006", "kdkab": "06", "kdkec": "150", "kdsls": "0006", "nmkab": "KEDIRI", "nmkec": "KUNJANG", "nmsls": "RT 006 RW 003 DUSUN GELARAN", "bstt_k": null, "kddesa": "007", "kdprov": "35", "khusus": null, "muatan": null, "nmdesa": "DUNGUS", "nmprov": "JAWA TIMUR", "posisi": null, "rw_dki": null, "segmen": null, "subsls": null, "sumber": null, "dom_sls": null, "periode": "2025_1", "tingkat": null, "idsubsls": "3506150007000600", "nm_gedung": null, "wil_campur": null, "iddesa": "3506150007", "kdsubsls": "00" }, "geometry": { "type": "MultiPolygon", "coordinates": [ [ [ [ 112.210389558000088, -7.68159032799997 ], [ 112.210388776000059, -7.681592049999949 ], [ 112.211212715000102, -7.681835276999948 ], [ 112.211551053000107, -7.682057894999957 ], [ 112.211546594000083, -7.682059625999955 ], [ 112.21084165000002, -7.682333310999979 ], [ 112.210467663000031, -7.682970330999979 ], [ 112.210017711000091, -7.683726066999952 ], [ 112.20967002000009, -7.68436018899996 ], [ 112.209252207000077, -7.684192247999931 ], [ 112.209172446000025, -7.684160772999974 ], [ 112.209360312000058, -7.683777462999956 ], [ 112.209442122000041, -7.683806417999961 ], [ 112.209868700000015, -7.682856680999976 ], [ 112.210119973000019, -7.682248615999981 ], [ 112.210330340000041, -7.681733208999958 ], [ 112.21037525600002, -7.68158348399993 ], [ 112.210389558000088, -7.68159032799997 ] ] ] ] } },
{ "type": "Feature", "properties": { "fid": 6885, "kk": null, "gid": 0.0, "bstt": null, "luas": 18219.675868633647, "bsbtt": null, "idsls": "35061500070007", "kdkab": "06", "kdkec": "150", "kdsls": "0007", "nmkab": "KEDIRI", "nmkec": "KUNJANG", "nmsls": "RT 007 RW 004 DUSUN GELARAN", "bstt_k": null, "kddesa": "007", "kdprov": "35", "khusus": null, "muatan": null, "nmdesa": "DUNGUS", "nmprov": "JAWA TIMUR", "posisi": null, "rw_dki": null, "segmen": null, "subsls": null, "sumber": null, "dom_sls": null, "periode": "2025_1", "tingkat": null, "idsubsls": "3506150007000700", "nm_gedung": null, "wil_campur": null, "iddesa": "3506150007", "kdsubsls": "00" }, "geometry": { "type": "MultiPolygon", "coordinates": [ [ [ [ 112.210206436000021, -7.67973742099997 ], [ 112.210388111000043, -7.679783941999972 ], [ 112.210388776000059, -7.679780878999964 ], [ 112.210486655000068, -7.679789565999954 ], [ 112.210505646000115, -7.679665055999976 ], [ 112.210511490000044, -7.679644786999972 ], [ 112.211025347000032, -7.679786403999969 ], [ 112.210943912000062, -7.680294840999977 ], [ 112.210850415000095, -7.68052359099994 ], [ 112.210561160000111, -7.681212732999938 ], [ 112.210389558000088, -7.68159032799997 ], [ 112.21037525600002, -7.68158348399993 ], [ 112.209645562000105, -7.681234282999981 ], [ 112.209624732000066, -7.681224314999952 ], [ 112.209797117000107, -7.680900012999928 ], [ 112.209884770000031, -7.680711801999962 ], [ 112.209987032000072, -7.680422245999978 ], [ 112.21012849400006, -7.68002129599995 ], [ 112.210133121000013, -7.680008180999948 ], [ 112.210136298000066, -7.680009206999955 ], [ 112.210206436000021, -7.67973742099997 ] ] ] ] } },
{ "type": "Feature", "properties": { "fid": 6886, "kk": null, "gid": 0.0, "bstt": null, "luas": 34745.048994438272, "bsbtt": null, "idsls": "35061500070008", "kdkab": "06", "kdkec": "150", "kdsls": "0008", "nmkab": "KEDIRI", "nmkec": "KUNJANG", "nmsls": "RT 008 RW 004 DUSUN GELARAN", "bstt_k": null, "kddesa": "007", "kdprov": "35", "khusus": null, "muatan": null, "nmdesa": "DUNGUS", "nmprov": "JAWA TIMUR", "posisi": null, "rw_dki": null, "segmen": null, "subsls": null, "sumber": null, "dom_sls": null, "periode": "2025_1", "tingkat": null, "idsubsls": "3506150007000800", "nm_gedung": null, "wil_campur": null, "iddesa": "3506150007", "kdsubsls": "00" }, "geometry": { "type": "MultiPolygon", "coordinates": [ [ [ [ 112.21163040600004, -7.680182926999976 ], [ 112.21150917500006, -7.680532045999939 ], [ 112.211548719, -7.680548202999944 ], [ 112.211648059000026, -7.680585844999939 ], [ 112.211873035000053, -7.680677054999933 ], [ 112.212346362000062, -7.680885534999959 ], [ 112.212781706000101, -7.681075193999959 ], [ 112.213149849000047, -7.681237344999943 ], [ 112.213214079000068, -7.681329004999952 ], [ 112.213184911000099, -7.681314076999968 ], [ 112.213114788000098, -7.68148201899993 ], [ 112.212349284000084, -7.681175090999943 ], [ 112.211975297000095, -7.681893187999947 ], [ 112.21197392900001, -7.681893718999959 ], [ 112.211794147000091, -7.682234861999973 ], [ 112.211546594000083, -7.682059625999955 ], [ 112.211551053000107, -7.682057894999957 ], [ 112.211212715000102, -7.681835276999948 ], [ 112.210388776000059, -7.681592049999949 ], [ 112.210389558000088, -7.68159032799997 ], [ 112.210561160000111, -7.681212732999938 ], [ 112.210850415000095, -7.68052359099994 ], [ 112.210943912000062, -7.680294840999977 ], [ 112.211025347000032, -7.679786403999969 ], [ 112.211075392000112, -7.679473948999942 ], [ 112.211095114000045, -7.679352334999976 ], [ 112.211111758000015, -7.679357366999966 ], [ 112.211181306000071, -7.679378394999958 ], [ 112.211450109000111, -7.679443545999959 ], [ 112.211357343000032, -7.679806938999945 ], [ 112.211324473000104, -7.679935791999981 ], [ 112.211382178, -7.67995895599995 ], [ 112.211380717000111, -7.679960403999928 ], [ 112.211337243000116, -7.680082352999932 ], [ 112.21163040600004, -7.680182926999976 ] ] ] ] } },
{ "type": "Feature", "properties": { "fid": 6887, "kk": null, "gid": 0.0, "bstt": null, "luas": 48554.534136532049, "bsbtt": null, "idsls": "35061500070009", "kdkab": "06", "kdkec": "150", "kdsls": "0009", "nmkab": "KEDIRI", "nmkec": "KUNJANG", "nmsls": "RT 009 RW 005 DUSUN PLOSOKEREP", "bstt_k": null, "kddesa": "007", "kdprov": "35", "khusus": null, "muatan": null, "nmdesa": "DUNGUS", "nmprov": "JAWA TIMUR", "posisi": null, "rw_dki": null, "segmen": null, "subsls": null, "sumber": null, "dom_sls": null, "periode": "2025_1", "tingkat": null, "idsubsls": "3506150007000900", "nm_gedung": null, "wil_campur": null, "iddesa": "3506150007", "kdsubsls": "00" }, "geometry": { "type": "MultiPolygon", "coordinates": [ [ [ [ 112.208814543000017, -7.669726056999934 ], [ 112.208746920000067, -7.669876132999946 ], [ 112.20881315500003, -7.669903209999973 ], [ 112.209633604000032, -7.670279118999929 ], [ 112.209621139000092, -7.670294923999961 ], [ 112.209681807000038, -7.67032003099996 ], [ 112.210866405000047, -7.670810271999926 ], [ 112.211035925000033, -7.670437503999949 ], [ 112.211294356000053, -7.670639331999951 ], [ 112.211435420000043, -7.670749499999943 ], [ 112.211954900000023, -7.671147929999961 ], [ 112.211967710000067, -7.671157759999971 ], [ 112.212119990000019, -7.671254549999958 ], [ 112.212153348000015, -7.671281577999935 ], [ 112.211834871000065, -7.672151941999971 ], [ 112.211364174000096, -7.671965348999947 ], [ 112.21048402800011, -7.671634684999958 ], [ 112.209494582000048, -7.67126411299995 ], [ 112.209080395000115, -7.67108167799995 ], [ 112.208188743000051, -7.670585680999977 ], [ 112.208257775000106, -7.670312026999966 ], [ 112.208510889000081, -7.669764718999943 ], [ 112.208514016000095, -7.669766151999966 ], [ 112.208574869000017, -7.669614262999971 ], [ 112.208814543000017, -7.669726056999934 ] ] ] ] } },
{ "type": "Feature", "properties": { "fid": 6888, "kk": null, "gid": 0.0, "bstt": null, "luas": 14738.610365930595, "bsbtt": null, "idsls": "35061500070002", "kdkab": "06", "kdkec": "150", "kdsls": "0002", "nmkab": "KEDIRI", "nmkec": "KUNJANG", "nmsls": "RT 002 RW 001 DUSUN KASEMBON", "bstt_k": null, "kddesa": "007", "kdprov": "35", "khusus": null, "muatan": null, "nmdesa": "DUNGUS", "nmprov": "JAWA TIMUR", "posisi": null, "rw_dki": null, "segmen": null, "subsls": null, "sumber": null, "dom_sls": null, "periode": "2025_1", "tingkat": null, "idsubsls": "3506150007000200", "nm_gedung": null, "wil_campur": null, "iddesa": "3506150007", "kdsubsls": "00" }, "geometry": { "type": "MultiPolygon", "coordinates": [ [ [ [ 112.208523848000027, -7.684116947999939 ], [ 112.209003886, -7.684323785999936 ], [ 112.208794761000036, -7.684792707999975 ], [ 112.209447484000066, -7.685106717999929 ], [ 112.209216127000104, -7.685684098999957 ], [ 112.208439840000096, -7.685350325999934 ], [ 112.208424802000081, -7.685395438999933 ], [ 112.207738266000092, -7.685111567999968 ], [ 112.207748080000101, -7.685081596999964 ], [ 112.207848645000013, -7.684854645999962 ], [ 112.207854755000085, -7.684840855999937 ], [ 112.208116689, -7.684960179999962 ], [ 112.208306803000028, -7.68454987299998 ], [ 112.208370174000038, -7.68443264299998 ], [ 112.208518040000058, -7.684114444999977 ], [ 112.208523848000027, -7.684116947999939 ] ] ] ] } },
{ "type": "Feature", "properties": { "fid": 6889, "kk": null, "gid": 0.0, "bstt": null, "luas": 46534.385291099701, "bsbtt": null, "idsls": "35061500070001", "kdkab": "06", "kdkec": "150", "kdsls": "0001", "nmkab": "KEDIRI", "nmkec": "KUNJANG", "nmsls": "RT 001 RW 001 DUSUN KASEMBON", "bstt_k": null, "kddesa": "007", "kdprov": "35", "khusus": null, "muatan": null, "nmdesa": "DUNGUS", "nmprov": "JAWA TIMUR", "posisi": null, "rw_dki": null, "segmen": null, "subsls": null, "sumber": null, "dom_sls": null, "periode": "2025_1", "tingkat": null, "idsubsls": "3506150007000100", "nm_gedung": null, "wil_campur": null, "iddesa": "3506150007", "kdsubsls": "00" }, "geometry": { "type": "MultiPolygon", "coordinates": [ [ [ [ 112.207476332000056, -7.685679236999931 ], [ 112.207597584000041, -7.685631176999948 ], [ 112.207683512000017, -7.685417948999941 ], [ 112.207582722000097, -7.685373585999969 ], [ 112.207696327, -7.685239647999936 ], [ 112.207738266000092, -7.685111567999968 ], [ 112.208424802000081, -7.685395438999933 ], [ 112.208439840000096, -7.685350325999934 ], [ 112.209216127000104, -7.685684098999957 ], [ 112.209158089000084, -7.685828939999965 ], [ 112.209088094000094, -7.686002353999982 ], [ 112.208879256000046, -7.686519758999964 ], [ 112.209646047000092, -7.686940530999948 ], [ 112.210537468000098, -7.687438757999928 ], [ 112.210972617000039, -7.68769415099996 ], [ 112.211361293000095, -7.68790348899995 ], [ 112.212191455000038, -7.688372406999974 ], [ 112.212457349000033, -7.688515971999948 ], [ 112.212559349000117, -7.688288880999949 ], [ 112.212566036000112, -7.688293754999961 ], [ 112.21256745800008, -7.688288671999942 ], [ 112.212742785000046, -7.688355659999957 ], [ 112.212991589000012, -7.688603928999953 ], [ 112.213022084000045, -7.688634357999945 ], [ 112.212887090000095, -7.688708239999926 ], [ 112.212711380000087, -7.68886729999997 ], [ 112.212608967000051, -7.689009849999934 ], [ 112.212581903000114, -7.688994547999926 ], [ 112.21235247300001, -7.688749463999955 ], [ 112.212331281000047, -7.688796644999968 ], [ 112.212309610000034, -7.688778069999955 ], [ 112.21213961, -7.688688069999955 ], [ 112.211489610000058, -7.68831806999998 ], [ 112.21114961, -7.688118069999973 ], [ 112.209949610000081, -7.687408069999947 ], [ 112.209742967000011, -7.687293788999966 ], [ 112.209090573000026, -7.687687159999939 ], [ 112.208912514000076, -7.68779452299998 ], [ 112.208660881000014, -7.687937076999958 ], [ 112.208566089000101, -7.687363550999976 ], [ 112.208585175000053, -7.68722242299998 ], [ 112.20858621800005, -7.687214708999932 ], [ 112.208592798000041, -7.687173027999961 ], [ 112.208667564000052, -7.68669942799994 ], [ 112.208665925000105, -7.686699186999931 ], [ 112.208666073000018, -7.686698229999934 ], [ 112.208663558000012, -7.686696838999978 ], [ 112.208629620000011, -7.686678069999971 ], [ 112.208359610000116, -7.686518069999977 ], [ 112.208355950000055, -7.686518019999937 ], [ 112.208352910000031, -7.686514159999945 ], [ 112.207327523000117, -7.686015249999969 ], [ 112.207476332000056, -7.685679236999931 ] ] ] ] } },
{ "type": "Feature", "properties": { "fid": 6890, "kk": null, "gid": 0.0, "bstt": null, "luas": 697139.72422183456, "bsbtt": null, "idsls": "35061500071004", "kdkab": "06", "kdkec": "150", "kdsls": "1004", "nmkab": "KEDIRI", "nmkec": "KUNJANG", "nmsls": "SAWAH", "bstt_k": null, "kddesa": "007", "kdprov": "35", "khusus": null, "muatan": null, "nmdesa": "DUNGUS", "nmprov": "JAWA TIMUR", "posisi": null, "rw_dki": null, "segmen": null, "subsls": null, "sumber": null, "dom_sls": null, "periode": "2025_1", "tingkat": null, "idsubsls": "3506150007100400", "nm_gedung": null, "wil_campur": null, "iddesa": "3506150007", "kdsubsls": "00" }, "geometry": { "type": "MultiPolygon", "coordinates": [ [ [ [ 112.203668568000012, -7.661257211999953 ], [ 112.203379104000078, -7.662500357999932 ], [ 112.203037685000027, -7.663338926999927 ], [ 112.203572080000072, -7.663603737999949 ], [ 112.203490436000038, -7.66378027899998 ], [ 112.204061942000067, -7.664067156999977 ], [ 112.204080497000064, -7.664081868999972 ], [ 112.203991431000077, -7.664449660999935 ], [ 112.204247744000099, -7.664588850999962 ], [ 112.204246780000062, -7.664590914999962 ], [ 112.205155267, -7.665054993999945 ], [ 112.205154251000067, -7.665056986999957 ], [ 112.205562685000018, -7.665262229999939 ], [ 112.205632845000082, -7.665287062999937 ], [ 112.205268923000062, -7.666066575999935 ], [ 112.204749473000106, -7.66695098699995 ], [ 112.203963639000108, -7.668429401999958 ], [ 112.203164485000116, -7.669855010999981 ], [ 112.202266234000035, -7.67142901099993 ], [ 112.202258640000082, -7.671424599999966 ], [ 112.202251230000115, -7.671420339999941 ], [ 112.200814140000034, -7.670594149999943 ], [ 112.200453480000078, -7.670396249999953 ], [ 112.19984498000008, -7.670116969999981 ], [ 112.199458960000015, -7.669957309999972 ], [ 112.199327832000108, -7.669903077999948 ], [ 112.199321213000076, -7.66990033999997 ], [ 112.199319031000073, -7.669905803999939 ], [ 112.198174750000021, -7.669417150999948 ], [ 112.19817528100009, -7.669416123999952 ], [ 112.198489603000098, -7.668841649999933 ], [ 112.198962596000115, -7.66797717999998 ], [ 112.198212772000034, -7.667521174999933 ], [ 112.197350476000111, -7.667007746999957 ], [ 112.196838390000039, -7.66681897899997 ], [ 112.19685116200003, -7.66681183399993 ], [ 112.197451020000017, -7.666313604999971 ], [ 112.197716867000054, -7.666023112999937 ], [ 112.198221293000074, -7.665315457999952 ], [ 112.19828945900008, -7.664835804999939 ], [ 112.198378074000061, -7.664317306999976 ], [ 112.198337175, -7.663736318999952 ], [ 112.198194027000113, -7.662800654999955 ], [ 112.198125861000108, -7.662489892999929 ], [ 112.198105411000029, -7.661571115999948 ], [ 112.198575755000093, -7.660746916999926 ], [ 112.198766619000025, -7.660165922999965 ], [ 112.198772861000066, -7.660162936999939 ], [ 112.200227070000096, -7.660829674999945 ], [ 112.2010314260001, -7.661157327999945 ], [ 112.201133674000062, -7.660910742999931 ], [ 112.201999379000085, -7.661332975999926 ], [ 112.202149344000077, -7.660914120999962 ], [ 112.202333374000091, -7.660423952999963 ], [ 112.202360554000052, -7.660351558999935 ], [ 112.202509464000059, -7.659954933999927 ], [ 112.202469469000107, -7.659938353999962 ], [ 112.202508118000083, -7.659869392999951 ], [ 112.202560149000078, -7.659900052999944 ], [ 112.202830033000055, -7.66005912199995 ], [ 112.202908970000067, -7.660105646999966 ], [ 112.203026321000038, -7.660176057999934 ], [ 112.203177568000115, -7.660267838999971 ], [ 112.203287910000086, -7.660325529999966 ], [ 112.203586421000068, -7.660481726999933 ], [ 112.20355681, -7.660557590999929 ], [ 112.203349415000048, -7.661088026999948 ], [ 112.203668568000012, -7.661257211999953 ] ] ] ] } },
{ "type": "Feature", "properties": { "fid": 6891, "kk": null, "gid": 0.0, "bstt": null, "luas": 587166.35537720833, "bsbtt": null, "idsls": "35061500071008", "kdkab": "06", "kdkec": "150", "kdsls": "1008", "nmkab": "KEDIRI", "nmkec": "KUNJANG", "nmsls": "SAWAH", "bstt_k": null, "kddesa": "007", "kdprov": "35", "khusus": null, "muatan": null, "nmdesa": "DUNGUS", "nmprov": "JAWA TIMUR", "posisi": null, "rw_dki": null, "segmen": null, "subsls": null, "sumber": null, "dom_sls": null, "periode": "2025_1", "tingkat": null, "idsubsls": "3506150007100800", "nm_gedung": null, "wil_campur": null, "iddesa": "3506150007", "kdsubsls": "00" }, "geometry": { "type": "MultiPolygon", "coordinates": [ [ [ [ 112.21150917500006, -7.680532045999939 ], [ 112.21163040600004, -7.680182926999976 ], [ 112.211337243000116, -7.680082352999932 ], [ 112.211380717000111, -7.679960403999928 ], [ 112.211382178, -7.67995895599995 ], [ 112.211324473000104, -7.679935791999981 ], [ 112.211357343000032, -7.679806938999945 ], [ 112.211450109000111, -7.679443545999959 ], [ 112.211181306000071, -7.679378394999958 ], [ 112.211111758000015, -7.679357366999966 ], [ 112.211438958000031, -7.677238831999944 ], [ 112.211530999000047, -7.676395078999974 ], [ 112.211438958000031, -7.675551324999958 ], [ 112.211289390000047, -7.674821589999965 ], [ 112.211300896000012, -7.674080450999952 ], [ 112.211519494000072, -7.673042854999949 ], [ 112.211830134000024, -7.672164886999951 ], [ 112.211834871000065, -7.672151941999971 ], [ 112.212153348000015, -7.671281577999935 ], [ 112.2121537700001, -7.671281919999956 ], [ 112.21225469, -7.671363689999964 ], [ 112.212588976, -7.671634565999966 ], [ 112.213186330000099, -7.672118609999927 ], [ 112.213210560000107, -7.672138239999981 ], [ 112.21321101, -7.672138609999934 ], [ 112.213203430000021, -7.672334039999953 ], [ 112.213203390000103, -7.672335059999966 ], [ 112.213340710000011, -7.67262637999994 ], [ 112.213447510000037, -7.672766089999925 ], [ 112.214408820000017, -7.673222459999977 ], [ 112.214469850000114, -7.673253429999932 ], [ 112.214470040000037, -7.673253809999949 ], [ 112.214487960000042, -7.673289199999942 ], [ 112.214489711000056, -7.673292655999944 ], [ 112.214506910000068, -7.673326609999947 ], [ 112.214508010000031, -7.673328779999963 ], [ 112.214713990000064, -7.673816099999954 ], [ 112.21524807000003, -7.674931919999949 ], [ 112.215469320000011, -7.67525422999995 ], [ 112.215652430000091, -7.675379169999928 ], [ 112.215942320000067, -7.675464039999952 ], [ 112.216377220000027, -7.67555608999993 ], [ 112.216659490000097, -7.675632839999935 ], [ 112.217231710000078, -7.67560949999995 ], [ 112.217452970000068, -7.675606139999957 ], [ 112.217491100000075, -7.675611879999963 ], [ 112.217704730000037, -7.675869359999979 ], [ 112.217842050000058, -7.676069649999931 ], [ 112.21805568000002, -7.676591759999951 ], [ 112.218085810000048, -7.676744819999954 ], [ 112.21808619, -7.67674674999995 ], [ 112.217712350000056, -7.677471539999942 ], [ 112.217636060000018, -7.677668939999933 ], [ 112.21759901300004, -7.678216559999953 ], [ 112.217597930000011, -7.678232569999977 ], [ 112.217594240000039, -7.678275799999938 ], [ 112.217559780000101, -7.67867887999995 ], [ 112.217518926000025, -7.679121682999948 ], [ 112.217518790000099, -7.679123159999961 ], [ 112.217513980000035, -7.679175259999965 ], [ 112.217579880000017, -7.679612299999974 ], [ 112.217586270000083, -7.679623469999967 ], [ 112.217582340000035, -7.679628599999944 ], [ 112.217582260000086, -7.679628709999974 ], [ 112.217353400000093, -7.679930569999954 ], [ 112.217093980000072, -7.680321579999941 ], [ 112.216926150000063, -7.680615769999974 ], [ 112.216819320000013, -7.680858949999958 ], [ 112.216521760000091, -7.681376829999977 ], [ 112.216498803000036, -7.681433528999946 ], [ 112.21627, -7.681998609999937 ], [ 112.216117430000054, -7.682490689999952 ], [ 112.216102170000113, -7.682650449999926 ], [ 112.216224260000104, -7.682793489999938 ], [ 112.216333490000011, -7.682866489999981 ], [ 112.216451729000028, -7.682945514999972 ], [ 112.215674260000014, -7.682588118999945 ], [ 112.213214079000068, -7.681329004999952 ], [ 112.213149849000047, -7.681237344999943 ], [ 112.212781706000101, -7.681075193999959 ], [ 112.212346362000062, -7.680885534999959 ], [ 112.211873035000053, -7.680677054999933 ], [ 112.211648059000026, -7.680585844999939 ], [ 112.211548719, -7.680548202999944 ], [ 112.21150917500006, -7.680532045999939 ] ] ] ] } },
{ "type": "Feature", "properties": { "fid": 6892, "kk": null, "gid": 0.0, "bstt": null, "luas": 9189.870018019632, "bsbtt": null, "idsls": "35061500070010", "kdkab": "06", "kdkec": "150", "kdsls": "0010", "nmkab": "KEDIRI", "nmkec": "KUNJANG", "nmsls": "RT 010 RW 005 DUSUN PLOSOKEREP", "bstt_k": null, "kddesa": "007", "kdprov": "35", "khusus": null, "muatan": null, "nmdesa": "DUNGUS", "nmprov": "JAWA TIMUR", "posisi": null, "rw_dki": null, "segmen": null, "subsls": null, "sumber": null, "dom_sls": null, "periode": "2025_1", "tingkat": null, "idsubsls": "3506150007001000", "nm_gedung": null, "wil_campur": null, "iddesa": "3506150007", "kdsubsls": "00" }, "geometry": { "type": "MultiPolygon", "coordinates": [ [ [ [ 112.209681807000038, -7.67032003099996 ], [ 112.209621139000092, -7.670294923999961 ], [ 112.209633604000032, -7.670279118999929 ], [ 112.20881315500003, -7.669903209999973 ], [ 112.208746920000067, -7.669876132999946 ], [ 112.208814543000017, -7.669726056999934 ], [ 112.208574869000017, -7.669614262999971 ], [ 112.208664770000041, -7.669389869999975 ], [ 112.208636007000109, -7.669310053999936 ], [ 112.208707915000105, -7.669181778999928 ], [ 112.208711563000065, -7.669183620999945 ], [ 112.209276357000022, -7.669468925999979 ], [ 112.209233919000098, -7.669575020999957 ], [ 112.209229254000093, -7.669581608999977 ], [ 112.209200176000081, -7.669650520999937 ], [ 112.209628330000101, -7.669851661999928 ], [ 112.209879916000091, -7.669341655999972 ], [ 112.209995960000015, -7.669552639999949 ], [ 112.210100491000048, -7.669647147999967 ], [ 112.210012315000085, -7.669798925999942 ], [ 112.209968099000093, -7.669854989999976 ], [ 112.209945594000033, -7.669930161999957 ], [ 112.209883046000073, -7.670028613999932 ], [ 112.209821178000084, -7.670043602999954 ], [ 112.209681807000038, -7.67032003099996 ] ] ] ] } },
{ "type": "Feature", "properties": { "fid": 6893, "kk": null, "gid": 0.0, "bstt": null, "luas": 8912.1988985135686, "bsbtt": null, "idsls": "35061500070012", "kdkab": "06", "kdkec": "150", "kdsls": "0012", "nmkab": "KEDIRI", "nmkec": "KUNJANG", "nmsls": "RT 012 RW 006 DUSUN PLOSOKEREP", "bstt_k": null, "kddesa": "007", "kdprov": "35", "khusus": null, "muatan": null, "nmdesa": "DUNGUS", "nmprov": "JAWA TIMUR", "posisi": null, "rw_dki": null, "segmen": null, "subsls": null, "sumber": null, "dom_sls": null, "periode": "2025_1", "tingkat": null, "idsubsls": "3506150007001200", "nm_gedung": null, "wil_campur": null, "iddesa": "3506150007", "kdsubsls": "00" }, "geometry": { "type": "MultiPolygon", "coordinates": [ [ [ [ 112.209681807000038, -7.67032003099996 ], [ 112.209821178000084, -7.670043602999954 ], [ 112.209883046000073, -7.670028613999932 ], [ 112.209945594000033, -7.669930161999957 ], [ 112.209968099000093, -7.669854989999976 ], [ 112.210012315000085, -7.669798925999942 ], [ 112.210100491000048, -7.669647147999967 ], [ 112.210438990000057, -7.669953189999944 ], [ 112.210586300000045, -7.67008637999993 ], [ 112.210775747000071, -7.670234323999978 ], [ 112.21079007000003, -7.670245509999972 ], [ 112.210851320000074, -7.670293339999944 ], [ 112.210985380000011, -7.670398029999944 ], [ 112.211035925000033, -7.670437503999949 ], [ 112.210866405000047, -7.670810271999926 ], [ 112.209681807000038, -7.67032003099996 ] ] ] ] } },
{ "type": "Feature", "properties": { "fid": 6894, "kk": null, "gid": 0.0, "bstt": null, "luas": 18376.769585479728, "bsbtt": null, "idsls": "35061500070015", "kdkab": "06", "kdkec": "150", "kdsls": "0015", "nmkab": "KEDIRI", "nmkec": "KUNJANG", "nmsls": "RT 015 RW 008 DUSUN DUNGUS", "bstt_k": null, "kddesa": "007", "kdprov": "35", "khusus": null, "muatan": null, "nmdesa": "DUNGUS", "nmprov": "JAWA TIMUR", "posisi": null, "rw_dki": null, "segmen": null, "subsls": null, "sumber": null, "dom_sls": null, "periode": "2025_1", "tingkat": null, "idsubsls": "3506150007001500", "nm_gedung": null, "wil_campur": null, "iddesa": "3506150007", "kdsubsls": "00" }, "geometry": { "type": "MultiPolygon", "coordinates": [ [ [ [ 112.204289662000065, -7.664499096999975 ], [ 112.204498723000029, -7.664098930999955 ], [ 112.204476410000098, -7.664090399999964 ], [ 112.204393471000117, -7.664049299999931 ], [ 112.204487535000112, -7.663840817999926 ], [ 112.204323297000087, -7.663760139999965 ], [ 112.204360139000073, -7.663640402999931 ], [ 112.204411718000074, -7.663511455999981 ], [ 112.204599018000067, -7.663593728999956 ], [ 112.204599538000025, -7.663592576999974 ], [ 112.204635600000074, -7.663609624999935 ], [ 112.204742180000039, -7.663380391999965 ], [ 112.205305580000072, -7.663608799999963 ], [ 112.205740071000037, -7.663843843999928 ], [ 112.205436946000077, -7.664523828999961 ], [ 112.205427499000052, -7.664521074999925 ], [ 112.205155267, -7.665054993999945 ], [ 112.204246780000062, -7.664590914999962 ], [ 112.204247744000099, -7.664588850999962 ], [ 112.204289662000065, -7.664499096999975 ] ] ] ] } },
{ "type": "Feature", "properties": { "fid": 6895, "kk": null, "gid": 0.0, "bstt": null, "luas": 26193.548870622999, "bsbtt": null, "idsls": "35061500070017", "kdkab": "06", "kdkec": "150", "kdsls": "0017", "nmkab": "KEDIRI", "nmkec": "KUNJANG", "nmsls": "RT 017 RW 009 DUSUN NGEMPLAK", "bstt_k": null, "kddesa": "007", "kdprov": "35", "khusus": null, "muatan": null, "nmdesa": "DUNGUS", "nmprov": "JAWA TIMUR", "posisi": null, "rw_dki": null, "segmen": null, "subsls": null, "sumber": null, "dom_sls": null, "periode": "2025_1", "tingkat": null, "idsubsls": "3506150007001700", "nm_gedung": null, "wil_campur": null, "iddesa": "3506150007", "kdsubsls": "00" }, "geometry": { "type": "MultiPolygon", "coordinates": [ [ [ [ 112.202508118000083, -7.659869392999951 ], [ 112.202469469000107, -7.659938353999962 ], [ 112.200159677000102, -7.658980828999972 ], [ 112.200189579000039, -7.658936375999929 ], [ 112.200232182000036, -7.658846861999962 ], [ 112.200460538000016, -7.658311467999965 ], [ 112.200513366000109, -7.658292888999938 ], [ 112.200634360000095, -7.658061503999932 ], [ 112.200756454000043, -7.657725557999981 ], [ 112.200766555000087, -7.65773156399996 ], [ 112.201021099000059, -7.657882927999935 ], [ 112.201329071000032, -7.658387468999933 ], [ 112.201391540000031, -7.658489809999935 ], [ 112.201933360000112, -7.659015459999978 ], [ 112.202442830000109, -7.659363189999965 ], [ 112.202533615000107, -7.659416053999962 ], [ 112.202538090000075, -7.659418659999972 ], [ 112.202665469000067, -7.659492832999945 ], [ 112.202676306000058, -7.659499143999938 ], [ 112.202678432000084, -7.659500381999976 ], [ 112.202678670000068, -7.659500519999938 ], [ 112.202679820000071, -7.659501188999968 ], [ 112.202715405000049, -7.659521833999975 ], [ 112.202715366, -7.659521885999936 ], [ 112.202660064000042, -7.659595345999946 ], [ 112.202506329000016, -7.659868331999974 ], [ 112.202508118000083, -7.659869392999951 ] ] ] ] } },
{ "type": "Feature", "properties": { "fid": 6896, "kk": null, "gid": 0.0, "bstt": null, "luas": 37255.145271434631, "bsbtt": null, "idsls": "35061500070020", "kdkab": "06", "kdkec": "150", "kdsls": "0020", "nmkab": "KEDIRI", "nmkec": "KUNJANG", "nmsls": "RT 020 RW 010 DUSUN NGEMPLAK", "bstt_k": null, "kddesa": "007", "kdprov": "35", "khusus": null, "muatan": null, "nmdesa": "DUNGUS", "nmprov": "JAWA TIMUR", "posisi": null, "rw_dki": null, "segmen": null, "subsls": null, "sumber": null, "dom_sls": null, "periode": "2025_1", "tingkat": null, "idsubsls": "3506150007002000", "nm_gedung": null, "wil_campur": null, "iddesa": "3506150007", "kdsubsls": "00" }, "geometry": { "type": "MultiPolygon", "coordinates": [ [ [ [ 112.201223753000022, -7.66015777299998 ], [ 112.201485215000048, -7.66024076399998 ], [ 112.201485045000027, -7.660238979999974 ], [ 112.201520586000015, -7.660144633999948 ], [ 112.201617651000106, -7.66010005499993 ], [ 112.201915387000099, -7.660234794999951 ], [ 112.202360554000052, -7.660351558999935 ], [ 112.202333374000091, -7.660423952999963 ], [ 112.202149344000077, -7.660914120999962 ], [ 112.201999379000085, -7.661332975999926 ], [ 112.201133674000062, -7.660910742999931 ], [ 112.2010314260001, -7.661157327999945 ], [ 112.200227070000096, -7.660829674999945 ], [ 112.198772861000066, -7.660162936999939 ], [ 112.198768323000081, -7.660160856999937 ], [ 112.199016222000068, -7.659437256999979 ], [ 112.199856353000087, -7.659733231999951 ], [ 112.1998555670001, -7.659735243999933 ], [ 112.200186171000041, -7.65986867099997 ], [ 112.200578124000117, -7.660017296999968 ], [ 112.201195860000098, -7.660231490999934 ], [ 112.201223753000022, -7.66015777299998 ] ] ] ] } },
{ "type": "Feature", "properties": { "fid": 6897, "kk": null, "gid": 0.0, "bstt": null, "luas": 20958.967738061438, "bsbtt": null, "idsls": "35061500070018", "kdkab": "06", "kdkec": "150", "kdsls": "0018", "nmkab": "KEDIRI", "nmkec": "KUNJANG", "nmsls": "RT 018 RW 009 DUSUN NGEMPLAK", "bstt_k": null, "kddesa": "007", "kdprov": "35", "khusus": null, "muatan": null, "nmdesa": "DUNGUS", "nmprov": "JAWA TIMUR", "posisi": null, "rw_dki": null, "segmen": null, "subsls": null, "sumber": null, "dom_sls": null, "periode": "2025_1", "tingkat": null, "idsubsls": "3506150007001800", "nm_gedung": null, "wil_campur": null, "iddesa": "3506150007", "kdsubsls": "00" }, "geometry": { "type": "MultiPolygon", "coordinates": [ [ [ [ 112.202469469000107, -7.659938353999962 ], [ 112.202509464000059, -7.659954933999927 ], [ 112.202360554000052, -7.660351558999935 ], [ 112.201915387000099, -7.660234794999951 ], [ 112.201617651000106, -7.66010005499993 ], [ 112.201520586000015, -7.660144633999948 ], [ 112.201485045000027, -7.660238979999974 ], [ 112.201485215000048, -7.66024076399998 ], [ 112.201223753000022, -7.66015777299998 ], [ 112.201195860000098, -7.660231490999934 ], [ 112.200578124000117, -7.660017296999968 ], [ 112.200186171000041, -7.65986867099997 ], [ 112.1998555670001, -7.659735243999933 ], [ 112.199856353000087, -7.659733231999951 ], [ 112.199978265000027, -7.659421101999953 ], [ 112.200017460000026, -7.659324831999982 ], [ 112.200128230000018, -7.65902757899994 ], [ 112.200159677000102, -7.658980828999972 ], [ 112.202469469000107, -7.659938353999962 ] ] ] ] } },
{ "type": "Feature", "properties": { "fid": 6898, "kk": null, "gid": 0.0, "bstt": null, "luas": 739246.97363143135, "bsbtt": null, "idsls": "35061500071003", "kdkab": "06", "kdkec": "150", "kdsls": "1003", "nmkab": "KEDIRI", "nmkec": "KUNJANG", "nmsls": "SAWAH", "bstt_k": null, "kddesa": "007", "kdprov": "35", "khusus": null, "muatan": null, "nmdesa": "DUNGUS", "nmprov": "JAWA TIMUR", "posisi": null, "rw_dki": null, "segmen": null, "subsls": null, "sumber": null, "dom_sls": null, "periode": "2025_1", "tingkat": null, "idsubsls": "3506150007100300", "nm_gedung": null, "wil_campur": null, "iddesa": "3506150007", "kdsubsls": "00" }, "geometry": { "type": "MultiPolygon", "coordinates": [ [ [ [ 112.206510977000107, -7.66560269699994 ], [ 112.206582246000039, -7.665629051999929 ], [ 112.206785111000045, -7.665704071999926 ], [ 112.207187793000116, -7.665852301999962 ], [ 112.20732010200004, -7.665903612999955 ], [ 112.207737165000026, -7.666066096999941 ], [ 112.207840712, -7.666177269999935 ], [ 112.207714155000076, -7.666516488999946 ], [ 112.208398713000065, -7.666735983999956 ], [ 112.208752497000091, -7.666730282999936 ], [ 112.208655120000117, -7.667163186999971 ], [ 112.208654881000029, -7.667163144999961 ], [ 112.208653561, -7.667178761999935 ], [ 112.208649001000026, -7.667232690999981 ], [ 112.208650389000013, -7.667239111999947 ], [ 112.208414533000109, -7.668111388999932 ], [ 112.208449048000034, -7.668390744999954 ], [ 112.208558347, -7.668658698999934 ], [ 112.208857482000099, -7.668858238999974 ], [ 112.208711563000065, -7.669183620999945 ], [ 112.208707915000105, -7.669181778999928 ], [ 112.208636007000109, -7.669310053999936 ], [ 112.208664770000041, -7.669389869999975 ], [ 112.208574869000017, -7.669614262999971 ], [ 112.208514016000095, -7.669766151999966 ], [ 112.208510889000081, -7.669764718999943 ], [ 112.208257775000106, -7.670312026999966 ], [ 112.208188743000051, -7.670585680999977 ], [ 112.209080395000115, -7.67108167799995 ], [ 112.209494582000048, -7.67126411299995 ], [ 112.21048402800011, -7.671634684999958 ], [ 112.211364174000096, -7.671965348999947 ], [ 112.211834871000065, -7.672151941999971 ], [ 112.211830134000024, -7.672164886999951 ], [ 112.211519494000072, -7.673042854999949 ], [ 112.211300896000012, -7.674080450999952 ], [ 112.211289390000047, -7.674821589999965 ], [ 112.211438958000031, -7.675551324999958 ], [ 112.211530999000047, -7.676395078999974 ], [ 112.211438958000031, -7.677238831999944 ], [ 112.211111758000015, -7.679357366999966 ], [ 112.211095114000045, -7.679352334999976 ], [ 112.211075392000112, -7.679473948999942 ], [ 112.211025347000032, -7.679786403999969 ], [ 112.210511490000044, -7.679644786999972 ], [ 112.210505646000115, -7.679665055999976 ], [ 112.210486655000068, -7.679789565999954 ], [ 112.210388776000059, -7.679780878999964 ], [ 112.210388111000043, -7.679783941999972 ], [ 112.210206436000021, -7.67973742099997 ], [ 112.210136298000066, -7.680009206999955 ], [ 112.210133121000013, -7.680008180999948 ], [ 112.21012849400006, -7.68002129599995 ], [ 112.207973652000078, -7.679309457999977 ], [ 112.207978730000036, -7.679296959999931 ], [ 112.208164250000095, -7.678840369999932 ], [ 112.208341810000093, -7.678294759999972 ], [ 112.20833626000001, -7.678265159999967 ], [ 112.208177200000023, -7.67815048999995 ], [ 112.208066230000099, -7.678052459999947 ], [ 112.207946010000114, -7.677887849999934 ], [ 112.207698170000072, -7.677540139999962 ], [ 112.207642680000049, -7.677419919999977 ], [ 112.207574250000107, -7.67724235999998 ], [ 112.207333810000023, -7.676630159999945 ], [ 112.207239480000112, -7.676476649999927 ], [ 112.207156250000025, -7.676324979999947 ], [ 112.207024930000102, -7.676012409999942 ], [ 112.206810380000093, -7.675736829999948 ], [ 112.206440470000075, -7.675329929999975 ], [ 112.206477460000087, -7.675148669999942 ], [ 112.206473770000116, -7.674930419999953 ], [ 112.206482490000099, -7.674864329999934 ], [ 112.206499660000077, -7.674734369999953 ], [ 112.206585800000084, -7.674749179999935 ], [ 112.206973140000059, -7.674815749999937 ], [ 112.207786950000013, -7.673173349999956 ], [ 112.206703110000035, -7.672622179999962 ], [ 112.206701380000027, -7.672625899999957 ], [ 112.205473516000097, -7.672085574999926 ], [ 112.205612061000011, -7.671765189999974 ], [ 112.205278687000032, -7.671466451999947 ], [ 112.20536960700008, -7.671241316999954 ], [ 112.20483274500009, -7.670968555999934 ], [ 112.204663893000088, -7.670734761999938 ], [ 112.204391133000058, -7.670561579999969 ], [ 112.204096725000113, -7.671128748999934 ], [ 112.204018793000046, -7.671076794999976 ], [ 112.203484944000024, -7.672157204999962 ], [ 112.203048400000057, -7.671883289999926 ], [ 112.202540750000026, -7.671588449999945 ], [ 112.202303959, -7.671450921999963 ], [ 112.202266234000035, -7.67142901099993 ], [ 112.203164485000116, -7.669855010999981 ], [ 112.203963639000108, -7.668429401999958 ], [ 112.204749473000106, -7.66695098699995 ], [ 112.205268923000062, -7.666066575999935 ], [ 112.205632845000082, -7.665287062999937 ], [ 112.20620697600009, -7.665490276999947 ], [ 112.206510977000107, -7.66560269699994 ] ] ] ] } }
]
}
