{
"type": "FeatureCollection",
"name": "iddesa_3506150008",
"crs": { "type": "name", "properties": { "name": "urn:ogc:def:crs:OGC:1.3:CRS84" } },
"features": [
{ "type": "Feature", "properties": { "fid": 6899, "kk": null, "gid": 0.0, "bstt": null, "luas": 386242.21995687421, "bsbtt": null, "idsls": "35061500081004", "kdkab": "06", "kdkec": "150", "kdsls": "1004", "nmkab": "KEDIRI", "nmkec": "KUNJANG", "nmsls": "PERSAWAHAN BESUK DAN JUWET", "bstt_k": null, "kddesa": "008", "kdprov": "35", "khusus": null, "muatan": null, "nmdesa": "JUWET", "nmprov": "JAWA TIMUR", "posisi": null, "rw_dki": null, "segmen": null, "subsls": null, "sumber": null, "dom_sls": null, "periode": "2025_1", "tingkat": null, "idsubsls": "3506150008100400", "nm_gedung": null, "wil_campur": null, "iddesa": "3506150008", "kdsubsls": "00" }, "geometry": { "type": "MultiPolygon", "coordinates": [ [ [ [ 112.190083144000027, -7.650403755999946 ], [ 112.190810259000045, -7.650680239999929 ], [ 112.189930825000033, -7.654386719999934 ], [ 112.189534199000036, -7.655304911999963 ], [ 112.189550581000049, -7.655337385999928 ], [ 112.188311364000015, -7.65832996599994 ], [ 112.185912741000038, -7.65541574699995 ], [ 112.186110134000046, -7.654853713999955 ], [ 112.186156584000059, -7.654721458999973 ], [ 112.186418904000107, -7.653974558999948 ], [ 112.185486550000064, -7.653165077999972 ], [ 112.184975977000022, -7.652721790999976 ], [ 112.184962633000055, -7.652710205999938 ], [ 112.185141078000015, -7.652232974999947 ], [ 112.185145039000076, -7.652222381999934 ], [ 112.185335580000014, -7.651712801999963 ], [ 112.185478037000053, -7.650875412999937 ], [ 112.185507255000061, -7.650703661999955 ], [ 112.185756381000033, -7.649875321999957 ], [ 112.186052468000071, -7.648890838999932 ], [ 112.186057796000114, -7.648873121999941 ], [ 112.190083144000027, -7.650403755999946 ] ] ] ] } },
{ "type": "Feature", "properties": { "fid": 6900, "kk": null, "gid": 0.0, "bstt": null, "luas": 174041.31811381446, "bsbtt": null, "idsls": "35061500081003", "kdkab": "06", "kdkec": "150", "kdsls": "1003", "nmkab": "KEDIRI", "nmkec": "KUNJANG", "nmsls": "PERSAWAHAN BESUK DAN SAMBONG", "bstt_k": null, "kddesa": "008", "kdprov": "35", "khusus": null, "muatan": null, "nmdesa": "JUWET", "nmprov": "JAWA TIMUR", "posisi": null, "rw_dki": null, "segmen": null, "subsls": null, "sumber": null, "dom_sls": null, "periode": "2025_1", "tingkat": null, "idsubsls": "3506150008100300", "nm_gedung": null, "wil_campur": null, "iddesa": "3506150008", "kdsubsls": "00" }, "geometry": { "type": "MultiPolygon", "coordinates": [ [ [ [ 112.191546141000117, -7.650908887999947 ], [ 112.191834041000106, -7.651019017999943 ], [ 112.192470419000074, -7.651338774999942 ], [ 112.192819854000049, -7.651545606999946 ], [ 112.192991194000115, -7.651647023999942 ], [ 112.193322871000078, -7.651843344999975 ], [ 112.193778695000105, -7.652110296999979 ], [ 112.193755016000068, -7.652353780999931 ], [ 112.193115678000026, -7.65402002899998 ], [ 112.192938903000027, -7.654435502999945 ], [ 112.192840529000023, -7.654666710999948 ], [ 112.192494099000101, -7.655480922999971 ], [ 112.192453236, -7.655794113999946 ], [ 112.192405302000111, -7.65616149899995 ], [ 112.192135951000068, -7.656060292999939 ], [ 112.191943557000059, -7.655926817999955 ], [ 112.191938979000042, -7.655925786999944 ], [ 112.191945727000075, -7.655907228999979 ], [ 112.191602727000031, -7.655764373999943 ], [ 112.191459659000088, -7.656172240999979 ], [ 112.189554918000113, -7.655326913999943 ], [ 112.189550581000049, -7.655337385999928 ], [ 112.189534199000036, -7.655304911999963 ], [ 112.189930825000033, -7.654386719999934 ], [ 112.190810259000045, -7.650680239999929 ], [ 112.190821755000115, -7.650631789999977 ], [ 112.191546141000117, -7.650908887999947 ] ] ] ] } },
{ "type": "Feature", "properties": { "fid": 6901, "kk": null, "gid": 0.0, "bstt": null, "luas": 18371.057006446179, "bsbtt": null, "idsls": "35061500080004", "kdkab": "06", "kdkec": "150", "kdsls": "0004", "nmkab": "KEDIRI", "nmkec": "KUNJANG", "nmsls": "RT 004 RW 002 DUSUN BESUK", "bstt_k": null, "kddesa": "008", "kdprov": "35", "khusus": null, "muatan": null, "nmdesa": "JUWET", "nmprov": "JAWA TIMUR", "posisi": null, "rw_dki": null, "segmen": null, "subsls": null, "sumber": null, "dom_sls": null, "periode": "2025_1", "tingkat": null, "idsubsls": "3506150008000400", "nm_gedung": null, "wil_campur": null, "iddesa": "3506150008", "kdsubsls": "00" }, "geometry": { "type": "MultiPolygon", "coordinates": [ [ [ [ 112.19315283100002, -7.651348469999959 ], [ 112.192991194000115, -7.651647023999942 ], [ 112.192819854000049, -7.651545606999946 ], [ 112.192470419000074, -7.651338774999942 ], [ 112.191834041000106, -7.651019017999943 ], [ 112.191546141000117, -7.650908887999947 ], [ 112.191866350000055, -7.650148322999939 ], [ 112.191879658000062, -7.650106876999928 ], [ 112.19176596300008, -7.650052412999969 ], [ 112.191800647000036, -7.649936719999971 ], [ 112.19203720400003, -7.650021486999947 ], [ 112.19201225300003, -7.65009966599996 ], [ 112.192330212000115, -7.65021375799995 ], [ 112.192371087000083, -7.650128051999957 ], [ 112.192575496000018, -7.650338433999934 ], [ 112.193291078000016, -7.650706784999954 ], [ 112.193072759000074, -7.651153961999967 ], [ 112.193003820000058, -7.651260719999925 ], [ 112.19315283100002, -7.651348469999959 ] ] ] ] } },
{ "type": "Feature", "properties": { "fid": 6902, "kk": null, "gid": 0.0, "bstt": null, "luas": 46368.467119631867, "bsbtt": null, "idsls": "35061500080005", "kdkab": "06", "kdkec": "150", "kdsls": "0005", "nmkab": "KEDIRI", "nmkec": "KUNJANG", "nmsls": "RT 001 RW 001 DUSUN SAMBONG", "bstt_k": null, "kddesa": "008", "kdprov": "35", "khusus": null, "muatan": null, "nmdesa": "JUWET", "nmprov": "JAWA TIMUR", "posisi": null, "rw_dki": null, "segmen": null, "subsls": null, "sumber": null, "dom_sls": null, "periode": "2025_1", "tingkat": null, "idsubsls": "3506150008000500", "nm_gedung": null, "wil_campur": null, "iddesa": "3506150008", "kdsubsls": "00" }, "geometry": { "type": "MultiPolygon", "coordinates": [ [ [ [ 112.192291707000095, -7.656582607999951 ], [ 112.193978609000055, -7.65730689999998 ], [ 112.193919620000088, -7.657488079999951 ], [ 112.193769620000012, -7.658198069999969 ], [ 112.193639620000113, -7.658578079999927 ], [ 112.193522070000085, -7.658850579999978 ], [ 112.193500870000094, -7.658899719999965 ], [ 112.1934196200001, -7.659088069999939 ], [ 112.193419341000094, -7.659088920999977 ], [ 112.191810362000069, -7.65870924799998 ], [ 112.191848840000034, -7.658474568999964 ], [ 112.191730444000086, -7.65827509099995 ], [ 112.191831081000032, -7.657711857999971 ], [ 112.192029394000087, -7.657298233999938 ], [ 112.192291707000095, -7.656582607999951 ] ] ] ] } },
{ "type": "Feature", "properties": { "fid": 6903, "kk": null, "gid": 0.0, "bstt": null, "luas": 27340.832475764502, "bsbtt": null, "idsls": "35061500080006", "kdkab": "06", "kdkec": "150", "kdsls": "0006", "nmkab": "KEDIRI", "nmkec": "KUNJANG", "nmsls": "RT 002 RW 001 DUSUN SAMBONG", "bstt_k": null, "kddesa": "008", "kdprov": "35", "khusus": null, "muatan": null, "nmdesa": "JUWET", "nmprov": "JAWA TIMUR", "posisi": null, "rw_dki": null, "segmen": null, "subsls": null, "sumber": null, "dom_sls": null, "periode": "2025_1", "tingkat": null, "idsubsls": "3506150008000600", "nm_gedung": null, "wil_campur": null, "iddesa": "3506150008", "kdsubsls": "00" }, "geometry": { "type": "MultiPolygon", "coordinates": [ [ [ [ 112.193773933000102, -7.655861390999974 ], [ 112.193925845000081, -7.655892183999981 ], [ 112.194100509, -7.656066848999956 ], [ 112.194342603000109, -7.656156126999974 ], [ 112.194209620000038, -7.656478079999943 ], [ 112.194059620000075, -7.657058079999956 ], [ 112.193978609000055, -7.65730689999998 ], [ 112.192291707000095, -7.656582607999951 ], [ 112.192304665000052, -7.656547255999953 ], [ 112.191761580000048, -7.656306233999942 ], [ 112.191459659000088, -7.656172240999979 ], [ 112.191602727000031, -7.655764373999943 ], [ 112.191945727000075, -7.655907228999979 ], [ 112.191938979000042, -7.655925786999944 ], [ 112.191943557000059, -7.655926817999955 ], [ 112.192135951000068, -7.656060292999939 ], [ 112.192405302000111, -7.65616149899995 ], [ 112.192453236, -7.655794113999946 ], [ 112.193016521000118, -7.655953219999958 ], [ 112.193380589000071, -7.656064692999962 ], [ 112.193537463000098, -7.656052958999965 ], [ 112.193581862000087, -7.655944418999979 ], [ 112.193741798000019, -7.655965445999925 ], [ 112.193773933000102, -7.655861390999974 ] ] ] ] } },
{ "type": "Feature", "properties": { "fid": 6904, "kk": null, "gid": 0.0, "bstt": null, "luas": 27913.285499693913, "bsbtt": null, "idsls": "35061500080007", "kdkab": "06", "kdkec": "150", "kdsls": "0007", "nmkab": "KEDIRI", "nmkec": "KUNJANG", "nmsls": "RT 003 RW 002 DUSUN SAMBONG", "bstt_k": null, "kddesa": "008", "kdprov": "35", "khusus": null, "muatan": null, "nmdesa": "JUWET", "nmprov": "JAWA TIMUR", "posisi": null, "rw_dki": null, "segmen": null, "subsls": null, "sumber": null, "dom_sls": null, "periode": "2025_1", "tingkat": null, "idsubsls": "3506150008000700", "nm_gedung": null, "wil_campur": null, "iddesa": "3506150008", "kdsubsls": "00" }, "geometry": { "type": "MultiPolygon", "coordinates": [ [ [ [ 112.193434934000038, -7.654579014999968 ], [ 112.193406335000077, -7.654698180999958 ], [ 112.193486370000073, -7.654726129999972 ], [ 112.193508451000071, -7.654726853999932 ], [ 112.193750144000091, -7.654799657999945 ], [ 112.193747327000096, -7.654837737999969 ], [ 112.193747999000038, -7.654837947999965 ], [ 112.1937309650001, -7.654956048999964 ], [ 112.1940690670001, -7.655054510999946 ], [ 112.194580828000085, -7.655075469999929 ], [ 112.194576135000034, -7.655202178999957 ], [ 112.194569620000038, -7.655378079999934 ], [ 112.194495510000024, -7.655693029999952 ], [ 112.194489620000013, -7.655718079999929 ], [ 112.194399620000013, -7.656018079999967 ], [ 112.194343990000107, -7.656152769999949 ], [ 112.194342603000109, -7.656156126999974 ], [ 112.194100509, -7.656066848999956 ], [ 112.193925845000081, -7.655892183999981 ], [ 112.193773933000102, -7.655861390999974 ], [ 112.193741798000019, -7.655965445999925 ], [ 112.193581862000087, -7.655944418999979 ], [ 112.193537463000098, -7.656052958999965 ], [ 112.193380589000071, -7.656064692999962 ], [ 112.193016521000118, -7.655953219999958 ], [ 112.192453236, -7.655794113999946 ], [ 112.192494099000101, -7.655480922999971 ], [ 112.192840529000023, -7.654666710999948 ], [ 112.192938903000027, -7.654435502999945 ], [ 112.193434934000038, -7.654579014999968 ] ] ] ] } },
{ "type": "Feature", "properties": { "fid": 6905, "kk": null, "gid": 0.0, "bstt": null, "luas": 7535.8011748284334, "bsbtt": null, "idsls": "35061500080010", "kdkab": "06", "kdkec": "150", "kdsls": "0010", "nmkab": "KEDIRI", "nmkec": "KUNJANG", "nmsls": "RT 002 RW 001 DUSUN DEKES", "bstt_k": null, "kddesa": "008", "kdprov": "35", "khusus": null, "muatan": null, "nmdesa": "JUWET", "nmprov": "JAWA TIMUR", "posisi": null, "rw_dki": null, "segmen": null, "subsls": null, "sumber": null, "dom_sls": null, "periode": "2025_1", "tingkat": null, "idsubsls": "3506150008001000", "nm_gedung": null, "wil_campur": null, "iddesa": "3506150008", "kdsubsls": "00" }, "geometry": { "type": "MultiPolygon", "coordinates": [ [ [ [ 112.185380880000025, -7.654257365999968 ], [ 112.185321040000076, -7.654411240999934 ], [ 112.185468036000088, -7.654490859999953 ], [ 112.185468036000088, -7.654517260999967 ], [ 112.18565108700011, -7.654641086999959 ], [ 112.185731470000064, -7.654453527999976 ], [ 112.185886710000091, -7.654515233999973 ], [ 112.185861378000027, -7.654584085999943 ], [ 112.186156584000059, -7.654721458999973 ], [ 112.186110134000046, -7.654853713999955 ], [ 112.185912741000038, -7.65541574699995 ], [ 112.185902401000021, -7.655403184999955 ], [ 112.18589032400007, -7.655427723999935 ], [ 112.185463540000114, -7.654935283999976 ], [ 112.185348345000079, -7.655205905999935 ], [ 112.185250668000094, -7.655138434999969 ], [ 112.185391159, -7.654851766999968 ], [ 112.18502275600008, -7.654426688999934 ], [ 112.184990729000106, -7.654382121999959 ], [ 112.185050690000025, -7.654250310999942 ], [ 112.185056682000095, -7.654254088999949 ], [ 112.185120082000026, -7.654078874999925 ], [ 112.185260610000114, -7.65412633699998 ], [ 112.185230750000073, -7.654203117999941 ], [ 112.185380880000025, -7.654257365999968 ] ] ] ] } },
{ "type": "Feature", "properties": { "fid": 6906, "kk": null, "gid": 0.0, "bstt": null, "luas": 6127.0523013070051, "bsbtt": null, "idsls": "35061500080011", "kdkab": "06", "kdkec": "150", "kdsls": "0011", "nmkab": "KEDIRI", "nmkec": "KUNJANG", "nmsls": "RT 003 RW 002 DUSUN DEKES", "bstt_k": null, "kddesa": "008", "kdprov": "35", "khusus": null, "muatan": null, "nmdesa": "JUWET", "nmprov": "JAWA TIMUR", "posisi": null, "rw_dki": null, "segmen": null, "subsls": null, "sumber": null, "dom_sls": null, "periode": "2025_1", "tingkat": null, "idsubsls": "3506150008001100", "nm_gedung": null, "wil_campur": null, "iddesa": "3506150008", "kdsubsls": "00" }, "geometry": { "type": "MultiPolygon", "coordinates": [ [ [ [ 112.185375278000038, -7.653679842999964 ], [ 112.185284342000045, -7.653886396999951 ], [ 112.185208486000079, -7.653834561999929 ], [ 112.1852069360001, -7.653838843999949 ], [ 112.184824443000025, -7.653444139999976 ], [ 112.184787444000108, -7.653526278999948 ], [ 112.184717886000044, -7.653485208999939 ], [ 112.184691247000046, -7.65349254299997 ], [ 112.184624708000115, -7.653453255999978 ], [ 112.184651658, -7.653397752999979 ], [ 112.184975977000022, -7.652721790999976 ], [ 112.185486550000064, -7.653165077999972 ], [ 112.18529473000001, -7.653626776999943 ], [ 112.185375278000038, -7.653679842999964 ] ] ] ] } },
{ "type": "Feature", "properties": { "fid": 6907, "kk": null, "gid": 0.0, "bstt": null, "luas": 4164.3648428948363, "bsbtt": null, "idsls": "35061500080012", "kdkab": "06", "kdkec": "150", "kdsls": "0012", "nmkab": "KEDIRI", "nmkec": "KUNJANG", "nmsls": "RT 004 RW 002 DUSUN DEKES", "bstt_k": null, "kddesa": "008", "kdprov": "35", "khusus": null, "muatan": null, "nmdesa": "JUWET", "nmprov": "JAWA TIMUR", "posisi": null, "rw_dki": null, "segmen": null, "subsls": null, "sumber": null, "dom_sls": null, "periode": "2025_1", "tingkat": null, "idsubsls": "3506150008001200", "nm_gedung": null, "wil_campur": null, "iddesa": "3506150008", "kdsubsls": "00" }, "geometry": { "type": "MultiPolygon", "coordinates": [ [ [ [ 112.1852069360001, -7.653838843999949 ], [ 112.185120082000026, -7.654078874999925 ], [ 112.185056682000095, -7.654254088999949 ], [ 112.185050690000025, -7.654250310999942 ], [ 112.184990729000106, -7.654382121999959 ], [ 112.184960441000044, -7.654339974999971 ], [ 112.184959118000052, -7.654333182999949 ], [ 112.18451217300003, -7.653705407999951 ], [ 112.18449195900007, -7.653702068999962 ], [ 112.184497922000105, -7.653696365999963 ], [ 112.18445302900011, -7.653633895999974 ], [ 112.184544732000063, -7.65359374999997 ], [ 112.184621689000096, -7.653451473999951 ], [ 112.184624708000115, -7.653453255999978 ], [ 112.184691247000046, -7.65349254299997 ], [ 112.184717886000044, -7.653485208999939 ], [ 112.184787444000108, -7.653526278999948 ], [ 112.184824443000025, -7.653444139999976 ], [ 112.1852069360001, -7.653838843999949 ] ] ] ] } },
{ "type": "Feature", "properties": { "fid": 6908, "kk": null, "gid": 0.0, "bstt": null, "luas": 21605.9972947684, "bsbtt": null, "idsls": "35061500080015", "kdkab": "06", "kdkec": "150", "kdsls": "0015", "nmkab": "KEDIRI", "nmkec": "KUNJANG", "nmsls": "RT 003 RW 001 DUSUN JUWET", "bstt_k": null, "kddesa": "008", "kdprov": "35", "khusus": null, "muatan": null, "nmdesa": "JUWET", "nmprov": "JAWA TIMUR", "posisi": null, "rw_dki": null, "segmen": null, "subsls": null, "sumber": null, "dom_sls": null, "periode": "2025_1", "tingkat": null, "idsubsls": "3506150008001500", "nm_gedung": null, "wil_campur": null, "iddesa": "3506150008", "kdsubsls": "00" }, "geometry": { "type": "MultiPolygon", "coordinates": [ [ [ [ 112.185088256000085, -7.650826502999962 ], [ 112.185104287000058, -7.650777503999961 ], [ 112.185478037000053, -7.650875412999937 ], [ 112.185335580000014, -7.651712801999963 ], [ 112.185145039000076, -7.652222381999934 ], [ 112.184673095000107, -7.652029268999968 ], [ 112.184654365000029, -7.652085108999927 ], [ 112.184509213000069, -7.652023757999928 ], [ 112.184414496000045, -7.651957019999941 ], [ 112.184307940000053, -7.652215170999966 ], [ 112.183719827, -7.65198811099998 ], [ 112.183764536000012, -7.651916945999972 ], [ 112.183774721000077, -7.65190073399998 ], [ 112.183862106000106, -7.651678815999958 ], [ 112.184023945000035, -7.651370018999955 ], [ 112.184374347000016, -7.650770570999953 ], [ 112.184378583000012, -7.650763324999957 ], [ 112.184627158000012, -7.650872315999948 ], [ 112.184671733000073, -7.650755431999926 ], [ 112.184748004000085, -7.650783166999929 ], [ 112.18475791000003, -7.65074552599998 ], [ 112.185078845000021, -7.650824769999929 ], [ 112.185088256000085, -7.650826502999962 ] ] ] ] } },
{ "type": "Feature", "properties": { "fid": 6909, "kk": null, "gid": 0.0, "bstt": null, "luas": 27692.599687289388, "bsbtt": null, "idsls": "35061500080017", "kdkab": "06", "kdkec": "150", "kdsls": "0017", "nmkab": "KEDIRI", "nmkec": "KUNJANG", "nmsls": "RT 005 RW 002 DUSUN JUWET", "bstt_k": null, "kddesa": "008", "kdprov": "35", "khusus": null, "muatan": null, "nmdesa": "JUWET", "nmprov": "JAWA TIMUR", "posisi": null, "rw_dki": null, "segmen": null, "subsls": null, "sumber": null, "dom_sls": null, "periode": "2025_1", "tingkat": null, "idsubsls": "3506150008001700", "nm_gedung": null, "wil_campur": null, "iddesa": "3506150008", "kdsubsls": "00" }, "geometry": { "type": "MultiPolygon", "coordinates": [ [ [ [ 112.181615568000097, -7.651151239999933 ], [ 112.18169634000003, -7.650619495999933 ], [ 112.181737803000033, -7.650467462999927 ], [ 112.181738830000086, -7.650460791999933 ], [ 112.181739100000073, -7.65045903999993 ], [ 112.181777330000045, -7.650210529999981 ], [ 112.18175790500004, -7.650200868999946 ], [ 112.181773168000063, -7.650186232999943 ], [ 112.181949541000108, -7.649787466999953 ], [ 112.182005408, -7.64964181199997 ], [ 112.182213152000031, -7.649704567999947 ], [ 112.182238957000095, -7.649715012999934 ], [ 112.182238163000079, -7.649716842999965 ], [ 112.182404412000096, -7.649782608999942 ], [ 112.182377688000088, -7.649858808999966 ], [ 112.183052942000018, -7.650157286999956 ], [ 112.183047897000051, -7.650169450999954 ], [ 112.182731798000077, -7.650931498999967 ], [ 112.18273423200003, -7.650954019999972 ], [ 112.182469331000107, -7.651712347999933 ], [ 112.18258602700007, -7.651750058999937 ], [ 112.182641431000093, -7.651763199999948 ], [ 112.182595866000042, -7.651896922999981 ], [ 112.182621620000077, -7.651908809999952 ], [ 112.182520418000081, -7.652225782999949 ], [ 112.182469859000093, -7.652201843999933 ], [ 112.181662660000029, -7.651819639999928 ], [ 112.181662684000116, -7.651819043999978 ], [ 112.181688302000111, -7.651170896999929 ], [ 112.181615568000097, -7.651151239999933 ] ] ] ] } },
{ "type": "Feature", "properties": { "fid": 6910, "kk": null, "gid": 0.0, "bstt": null, "luas": 38929.902765549719, "bsbtt": null, "idsls": "35061500080018", "kdkab": "06", "kdkec": "150", "kdsls": "0018", "nmkab": "KEDIRI", "nmkec": "KUNJANG", "nmsls": "RT 006 RW 002 DUSUN JUWET", "bstt_k": null, "kddesa": "008", "kdprov": "35", "khusus": null, "muatan": null, "nmdesa": "JUWET", "nmprov": "JAWA TIMUR", "posisi": null, "rw_dki": null, "segmen": null, "subsls": null, "sumber": null, "dom_sls": null, "periode": "2025_1", "tingkat": null, "idsubsls": "3506150008001800", "nm_gedung": null, "wil_campur": null, "iddesa": "3506150008", "kdsubsls": "00" }, "geometry": { "type": "MultiPolygon", "coordinates": [ [ [ [ 112.183764536000012, -7.651916945999972 ], [ 112.183719827, -7.65198811099998 ], [ 112.184307940000053, -7.652215170999966 ], [ 112.184414496000045, -7.651957019999941 ], [ 112.184509213000069, -7.652023757999928 ], [ 112.184654365000029, -7.652085108999927 ], [ 112.184673095000107, -7.652029268999968 ], [ 112.185145039000076, -7.652222381999934 ], [ 112.185141078000015, -7.652232974999947 ], [ 112.184962633000055, -7.652710205999938 ], [ 112.184975977000022, -7.652721790999976 ], [ 112.184651658, -7.653397752999979 ], [ 112.184624708000115, -7.653453255999978 ], [ 112.184621689000096, -7.653451473999951 ], [ 112.184544732000063, -7.65359374999997 ], [ 112.18445302900011, -7.653633895999974 ], [ 112.184413138000082, -7.65365135899998 ], [ 112.183768313000087, -7.652889151999943 ], [ 112.183448644, -7.653552130999969 ], [ 112.183118358000115, -7.653409496999927 ], [ 112.183120060000078, -7.653404719999969 ], [ 112.18311484000003, -7.653401869999925 ], [ 112.182494530000099, -7.653063719999977 ], [ 112.1823685600001, -7.652995049999959 ], [ 112.182372079000061, -7.65298639599996 ], [ 112.182395830000019, -7.652927979999959 ], [ 112.182386700000052, -7.652923659999942 ], [ 112.182395080000106, -7.652918279999938 ], [ 112.182639220000056, -7.652282029999981 ], [ 112.182622451000043, -7.652274091999971 ], [ 112.182711697000059, -7.651994583999965 ], [ 112.182750824000095, -7.652006222999944 ], [ 112.182926645000066, -7.652049311999974 ], [ 112.182988955000042, -7.651884634999931 ], [ 112.183042583000088, -7.651904215999934 ], [ 112.183086981000088, -7.651745804999962 ], [ 112.183219934000022, -7.651795961999937 ], [ 112.183503698000095, -7.651894895999931 ], [ 112.183523509000111, -7.651832490999936 ], [ 112.183764536000012, -7.651916945999972 ] ] ] ] } },
{ "type": "Feature", "properties": { "fid": 6911, "kk": null, "gid": 0.0, "bstt": null, "luas": 23592.352205942931, "bsbtt": null, "idsls": "35061500080022", "kdkab": "06", "kdkec": "150", "kdsls": "0022", "nmkab": "KEDIRI", "nmkec": "KUNJANG", "nmsls": "RT 004 RW 002 DUSUN NGLEREP", "bstt_k": null, "kddesa": "008", "kdprov": "35", "khusus": null, "muatan": null, "nmdesa": "JUWET", "nmprov": "JAWA TIMUR", "posisi": null, "rw_dki": null, "segmen": null, "subsls": null, "sumber": null, "dom_sls": null, "periode": "2025_1", "tingkat": null, "idsubsls": "3506150008002200", "nm_gedung": null, "wil_campur": null, "iddesa": "3506150008", "kdsubsls": "00" }, "geometry": { "type": "MultiPolygon", "coordinates": [ [ [ [ 112.179830625000022, -7.64884516199993 ], [ 112.179738091000104, -7.648811232999947 ], [ 112.179809034000073, -7.64859570699997 ], [ 112.179778189000103, -7.648584910999944 ], [ 112.179840547000026, -7.648405089999926 ], [ 112.179256770000052, -7.648145769999928 ], [ 112.179259381000065, -7.648137299999973 ], [ 112.179340380000099, -7.64787456199997 ], [ 112.179637240000034, -7.64798873899997 ], [ 112.179689919000111, -7.647881057999939 ], [ 112.179784473000041, -7.647915311999952 ], [ 112.179902869000102, -7.647991584999943 ], [ 112.180015345000015, -7.648035587999971 ], [ 112.180172220000031, -7.648082525999939 ], [ 112.180198859000029, -7.648132395999937 ], [ 112.180377819000114, -7.648205595999968 ], [ 112.180418983000095, -7.64812717999996 ], [ 112.180631776000041, -7.648226743999942 ], [ 112.180612955000015, -7.648267355999963 ], [ 112.180646634000027, -7.648286176999932 ], [ 112.180635710000047, -7.648302798999964 ], [ 112.18075994700007, -7.648354483999981 ], [ 112.180661182000108, -7.648552980999966 ], [ 112.180791439000018, -7.648623308999959 ], [ 112.180925382000055, -7.648391247999939 ], [ 112.180925626000089, -7.648391373999971 ], [ 112.18097995100004, -7.648291376999964 ], [ 112.181066376000103, -7.648334960999932 ], [ 112.18101466600001, -7.648437439999952 ], [ 112.18137764100004, -7.648625231999972 ], [ 112.181301048000023, -7.64876946399994 ], [ 112.181250369000054, -7.648761179999951 ], [ 112.181173602000058, -7.648978603999979 ], [ 112.181191432000105, -7.64898454799993 ], [ 112.181178653000075, -7.649009305999925 ], [ 112.181176968000045, -7.649008766999941 ], [ 112.181086062000077, -7.649261601999967 ], [ 112.181086795000056, -7.649261814999932 ], [ 112.180902145, -7.649775253999962 ], [ 112.180595138000058, -7.649622561999934 ], [ 112.180379070000072, -7.649515099999974 ], [ 112.1798205, -7.649198829999932 ], [ 112.179823783000074, -7.649189489999969 ], [ 112.179819160000079, -7.649191246999976 ], [ 112.179780377000043, -7.649252863999948 ], [ 112.179705037000076, -7.649218898999948 ], [ 112.179830625000022, -7.64884516199993 ] ] ] ] } },
{ "type": "Feature", "properties": { "fid": 6912, "kk": null, "gid": 0.0, "bstt": null, "luas": 19437.122474623669, "bsbtt": null, "idsls": "35061500080023", "kdkab": "06", "kdkec": "150", "kdsls": "0023", "nmkab": "KEDIRI", "nmkec": "KUNJANG", "nmsls": "RT 001 RW 001 DUSUN JABON", "bstt_k": null, "kddesa": "008", "kdprov": "35", "khusus": null, "muatan": null, "nmdesa": "JUWET", "nmprov": "JAWA TIMUR", "posisi": null, "rw_dki": null, "segmen": null, "subsls": null, "sumber": null, "dom_sls": null, "periode": "2025_1", "tingkat": null, "idsubsls": "3506150008002300", "nm_gedung": null, "wil_campur": null, "iddesa": "3506150008", "kdsubsls": "00" }, "geometry": { "type": "MultiPolygon", "coordinates": [ [ [ [ 112.178515441000059, -7.64305720599998 ], [ 112.178428207000024, -7.643334384999946 ], [ 112.178626412000085, -7.643384754999943 ], [ 112.179603015000112, -7.643714729999942 ], [ 112.179459185000042, -7.644120355999974 ], [ 112.179060777000018, -7.64420322899997 ], [ 112.177363769000067, -7.643639521999944 ], [ 112.177427652, -7.643402356999957 ], [ 112.177469091000034, -7.64314126599993 ], [ 112.177551968000103, -7.642924178999976 ], [ 112.177590447000057, -7.642944713999952 ], [ 112.177643725000053, -7.642798033999952 ], [ 112.17765470900008, -7.642801272999975 ], [ 112.177812815000038, -7.642847894999932 ], [ 112.178360021000117, -7.643009253999935 ], [ 112.178358510000066, -7.643014688999926 ], [ 112.178515441000059, -7.64305720599998 ] ] ] ] } },
{ "type": "Feature", "properties": { "fid": 6913, "kk": null, "gid": 0.0, "bstt": null, "luas": 18978.387243503355, "bsbtt": null, "idsls": "35061500080024", "kdkab": "06", "kdkec": "150", "kdsls": "0024", "nmkab": "KEDIRI", "nmkec": "KUNJANG", "nmsls": "RT 002 RW 001 DUSUN JABON", "bstt_k": null, "kddesa": "008", "kdprov": "35", "khusus": null, "muatan": null, "nmdesa": "JUWET", "nmprov": "JAWA TIMUR", "posisi": null, "rw_dki": null, "segmen": null, "subsls": null, "sumber": null, "dom_sls": null, "periode": "2025_1", "tingkat": null, "idsubsls": "3506150008002400", "nm_gedung": null, "wil_campur": null, "iddesa": "3506150008", "kdsubsls": "00" }, "geometry": { "type": "MultiPolygon", "coordinates": [ [ [ [ 112.176099691000104, -7.642343709999977 ], [ 112.176521108000088, -7.642498726999975 ], [ 112.176691935, -7.642040087999931 ], [ 112.176972491000015, -7.642141082999956 ], [ 112.177021273000037, -7.642104328999949 ], [ 112.177134537000029, -7.642139403999977 ], [ 112.177089962000082, -7.642280435999965 ], [ 112.176954476000105, -7.642231605999939 ], [ 112.176868231000071, -7.642502472999979 ], [ 112.177666664000071, -7.642773831999932 ], [ 112.17765470900008, -7.642801272999975 ], [ 112.177643725000053, -7.642798033999952 ], [ 112.177590447000057, -7.642944713999952 ], [ 112.177551968000103, -7.642924178999976 ], [ 112.177469091000034, -7.64314126599993 ], [ 112.177427652, -7.643402356999957 ], [ 112.177363769000067, -7.643639521999944 ], [ 112.175860942000099, -7.643140317999951 ], [ 112.17587074000005, -7.643106089999947 ], [ 112.175980630000026, -7.642762389999973 ], [ 112.175988972000027, -7.642736299999967 ], [ 112.175928439000018, -7.642721644999938 ], [ 112.176099691000104, -7.642343709999977 ] ] ] ] } },
{ "type": "Feature", "properties": { "fid": 6914, "kk": null, "gid": 0.0, "bstt": null, "luas": 33955.525878016313, "bsbtt": null, "idsls": "35061500080025", "kdkab": "06", "kdkec": "150", "kdsls": "0025", "nmkab": "KEDIRI", "nmkec": "KUNJANG", "nmsls": "RT 003 RW 002 DUSUN JABON", "bstt_k": null, "kddesa": "008", "kdprov": "35", "khusus": null, "muatan": null, "nmdesa": "JUWET", "nmprov": "JAWA TIMUR", "posisi": null, "rw_dki": null, "segmen": null, "subsls": null, "sumber": null, "dom_sls": null, "periode": "2025_1", "tingkat": null, "idsubsls": "3506150008002500", "nm_gedung": null, "wil_campur": null, "iddesa": "3506150008", "kdsubsls": "00" }, "geometry": { "type": "MultiPolygon", "coordinates": [ [ [ [ 112.178428207000024, -7.643334384999946 ], [ 112.178515441000059, -7.64305720599998 ], [ 112.178358510000066, -7.643014688999926 ], [ 112.178360021000117, -7.643009253999935 ], [ 112.177812815000038, -7.642847894999932 ], [ 112.177918996000017, -7.642637418999925 ], [ 112.178019632000087, -7.642540609999969 ], [ 112.178149868000105, -7.642091767999943 ], [ 112.178149868000105, -7.642033095999977 ], [ 112.17834439, -7.641477064999947 ], [ 112.179824986000085, -7.642083333999949 ], [ 112.179869385000075, -7.642235881999966 ], [ 112.179721390000054, -7.642670055999929 ], [ 112.179715470000019, -7.64339758899996 ], [ 112.179603015000112, -7.643714729999942 ], [ 112.178626412000085, -7.643384754999943 ], [ 112.178428207000024, -7.643334384999946 ] ] ] ] } },
{ "type": "Feature", "properties": { "fid": 6915, "kk": null, "gid": 0.0, "bstt": null, "luas": 21782.799390484579, "bsbtt": null, "idsls": "35061500080026", "kdkab": "06", "kdkec": "150", "kdsls": "0026", "nmkab": "KEDIRI", "nmkec": "KUNJANG", "nmsls": "RT 004 RW 002 DUSUN JABON", "bstt_k": null, "kddesa": "008", "kdprov": "35", "khusus": null, "muatan": null, "nmdesa": "JUWET", "nmprov": "JAWA TIMUR", "posisi": null, "rw_dki": null, "segmen": null, "subsls": null, "sumber": null, "dom_sls": null, "periode": "2025_1", "tingkat": null, "idsubsls": "3506150008002600", "nm_gedung": null, "wil_campur": null, "iddesa": "3506150008", "kdsubsls": "00" }, "geometry": { "type": "MultiPolygon", "coordinates": [ [ [ [ 112.176954476000105, -7.642231605999939 ], [ 112.177089962000082, -7.642280435999965 ], [ 112.177134537000029, -7.642139403999977 ], [ 112.177021273000037, -7.642104328999949 ], [ 112.176972491000015, -7.642141082999956 ], [ 112.176691935, -7.642040087999931 ], [ 112.176858400000015, -7.641593159999957 ], [ 112.17706, -7.641665289999935 ], [ 112.177284449000013, -7.641055643999948 ], [ 112.177291530000048, -7.64103640999997 ], [ 112.177469480000013, -7.641094789999954 ], [ 112.177792540000041, -7.641200759999947 ], [ 112.177803490000088, -7.641193459999954 ], [ 112.17781022600002, -7.641188968999927 ], [ 112.177933610000082, -7.641308859999981 ], [ 112.17834439, -7.641477064999947 ], [ 112.178149868000105, -7.642033095999977 ], [ 112.178149868000105, -7.642091767999943 ], [ 112.178019632000087, -7.642540609999969 ], [ 112.177918996000017, -7.642637418999925 ], [ 112.177812815000038, -7.642847894999932 ], [ 112.17765470900008, -7.642801272999975 ], [ 112.177666664000071, -7.642773831999932 ], [ 112.176868231000071, -7.642502472999979 ], [ 112.176954476000105, -7.642231605999939 ] ] ] ] } },
{ "type": "Feature", "properties": { "fid": 6916, "kk": null, "gid": 0.0, "bstt": null, "luas": 208018.54794503687, "bsbtt": null, "idsls": "35061500081001", "kdkab": "06", "kdkec": "150", "kdsls": "1001", "nmkab": "KEDIRI", "nmkec": "KUNJANG", "nmsls": "SAWAH JUWET", "bstt_k": null, "kddesa": "008", "kdprov": "35", "khusus": null, "muatan": null, "nmdesa": "JUWET", "nmprov": "JAWA TIMUR", "posisi": null, "rw_dki": null, "segmen": null, "subsls": null, "sumber": null, "dom_sls": null, "periode": "2025_1", "tingkat": null, "idsubsls": "3506150008100100", "nm_gedung": null, "wil_campur": null, "iddesa": "3506150008", "kdsubsls": "00" }, "geometry": { "type": "MultiPolygon", "coordinates": [ [ [ [ 112.184413138000082, -7.65365135899998 ], [ 112.18445302900011, -7.653633895999974 ], [ 112.184497922000105, -7.653696365999963 ], [ 112.18449195900007, -7.653702068999962 ], [ 112.18451217300003, -7.653705407999951 ], [ 112.184959118000052, -7.654333182999949 ], [ 112.184960441000044, -7.654339974999971 ], [ 112.184990729000106, -7.654382121999959 ], [ 112.18502275600008, -7.654426688999934 ], [ 112.185391159, -7.654851766999968 ], [ 112.185250668000094, -7.655138434999969 ], [ 112.185348345000079, -7.655205905999935 ], [ 112.185463540000114, -7.654935283999976 ], [ 112.18589032400007, -7.655427723999935 ], [ 112.185902401000021, -7.655403184999955 ], [ 112.185912741000038, -7.65541574699995 ], [ 112.188311364000015, -7.65832996599994 ], [ 112.188294, -7.658371895999949 ], [ 112.189168471000016, -7.659569526999974 ], [ 112.189168130000098, -7.659571269999958 ], [ 112.189020170000049, -7.660174219999931 ], [ 112.188822260000052, -7.660915889999956 ], [ 112.188772420000078, -7.661089419999939 ], [ 112.18877362, -7.661091029999966 ], [ 112.188731640000015, -7.661263609999935 ], [ 112.188650260000031, -7.661208119999969 ], [ 112.18858737000005, -7.661143379999942 ], [ 112.18851944000005, -7.661219209999956 ], [ 112.188507840000057, -7.66123215999994 ], [ 112.188191330000109, -7.661072469999965 ], [ 112.18818852000004, -7.661071209999932 ], [ 112.188187870000093, -7.661069399999974 ], [ 112.187958520000052, -7.660963979999963 ], [ 112.187607110000044, -7.660745729999974 ], [ 112.187444580000033, -7.660643799999946 ], [ 112.187446470000054, -7.66064345999996 ], [ 112.187500100000079, -7.660510289999934 ], [ 112.187495890000037, -7.660484339999925 ], [ 112.187489010000036, -7.660441859999935 ], [ 112.187435370000117, -7.660391919999938 ], [ 112.187413170000013, -7.660334589999934 ], [ 112.187408990000108, -7.660307409999973 ], [ 112.187394680000011, -7.660214359999941 ], [ 112.187331660000041, -7.66020027999997 ], [ 112.187096900000029, -7.660147779999932 ], [ 112.187108, -7.660070099999928 ], [ 112.187189290000106, -7.65981856999997 ], [ 112.18730405000008, -7.659463449999976 ], [ 112.187455710000108, -7.658989959999928 ], [ 112.187174580000033, -7.658819799999947 ], [ 112.186329340000043, -7.658311179999941 ], [ 112.186142530000097, -7.658170609999956 ], [ 112.185776320000059, -7.657787759999962 ], [ 112.185657950000063, -7.657676779999974 ], [ 112.18555068, -7.657717469999966 ], [ 112.185452650000116, -7.657715619999976 ], [ 112.185325030000058, -7.657649039999967 ], [ 112.185238100000106, -7.65760094999996 ], [ 112.185165970000071, -7.657541759999958 ], [ 112.18513823, -7.657449289999931 ], [ 112.184917210000094, -7.657120989999953 ], [ 112.184974540000098, -7.657091399999956 ], [ 112.184917210000094, -7.656973029999961 ], [ 112.18485247000001, -7.656884249999962 ], [ 112.184719310000105, -7.656767729999956 ], [ 112.184600420000038, -7.65666946999994 ], [ 112.184538050000015, -7.656617909999966 ], [ 112.184427080000091, -7.656540229999962 ], [ 112.184408900000108, -7.656519449999962 ], [ 112.184337890000052, -7.656508939999981 ], [ 112.184156640000083, -7.656423859999961 ], [ 112.184049360000017, -7.656386869999949 ], [ 112.183882900000071, -7.656342479999978 ], [ 112.183720140000105, -7.656323979999968 ], [ 112.183679450000113, -7.656368369999939 ], [ 112.183553680000045, -7.656349869999929 ], [ 112.183402020000017, -7.656312879999973 ], [ 112.18324666, -7.656253699999979 ], [ 112.183254060000081, -7.656157519999965 ], [ 112.183176380000077, -7.65603914999997 ], [ 112.182824960000062, -7.655880089999926 ], [ 112.182728780000048, -7.655865289999952 ], [ 112.18259192000005, -7.655835699999955 ], [ 112.18316898, -7.655584159999933 ], [ 112.183279950000042, -7.655277139999953 ], [ 112.183287610000093, -7.655164239999976 ], [ 112.18324336, -7.65518450999997 ], [ 112.182917840000073, -7.655217809999954 ], [ 112.182633010000018, -7.655199309999944 ], [ 112.182292690000054, -7.655125329999976 ], [ 112.182112180000104, -7.655079699999931 ], [ 112.181956080000077, -7.655040249999956 ], [ 112.182337080000025, -7.653915719999929 ], [ 112.1828549600001, -7.654148769999949 ], [ 112.183118358000115, -7.653409496999927 ], [ 112.183448644, -7.653552130999969 ], [ 112.183768313000087, -7.652889151999943 ], [ 112.184413138000082, -7.65365135899998 ] ] ] ] } },
{ "type": "Feature", "properties": { "fid": 6917, "kk": null, "gid": 0.0, "bstt": null, "luas": 134044.03783104883, "bsbtt": null, "idsls": "35061500081005", "kdkab": "06", "kdkec": "150", "kdsls": "1005", "nmkab": "KEDIRI", "nmkec": "KUNJANG", "nmsls": "PERSAWAHAN", "bstt_k": null, "kddesa": "008", "kdprov": "35", "khusus": null, "muatan": null, "nmdesa": "JUWET", "nmprov": "JAWA TIMUR", "posisi": null, "rw_dki": null, "segmen": null, "subsls": null, "sumber": null, "dom_sls": null, "periode": "2025_1", "tingkat": null, "idsubsls": "3506150008100500", "nm_gedung": null, "wil_campur": null, "iddesa": "3506150008", "kdsubsls": "00" }, "geometry": { "type": "MultiPolygon", "coordinates": [ [ [ [ 112.179074355000012, -7.647245146999978 ], [ 112.178811406000023, -7.647114079999938 ], [ 112.178923882000049, -7.64680018699994 ], [ 112.178666371000077, -7.646720979999941 ], [ 112.178666250000106, -7.646721346999925 ], [ 112.178643314000055, -7.646713188999968 ], [ 112.178537875000075, -7.647022129999925 ], [ 112.178201666000064, -7.646850057999927 ], [ 112.178275664000012, -7.646632972999953 ], [ 112.178189827000097, -7.646600703999979 ], [ 112.178189589000112, -7.64660116999994 ], [ 112.178146693000031, -7.646583670999973 ], [ 112.178060692000031, -7.64679259299993 ], [ 112.177685687, -7.646637992999956 ], [ 112.177690750000011, -7.646625179999944 ], [ 112.177685500000052, -7.64662267999995 ], [ 112.17651813000009, -7.646064769999953 ], [ 112.175950320000084, -7.645794729999977 ], [ 112.175949920000107, -7.645794769999952 ], [ 112.175938640000027, -7.645789497999942 ], [ 112.175916370000095, -7.645779089999962 ], [ 112.175657430000115, -7.645649619999972 ], [ 112.175407846000098, -7.645529820999968 ], [ 112.175241280000023, -7.645449869999936 ], [ 112.175229503000082, -7.645448574999932 ], [ 112.17522064100001, -7.645444237999925 ], [ 112.175206332000016, -7.645446026999934 ], [ 112.175187987000072, -7.645448319999957 ], [ 112.175186840000038, -7.645448229999943 ], [ 112.175184560000048, -7.645442069999945 ], [ 112.175214020000112, -7.645339192999927 ], [ 112.175226719000079, -7.645297909999954 ], [ 112.17529722800009, -7.645049104999941 ], [ 112.175302355000099, -7.645031013999926 ], [ 112.175563720000014, -7.64417882999993 ], [ 112.175860830000033, -7.643140709999955 ], [ 112.175860942000099, -7.643140317999951 ], [ 112.177363769000067, -7.643639521999944 ], [ 112.179060777000018, -7.64420322899997 ], [ 112.179459185000042, -7.644120355999974 ], [ 112.179064292000021, -7.645234019999975 ], [ 112.17913533, -7.645427636999955 ], [ 112.180064738000056, -7.645979150999949 ], [ 112.180123970000068, -7.646008974999972 ], [ 112.179899634000094, -7.646562357999926 ], [ 112.179802972000061, -7.646588968999936 ], [ 112.179678656000078, -7.646550832999935 ], [ 112.179678100000046, -7.646552087999964 ], [ 112.179433734000099, -7.646449269999948 ], [ 112.179074355000012, -7.647245146999978 ] ] ] ] } },
{ "type": "Feature", "properties": { "fid": 6918, "kk": null, "gid": 0.0, "bstt": null, "luas": 559174.69841591257, "bsbtt": null, "idsls": "35061500081006", "kdkab": "06", "kdkec": "150", "kdsls": "1006", "nmkab": "KEDIRI", "nmkec": "KUNJANG", "nmsls": "DUSUN JABON", "bstt_k": null, "kddesa": "008", "kdprov": "35", "khusus": null, "muatan": null, "nmdesa": "JUWET", "nmprov": "JAWA TIMUR", "posisi": null, "rw_dki": null, "segmen": null, "subsls": null, "sumber": null, "dom_sls": null, "periode": "2025_1", "tingkat": null, "idsubsls": "3506150008100600", "nm_gedung": null, "wil_campur": null, "iddesa": "3506150008", "kdsubsls": "00" }, "geometry": { "type": "MultiPolygon", "coordinates": [ [ [ [ 112.182834930000013, -7.639897819999931 ], [ 112.182899040000052, -7.640531919999944 ], [ 112.182998220000059, -7.640848529999971 ], [ 112.183082180000042, -7.641157029999931 ], [ 112.183105050000108, -7.641448879999928 ], [ 112.183364450000113, -7.641840809999962 ], [ 112.183669620000046, -7.642244709999943 ], [ 112.184257090000074, -7.642885569999976 ], [ 112.184791150000024, -7.643633739999927 ], [ 112.185149730000035, -7.644132489999947 ], [ 112.185210270000084, -7.64419001999994 ], [ 112.185561710000115, -7.644523989999925 ], [ 112.18590504000008, -7.64471328999997 ], [ 112.186053278000031, -7.644759739999927 ], [ 112.185963819000108, -7.644934793999937 ], [ 112.185759586000017, -7.64499346599996 ], [ 112.184458332000077, -7.648191410999971 ], [ 112.1844513100001, -7.648208668999928 ], [ 112.184483194000109, -7.648222252999972 ], [ 112.184086357000069, -7.649076290999972 ], [ 112.183870083000102, -7.64897424399993 ], [ 112.183792547000053, -7.648937659999945 ], [ 112.183782247000067, -7.64896566799996 ], [ 112.182728662000045, -7.648564744999931 ], [ 112.182507951000048, -7.648480756999959 ], [ 112.182691465000062, -7.647999651999953 ], [ 112.182103229000063, -7.647698268999932 ], [ 112.181024851000075, -7.647145760999933 ], [ 112.180967912000028, -7.64711658799996 ], [ 112.180917996000062, -7.647091012999965 ], [ 112.17989731900002, -7.646568067999965 ], [ 112.179899634000094, -7.646562357999926 ], [ 112.180123970000068, -7.646008974999972 ], [ 112.180064738000056, -7.645979150999949 ], [ 112.17913533, -7.645427636999955 ], [ 112.179064292000021, -7.645234019999975 ], [ 112.179459185000042, -7.644120355999974 ], [ 112.179603015000112, -7.643714729999942 ], [ 112.179715470000019, -7.64339758899996 ], [ 112.179721390000054, -7.642670055999929 ], [ 112.179869385000075, -7.642235881999966 ], [ 112.179824986000085, -7.642083333999949 ], [ 112.17834439, -7.641477064999947 ], [ 112.177933610000082, -7.641308859999981 ], [ 112.17781022600002, -7.641188968999927 ], [ 112.177811770000062, -7.641187939999952 ], [ 112.177819680000084, -7.64118265999997 ], [ 112.177836930000012, -7.64117116999995 ], [ 112.177851720000035, -7.641145269999981 ], [ 112.177997030000029, -7.64075674999998 ], [ 112.17811251, -7.640447989999927 ], [ 112.178105550000055, -7.640444929999944 ], [ 112.178107770000111, -7.640443019999964 ], [ 112.178344510000102, -7.639821569999981 ], [ 112.178551660000039, -7.639263009999979 ], [ 112.178866090000042, -7.638375219999944 ], [ 112.178914940000027, -7.638294239999937 ], [ 112.178917710000064, -7.638295279999966 ], [ 112.178917870000078, -7.638290139999981 ], [ 112.178971150000052, -7.63816227999996 ], [ 112.178988423000078, -7.638140689999943 ], [ 112.179083410000089, -7.638021959999946 ], [ 112.179264660000058, -7.637685339999962 ], [ 112.180276110000023, -7.638401379999948 ], [ 112.18042988000002, -7.63851023999996 ], [ 112.18102174, -7.638931939999964 ], [ 112.181420910000043, -7.639194619999955 ], [ 112.181455600000049, -7.639207929999941 ], [ 112.181869750000033, -7.639451659999963 ], [ 112.182428320000099, -7.639655109999978 ], [ 112.182834930000013, -7.639897819999931 ] ] ] ] } },
{ "type": "Feature", "properties": { "fid": 6919, "kk": null, "gid": 0.0, "bstt": null, "luas": 290285.83586837613, "bsbtt": null, "idsls": "35061500081007", "kdkab": "06", "kdkec": "150", "kdsls": "1007", "nmkab": "KEDIRI", "nmkec": "KUNJANG", "nmsls": "PERSAWAHAN JABON", "bstt_k": null, "kddesa": "008", "kdprov": "35", "khusus": null, "muatan": null, "nmdesa": "JUWET", "nmprov": "JAWA TIMUR", "posisi": null, "rw_dki": null, "segmen": null, "subsls": null, "sumber": null, "dom_sls": null, "periode": "2025_1", "tingkat": null, "idsubsls": "3506150008100700", "nm_gedung": null, "wil_campur": null, "iddesa": "3506150008", "kdsubsls": "00" }, "geometry": { "type": "MultiPolygon", "coordinates": [ [ [ [ 112.190397580000081, -7.649902832999942 ], [ 112.190303180000114, -7.64986412899998 ], [ 112.19029007600011, -7.64989281499993 ], [ 112.190288973000065, -7.649892533999946 ], [ 112.190083144000027, -7.650403755999946 ], [ 112.186057796000114, -7.648873121999941 ], [ 112.186052468000071, -7.648890838999932 ], [ 112.185756381000033, -7.649875321999957 ], [ 112.184082618000048, -7.649084337999966 ], [ 112.184086357000069, -7.649076290999972 ], [ 112.184483194000109, -7.648222252999972 ], [ 112.1844513100001, -7.648208668999928 ], [ 112.184458332000077, -7.648191410999971 ], [ 112.185759586000017, -7.64499346599996 ], [ 112.185963819000108, -7.644934793999937 ], [ 112.186053278000031, -7.644759739999927 ], [ 112.186082160000069, -7.644768789999944 ], [ 112.186469610000017, -7.644890189999956 ], [ 112.186873990000095, -7.64515100999995 ], [ 112.187591140000109, -7.645767569999975 ], [ 112.188109940000118, -7.646159069999953 ], [ 112.188285410000049, -7.646242029999939 ], [ 112.188964420000048, -7.646299259999978 ], [ 112.189567150000016, -7.646273969999982 ], [ 112.190085950000025, -7.64626063999998 ], [ 112.190520820000074, -7.646378399999946 ], [ 112.19098621, -7.646793739999964 ], [ 112.191476980000061, -7.647221309999964 ], [ 112.191481927000041, -7.647225617999936 ], [ 112.191158444000052, -7.647792101999926 ], [ 112.190852094000093, -7.64862523599993 ], [ 112.190756581000073, -7.648897566999949 ], [ 112.190704867000022, -7.649045015999945 ], [ 112.190697439000019, -7.649041801999942 ], [ 112.190502086000038, -7.64956690899993 ], [ 112.190397580000081, -7.649902832999942 ] ] ] ] } },
{ "type": "Feature", "properties": { "fid": 6920, "kk": null, "gid": 0.0, "bstt": null, "luas": 26129.672868213867, "bsbtt": null, "idsls": "35061500080002", "kdkab": "06", "kdkec": "150", "kdsls": "0002", "nmkab": "KEDIRI", "nmkec": "KUNJANG", "nmsls": "RT 002 RW 001 DUSUN BESUK", "bstt_k": null, "kddesa": "008", "kdprov": "35", "khusus": null, "muatan": null, "nmdesa": "JUWET", "nmprov": "JAWA TIMUR", "posisi": null, "rw_dki": null, "segmen": null, "subsls": null, "sumber": null, "dom_sls": null, "periode": "2025_1", "tingkat": null, "idsubsls": "3506150008000200", "nm_gedung": null, "wil_campur": null, "iddesa": "3506150008", "kdsubsls": "00" }, "geometry": { "type": "MultiPolygon", "coordinates": [ [ [ [ 112.191554379000081, -7.649547109999958 ], [ 112.191629344000035, -7.649323693999975 ], [ 112.191565942000011, -7.649302356999954 ], [ 112.191566130000069, -7.649301755999943 ], [ 112.191143239000098, -7.64915805499993 ], [ 112.19116787300004, -7.649077992999935 ], [ 112.190756581000073, -7.648897566999949 ], [ 112.190852094000093, -7.64862523599993 ], [ 112.191158444000052, -7.647792101999926 ], [ 112.191481927000041, -7.647225617999936 ], [ 112.191489750000073, -7.647232429999974 ], [ 112.191491400000018, -7.647234219999973 ], [ 112.192145870000104, -7.647944349999932 ], [ 112.192374765000068, -7.648177058999977 ], [ 112.192101912000112, -7.648931792999974 ], [ 112.191891386000066, -7.649634042999935 ], [ 112.191867672000058, -7.649713146999943 ], [ 112.19153863400004, -7.649608568999952 ], [ 112.191554869000015, -7.649547235999933 ], [ 112.191554379000081, -7.649547109999958 ] ] ] ] } },
{ "type": "Feature", "properties": { "fid": 6921, "kk": null, "gid": 0.0, "bstt": null, "luas": 32883.039870945737, "bsbtt": null, "idsls": "35061500080003", "kdkab": "06", "kdkec": "150", "kdsls": "0003", "nmkab": "KEDIRI", "nmkec": "KUNJANG", "nmsls": "RT 003 RW 002 DUSUN BESUK", "bstt_k": null, "kddesa": "008", "kdprov": "35", "khusus": null, "muatan": null, "nmdesa": "JUWET", "nmprov": "JAWA TIMUR", "posisi": null, "rw_dki": null, "segmen": null, "subsls": null, "sumber": null, "dom_sls": null, "periode": "2025_1", "tingkat": null, "idsubsls": "3506150008000300", "nm_gedung": null, "wil_campur": null, "iddesa": "3506150008", "kdsubsls": "00" }, "geometry": { "type": "MultiPolygon", "coordinates": [ [ [ [ 112.193983796000111, -7.65017723099993 ], [ 112.193516744000021, -7.650244560999965 ], [ 112.193291078000016, -7.650706784999954 ], [ 112.192575496000018, -7.650338433999934 ], [ 112.192371087000083, -7.650128051999957 ], [ 112.192330212000115, -7.65021375799995 ], [ 112.19201225300003, -7.65009966599996 ], [ 112.19203720400003, -7.650021486999947 ], [ 112.191800647000036, -7.649936719999971 ], [ 112.191867672000058, -7.649713146999943 ], [ 112.191891386000066, -7.649634042999935 ], [ 112.192101912000112, -7.648931792999974 ], [ 112.192374765000068, -7.648177058999977 ], [ 112.192916450000098, -7.648727769999937 ], [ 112.19365649000008, -7.649677649999944 ], [ 112.193983796000111, -7.65017723099993 ] ] ] ] } },
{ "type": "Feature", "properties": { "fid": 6922, "kk": null, "gid": 0.0, "bstt": null, "luas": 26138.624525478688, "bsbtt": null, "idsls": "35061500080001", "kdkab": "06", "kdkec": "150", "kdsls": "0001", "nmkab": "KEDIRI", "nmkec": "KUNJANG", "nmsls": "RT 001 RW 001 DUSUN BESUK", "bstt_k": null, "kddesa": "008", "kdprov": "35", "khusus": null, "muatan": null, "nmdesa": "JUWET", "nmprov": "JAWA TIMUR", "posisi": null, "rw_dki": null, "segmen": null, "subsls": null, "sumber": null, "dom_sls": null, "periode": "2025_1", "tingkat": null, "idsubsls": "3506150008000100", "nm_gedung": null, "wil_campur": null, "iddesa": "3506150008", "kdsubsls": "00" }, "geometry": { "type": "MultiPolygon", "coordinates": [ [ [ [ 112.190303180000114, -7.64986412899998 ], [ 112.190397580000081, -7.649902832999942 ], [ 112.190502086000038, -7.64956690899993 ], [ 112.190697439000019, -7.649041801999942 ], [ 112.190704867000022, -7.649045015999945 ], [ 112.190756581000073, -7.648897566999949 ], [ 112.19116787300004, -7.649077992999935 ], [ 112.191143239000098, -7.64915805499993 ], [ 112.191566130000069, -7.649301755999943 ], [ 112.191565942000011, -7.649302356999954 ], [ 112.191629344000035, -7.649323693999975 ], [ 112.191554379000081, -7.649547109999958 ], [ 112.191554869000015, -7.649547235999933 ], [ 112.19153863400004, -7.649608568999952 ], [ 112.191867672000058, -7.649713146999943 ], [ 112.191800647000036, -7.649936719999971 ], [ 112.19176596300008, -7.650052412999969 ], [ 112.191879658000062, -7.650106876999928 ], [ 112.191866350000055, -7.650148322999939 ], [ 112.191546141000117, -7.650908887999947 ], [ 112.190821755000115, -7.650631789999977 ], [ 112.190810259000045, -7.650680239999929 ], [ 112.190083144000027, -7.650403755999946 ], [ 112.190288973000065, -7.649892533999946 ], [ 112.19029007600011, -7.64989281499993 ], [ 112.190303180000114, -7.64986412899998 ] ] ] ] } },
{ "type": "Feature", "properties": { "fid": 6923, "kk": null, "gid": 0.0, "bstt": null, "luas": 77603.1671270722, "bsbtt": null, "idsls": "35061500080008", "kdkab": "06", "kdkec": "150", "kdsls": "0008", "nmkab": "KEDIRI", "nmkec": "KUNJANG", "nmsls": "RT 004 RW 002 DUSUN SAMBONG", "bstt_k": null, "kddesa": "008", "kdprov": "35", "khusus": null, "muatan": null, "nmdesa": "JUWET", "nmprov": "JAWA TIMUR", "posisi": null, "rw_dki": null, "segmen": null, "subsls": null, "sumber": null, "dom_sls": null, "periode": "2025_1", "tingkat": null, "idsubsls": "3506150008000800", "nm_gedung": null, "wil_campur": null, "iddesa": "3506150008", "kdsubsls": "00" }, "geometry": { "type": "MultiPolygon", "coordinates": [ [ [ [ 112.193406335000077, -7.654698180999958 ], [ 112.193434934000038, -7.654579014999968 ], [ 112.192938903000027, -7.654435502999945 ], [ 112.193115678000026, -7.65402002899998 ], [ 112.193755016000068, -7.652353780999931 ], [ 112.193778695000105, -7.652110296999979 ], [ 112.193322871000078, -7.651843344999975 ], [ 112.192991194000115, -7.651647023999942 ], [ 112.19315283100002, -7.651348469999959 ], [ 112.193003820000058, -7.651260719999925 ], [ 112.193072759000074, -7.651153961999967 ], [ 112.193291078000016, -7.650706784999954 ], [ 112.193516744000021, -7.650244560999965 ], [ 112.193983796000111, -7.65017723099993 ], [ 112.19405323, -7.650283209999941 ], [ 112.19437366000011, -7.650734779999937 ], [ 112.194413520000012, -7.650792729999978 ], [ 112.194614520000073, -7.651084929999968 ], [ 112.19472463000011, -7.651245 ], [ 112.194793280000113, -7.651447189999942 ], [ 112.19489246, -7.651934989999972 ], [ 112.19491534000008, -7.652398929999947 ], [ 112.194823820000011, -7.653065559999959 ], [ 112.194785640000077, -7.653303519999952 ], [ 112.194694090000098, -7.653757929999927 ], [ 112.194673582000064, -7.653888905999963 ], [ 112.194659620000039, -7.653978079999945 ], [ 112.194599620000076, -7.654338079999945 ], [ 112.19459366000001, -7.654636029999949 ], [ 112.194589620000102, -7.654838079999934 ], [ 112.194580828000085, -7.655075469999929 ], [ 112.1940690670001, -7.655054510999946 ], [ 112.1937309650001, -7.654956048999964 ], [ 112.193747999000038, -7.654837947999965 ], [ 112.193747327000096, -7.654837737999969 ], [ 112.193750144000091, -7.654799657999945 ], [ 112.193508451000071, -7.654726853999932 ], [ 112.193486370000073, -7.654726129999972 ], [ 112.193406335000077, -7.654698180999958 ] ] ] ] } },
{ "type": "Feature", "properties": { "fid": 6924, "kk": null, "gid": 0.0, "bstt": null, "luas": 13529.929916922207, "bsbtt": null, "idsls": "35061500080009", "kdkab": "06", "kdkec": "150", "kdsls": "0009", "nmkab": "KEDIRI", "nmkec": "KUNJANG", "nmsls": "RT 001 RW 001 DUSUN DEKES", "bstt_k": null, "kddesa": "008", "kdprov": "35", "khusus": null, "muatan": null, "nmdesa": "JUWET", "nmprov": "JAWA TIMUR", "posisi": null, "rw_dki": null, "segmen": null, "subsls": null, "sumber": null, "dom_sls": null, "periode": "2025_1", "tingkat": null, "idsubsls": "3506150008000900", "nm_gedung": null, "wil_campur": null, "iddesa": "3506150008", "kdsubsls": "00" }, "geometry": { "type": "MultiPolygon", "coordinates": [ [ [ [ 112.185230750000073, -7.654203117999941 ], [ 112.185260610000114, -7.65412633699998 ], [ 112.185120082000026, -7.654078874999925 ], [ 112.1852069360001, -7.653838843999949 ], [ 112.185208486000079, -7.653834561999929 ], [ 112.185284342000045, -7.653886396999951 ], [ 112.185375278000038, -7.653679842999964 ], [ 112.18529473000001, -7.653626776999943 ], [ 112.185486550000064, -7.653165077999972 ], [ 112.186418904000107, -7.653974558999948 ], [ 112.186156584000059, -7.654721458999973 ], [ 112.185861378000027, -7.654584085999943 ], [ 112.185886710000091, -7.654515233999973 ], [ 112.185731470000064, -7.654453527999976 ], [ 112.18565108700011, -7.654641086999959 ], [ 112.185468036000088, -7.654517260999967 ], [ 112.185468036000088, -7.654490859999953 ], [ 112.185321040000076, -7.654411240999934 ], [ 112.185380880000025, -7.654257365999968 ], [ 112.185230750000073, -7.654203117999941 ] ] ] ] } },
{ "type": "Feature", "properties": { "fid": 6925, "kk": null, "gid": 0.0, "bstt": null, "luas": 30580.560138520246, "bsbtt": null, "idsls": "35061500080014", "kdkab": "06", "kdkec": "150", "kdsls": "0014", "nmkab": "KEDIRI", "nmkec": "KUNJANG", "nmsls": "RT 002 RW 001 DUSUN JUWET", "bstt_k": null, "kddesa": "008", "kdprov": "35", "khusus": null, "muatan": null, "nmdesa": "JUWET", "nmprov": "JAWA TIMUR", "posisi": null, "rw_dki": null, "segmen": null, "subsls": null, "sumber": null, "dom_sls": null, "periode": "2025_1", "tingkat": null, "idsubsls": "3506150008001400", "nm_gedung": null, "wil_campur": null, "iddesa": "3506150008", "kdsubsls": "00" }, "geometry": { "type": "MultiPolygon", "coordinates": [ [ [ [ 112.185088256000085, -7.650826502999962 ], [ 112.185078845000021, -7.650824769999929 ], [ 112.18475791000003, -7.65074552599998 ], [ 112.184748004000085, -7.650783166999929 ], [ 112.184671733000073, -7.650755431999926 ], [ 112.184627158000012, -7.650872315999948 ], [ 112.184378583000012, -7.650763324999957 ], [ 112.184374347000016, -7.650770570999953 ], [ 112.183894714000076, -7.65055255599998 ], [ 112.183975937000014, -7.650386500999957 ], [ 112.183633485000087, -7.650258246999954 ], [ 112.183724470000016, -7.650028943999928 ], [ 112.183723797000084, -7.650028665999969 ], [ 112.183790506000037, -7.649869420999948 ], [ 112.183599331000096, -7.649793148999947 ], [ 112.183622114000059, -7.649732725999968 ], [ 112.183812298000021, -7.649805035999975 ], [ 112.183924229000013, -7.649527930999966 ], [ 112.183818489000032, -7.649492952999935 ], [ 112.183861825, -7.649369258999968 ], [ 112.183719930000052, -7.649311311999952 ], [ 112.183870083000102, -7.64897424399993 ], [ 112.184086357000069, -7.649076290999972 ], [ 112.184082618000048, -7.649084337999966 ], [ 112.185756381000033, -7.649875321999957 ], [ 112.185507255000061, -7.650703661999955 ], [ 112.185478037000053, -7.650875412999937 ], [ 112.185104287000058, -7.650777503999961 ], [ 112.185088256000085, -7.650826502999962 ] ] ] ] } },
{ "type": "Feature", "properties": { "fid": 6926, "kk": null, "gid": 0.0, "bstt": null, "luas": 24306.331254898469, "bsbtt": null, "idsls": "35061500080013", "kdkab": "06", "kdkec": "150", "kdsls": "0013", "nmkab": "KEDIRI", "nmkec": "KUNJANG", "nmsls": "RT 001 RW 001 DUSUN JUWET", "bstt_k": null, "kddesa": "008", "kdprov": "35", "khusus": null, "muatan": null, "nmdesa": "JUWET", "nmprov": "JAWA TIMUR", "posisi": null, "rw_dki": null, "segmen": null, "subsls": null, "sumber": null, "dom_sls": null, "periode": "2025_1", "tingkat": null, "idsubsls": "3506150008001300", "nm_gedung": null, "wil_campur": null, "iddesa": "3506150008", "kdsubsls": "00" }, "geometry": { "type": "MultiPolygon", "coordinates": [ [ [ [ 112.182404412000096, -7.649782608999942 ], [ 112.182238163000079, -7.649716842999965 ], [ 112.182238957000095, -7.649715012999934 ], [ 112.182213152000031, -7.649704567999947 ], [ 112.182005408, -7.64964181199997 ], [ 112.182032746, -7.649570537999978 ], [ 112.182045234000043, -7.649556078999979 ], [ 112.182043252000085, -7.649555378999935 ], [ 112.182256301000052, -7.649070821999942 ], [ 112.182479656000055, -7.649163076999969 ], [ 112.182728662000045, -7.648564744999931 ], [ 112.183782247000067, -7.64896566799996 ], [ 112.183792547000053, -7.648937659999945 ], [ 112.183870083000102, -7.64897424399993 ], [ 112.183719930000052, -7.649311311999952 ], [ 112.183861825, -7.649369258999968 ], [ 112.183818489000032, -7.649492952999935 ], [ 112.183924229000013, -7.649527930999966 ], [ 112.183812298000021, -7.649805035999975 ], [ 112.183622114000059, -7.649732725999968 ], [ 112.183599331000096, -7.649793148999947 ], [ 112.183790506000037, -7.649869420999948 ], [ 112.183723797000084, -7.650028665999969 ], [ 112.183724470000016, -7.650028943999928 ], [ 112.183633485000087, -7.650258246999954 ], [ 112.183628273000068, -7.650256294999963 ], [ 112.183463999000082, -7.650206423999975 ], [ 112.183047897000051, -7.650169450999954 ], [ 112.183052942000018, -7.650157286999956 ], [ 112.182377688000088, -7.649858808999966 ], [ 112.182404412000096, -7.649782608999942 ] ] ] ] } },
{ "type": "Feature", "properties": { "fid": 6927, "kk": null, "gid": 0.0, "bstt": null, "luas": 27202.354281255306, "bsbtt": null, "idsls": "35061500080016", "kdkab": "06", "kdkec": "150", "kdsls": "0016", "nmkab": "KEDIRI", "nmkec": "KUNJANG", "nmsls": "RT 004 RW 002 DUSUN JUWET", "bstt_k": null, "kddesa": "008", "kdprov": "35", "khusus": null, "muatan": null, "nmdesa": "JUWET", "nmprov": "JAWA TIMUR", "posisi": null, "rw_dki": null, "segmen": null, "subsls": null, "sumber": null, "dom_sls": null, "periode": "2025_1", "tingkat": null, "idsubsls": "3506150008001600", "nm_gedung": null, "wil_campur": null, "iddesa": "3506150008", "kdsubsls": "00" }, "geometry": { "type": "MultiPolygon", "coordinates": [ [ [ [ 112.182520418000081, -7.652225782999949 ], [ 112.182621620000077, -7.651908809999952 ], [ 112.182595866000042, -7.651896922999981 ], [ 112.182641431000093, -7.651763199999948 ], [ 112.18258602700007, -7.651750058999937 ], [ 112.182469331000107, -7.651712347999933 ], [ 112.18273423200003, -7.650954019999972 ], [ 112.182731798000077, -7.650931498999967 ], [ 112.183047897000051, -7.650169450999954 ], [ 112.183463999000082, -7.650206423999975 ], [ 112.183628273000068, -7.650256294999963 ], [ 112.183633485000087, -7.650258246999954 ], [ 112.183975937000014, -7.650386500999957 ], [ 112.183894714000076, -7.65055255599998 ], [ 112.184374347000016, -7.650770570999953 ], [ 112.184023945000035, -7.651370018999955 ], [ 112.183862106000106, -7.651678815999958 ], [ 112.183774721000077, -7.65190073399998 ], [ 112.183764536000012, -7.651916945999972 ], [ 112.183523509000111, -7.651832490999936 ], [ 112.183503698000095, -7.651894895999931 ], [ 112.183219934000022, -7.651795961999937 ], [ 112.183086981000088, -7.651745804999962 ], [ 112.183042583000088, -7.651904215999934 ], [ 112.182988955000042, -7.651884634999931 ], [ 112.182926645000066, -7.652049311999974 ], [ 112.182750824000095, -7.652006222999944 ], [ 112.182711697000059, -7.651994583999965 ], [ 112.182622451000043, -7.652274091999971 ], [ 112.18258886000001, -7.652258189999941 ], [ 112.182573123000111, -7.652250738999953 ], [ 112.182520418000081, -7.652225782999949 ] ] ] ] } },
{ "type": "Feature", "properties": { "fid": 6928, "kk": null, "gid": 0.0, "bstt": null, "luas": 17747.443233512029, "bsbtt": null, "idsls": "35061500080020", "kdkab": "06", "kdkec": "150", "kdsls": "0020", "nmkab": "KEDIRI", "nmkec": "KUNJANG", "nmsls": "RT 002 RW 001 DUSUN NGLEREP", "bstt_k": null, "kddesa": "008", "kdprov": "35", "khusus": null, "muatan": null, "nmdesa": "JUWET", "nmprov": "JAWA TIMUR", "posisi": null, "rw_dki": null, "segmen": null, "subsls": null, "sumber": null, "dom_sls": null, "periode": "2025_1", "tingkat": null, "idsubsls": "3506150008002000", "nm_gedung": null, "wil_campur": null, "iddesa": "3506150008", "kdsubsls": "00" }, "geometry": { "type": "MultiPolygon", "coordinates": [ [ [ [ 112.181066376000103, -7.648334960999932 ], [ 112.18097995100004, -7.648291376999964 ], [ 112.180925626000089, -7.648391373999971 ], [ 112.180925382000055, -7.648391247999939 ], [ 112.180791439000018, -7.648623308999959 ], [ 112.180661182000108, -7.648552980999966 ], [ 112.18075994700007, -7.648354483999981 ], [ 112.180635710000047, -7.648302798999964 ], [ 112.180646634000027, -7.648286176999932 ], [ 112.180612955000015, -7.648267355999963 ], [ 112.180631776000041, -7.648226743999942 ], [ 112.180418983000095, -7.64812717999996 ], [ 112.180541235000078, -7.647894291999933 ], [ 112.180602785000019, -7.647757727999931 ], [ 112.180704054000103, -7.647804745999963 ], [ 112.181024851000075, -7.647145760999933 ], [ 112.182103229000063, -7.647698268999932 ], [ 112.181932223000103, -7.648148151999976 ], [ 112.181913197000085, -7.648140155999954 ], [ 112.181839185000058, -7.648324718999959 ], [ 112.181731877000061, -7.648276754999927 ], [ 112.181657779000034, -7.648464468999975 ], [ 112.181583731000046, -7.64853656799994 ], [ 112.181535279000059, -7.648662889999969 ], [ 112.18138503900002, -7.64861130099996 ], [ 112.18137764100004, -7.648625231999972 ], [ 112.18101466600001, -7.648437439999952 ], [ 112.181066376000103, -7.648334960999932 ] ] ] ] } },
{ "type": "Feature", "properties": { "fid": 6929, "kk": null, "gid": 0.0, "bstt": null, "luas": 27232.309722975333, "bsbtt": null, "idsls": "35061500080021", "kdkab": "06", "kdkec": "150", "kdsls": "0021", "nmkab": "KEDIRI", "nmkec": "KUNJANG", "nmsls": "RT 003 RW 002 DUSUN NGLEREP", "bstt_k": null, "kddesa": "008", "kdprov": "35", "khusus": null, "muatan": null, "nmdesa": "JUWET", "nmprov": "JAWA TIMUR", "posisi": null, "rw_dki": null, "segmen": null, "subsls": null, "sumber": null, "dom_sls": null, "periode": "2025_1", "tingkat": null, "idsubsls": "3506150008002100", "nm_gedung": null, "wil_campur": null, "iddesa": "3506150008", "kdsubsls": "00" }, "geometry": { "type": "MultiPolygon", "coordinates": [ [ [ [ 112.182728662000045, -7.648564744999931 ], [ 112.182479656000055, -7.649163076999969 ], [ 112.182256301000052, -7.649070821999942 ], [ 112.182043252000085, -7.649555378999935 ], [ 112.182045234000043, -7.649556078999979 ], [ 112.182032746, -7.649570537999978 ], [ 112.182005408, -7.64964181199997 ], [ 112.181949541000108, -7.649787466999953 ], [ 112.181773168000063, -7.650186232999943 ], [ 112.18175790500004, -7.650200868999946 ], [ 112.180962907000094, -7.649805473999947 ], [ 112.180902145, -7.649775253999962 ], [ 112.181086795000056, -7.649261814999932 ], [ 112.181086062000077, -7.649261601999967 ], [ 112.181176968000045, -7.649008766999941 ], [ 112.181178653000075, -7.649009305999925 ], [ 112.181191432000105, -7.64898454799993 ], [ 112.181173602000058, -7.648978603999979 ], [ 112.181250369000054, -7.648761179999951 ], [ 112.181301048000023, -7.64876946399994 ], [ 112.18137764100004, -7.648625231999972 ], [ 112.18138503900002, -7.64861130099996 ], [ 112.181535279000059, -7.648662889999969 ], [ 112.181583731000046, -7.64853656799994 ], [ 112.181657779000034, -7.648464468999975 ], [ 112.181731877000061, -7.648276754999927 ], [ 112.181839185000058, -7.648324718999959 ], [ 112.181913197000085, -7.648140155999954 ], [ 112.181932223000103, -7.648148151999976 ], [ 112.182103229000063, -7.647698268999932 ], [ 112.182691465000062, -7.647999651999953 ], [ 112.182507951000048, -7.648480756999959 ], [ 112.182728662000045, -7.648564744999931 ] ] ] ] } },
{ "type": "Feature", "properties": { "fid": 6930, "kk": null, "gid": 0.0, "bstt": null, "luas": 34198.924083569815, "bsbtt": null, "idsls": "35061500080019", "kdkab": "06", "kdkec": "150", "kdsls": "0019", "nmkab": "KEDIRI", "nmkec": "KUNJANG", "nmsls": "RT 001 RW 001 DUSUN NGLEREP", "bstt_k": null, "kddesa": "008", "kdprov": "35", "khusus": null, "muatan": null, "nmdesa": "JUWET", "nmprov": "JAWA TIMUR", "posisi": null, "rw_dki": null, "segmen": null, "subsls": null, "sumber": null, "dom_sls": null, "periode": "2025_1", "tingkat": null, "idsubsls": "3506150008001900", "nm_gedung": null, "wil_campur": null, "iddesa": "3506150008", "kdsubsls": "00" }, "geometry": { "type": "MultiPolygon", "coordinates": [ [ [ [ 112.179899634000094, -7.646562357999926 ], [ 112.17989731900002, -7.646568067999965 ], [ 112.180917996000062, -7.647091012999965 ], [ 112.180967912000028, -7.64711658799996 ], [ 112.181024851000075, -7.647145760999933 ], [ 112.180704054000103, -7.647804745999963 ], [ 112.180602785000019, -7.647757727999931 ], [ 112.180541235000078, -7.647894291999933 ], [ 112.180418983000095, -7.64812717999996 ], [ 112.180377819000114, -7.648205595999968 ], [ 112.180198859000029, -7.648132395999937 ], [ 112.180172220000031, -7.648082525999939 ], [ 112.180015345000015, -7.648035587999971 ], [ 112.179902869000102, -7.647991584999943 ], [ 112.179784473000041, -7.647915311999952 ], [ 112.179689919000111, -7.647881057999939 ], [ 112.179637240000034, -7.64798873899997 ], [ 112.179340380000099, -7.64787456199997 ], [ 112.17934979000006, -7.647844039999939 ], [ 112.17934949000005, -7.647843899999941 ], [ 112.179333064000048, -7.647836274999975 ], [ 112.178157724000016, -7.647290664999957 ], [ 112.17822422100005, -7.647122933999981 ], [ 112.177612565000118, -7.646823046999941 ], [ 112.177685687, -7.646637992999956 ], [ 112.178060692000031, -7.64679259299993 ], [ 112.178146693000031, -7.646583670999973 ], [ 112.178189589000112, -7.64660116999994 ], [ 112.178189827000097, -7.646600703999979 ], [ 112.178275664000012, -7.646632972999953 ], [ 112.178201666000064, -7.646850057999927 ], [ 112.178537875000075, -7.647022129999925 ], [ 112.178643314000055, -7.646713188999968 ], [ 112.178666250000106, -7.646721346999925 ], [ 112.178666371000077, -7.646720979999941 ], [ 112.178923882000049, -7.64680018699994 ], [ 112.178811406000023, -7.647114079999938 ], [ 112.179074355000012, -7.647245146999978 ], [ 112.179433734000099, -7.646449269999948 ], [ 112.179678100000046, -7.646552087999964 ], [ 112.179678656000078, -7.646550832999935 ], [ 112.179802972000061, -7.646588968999936 ], [ 112.179899634000094, -7.646562357999926 ] ] ] ] } },
{ "type": "Feature", "properties": { "fid": 6931, "kk": null, "gid": 0.0, "bstt": null, "luas": 209340.18095709197, "bsbtt": null, "idsls": "35061500081002", "kdkab": "06", "kdkec": "150", "kdsls": "1002", "nmkab": "KEDIRI", "nmkec": "KUNJANG", "nmsls": "PERSAWAHAN SAMBONG", "bstt_k": null, "kddesa": "008", "kdprov": "35", "khusus": null, "muatan": null, "nmdesa": "JUWET", "nmprov": "JAWA TIMUR", "posisi": null, "rw_dki": null, "segmen": null, "subsls": null, "sumber": null, "dom_sls": null, "periode": "2025_1", "tingkat": null, "idsubsls": "3506150008100200", "nm_gedung": null, "wil_campur": null, "iddesa": "3506150008", "kdsubsls": "00" }, "geometry": { "type": "MultiPolygon", "coordinates": [ [ [ [ 112.190867128000036, -7.661470552999958 ], [ 112.19031378000011, -7.661304860999962 ], [ 112.190187230000106, -7.66110268999995 ], [ 112.189617570000109, -7.660218609999959 ], [ 112.18918478, -7.659486189999939 ], [ 112.189168471000016, -7.659569526999974 ], [ 112.188294, -7.658371895999949 ], [ 112.188311364000015, -7.65832996599994 ], [ 112.189550581000049, -7.655337385999928 ], [ 112.189554918000113, -7.655326913999943 ], [ 112.191459659000088, -7.656172240999979 ], [ 112.191761580000048, -7.656306233999942 ], [ 112.192304665000052, -7.656547255999953 ], [ 112.192291707000095, -7.656582607999951 ], [ 112.192029394000087, -7.657298233999938 ], [ 112.191831081000032, -7.657711857999971 ], [ 112.191730444000086, -7.65827509099995 ], [ 112.191848840000034, -7.658474568999964 ], [ 112.191810362000069, -7.65870924799998 ], [ 112.193419341000094, -7.659088920999977 ], [ 112.193239620000099, -7.659638069999971 ], [ 112.193099620000112, -7.65999807999998 ], [ 112.193092660000048, -7.659996829999955 ], [ 112.192887580000047, -7.660747579999963 ], [ 112.192881760000091, -7.660745929999962 ], [ 112.192877406000093, -7.660744690999934 ], [ 112.19202938, -7.660503439999957 ], [ 112.192018290000078, -7.660533029999954 ], [ 112.191592890000038, -7.660399869999935 ], [ 112.191504110000096, -7.660547829999928 ], [ 112.191400540000018, -7.660725389999925 ], [ 112.191296960000045, -7.660784569999976 ], [ 112.191248880000103, -7.660817859999952 ], [ 112.191215580000062, -7.660895549999964 ], [ 112.191145300000017, -7.660999119999929 ], [ 112.191093510000087, -7.660988019999934 ], [ 112.191030630000114, -7.661032409999962 ], [ 112.191008430000011, -7.661087899999927 ], [ 112.190960340000061, -7.661280249999948 ], [ 112.190901160000067, -7.661394919999964 ], [ 112.190867128000036, -7.661470552999958 ] ] ] ] } }
]
}
