{
"type": "FeatureCollection",
"name": "iddesa_3506150009",
"crs": { "type": "name", "properties": { "name": "urn:ogc:def:crs:OGC:1.3:CRS84" } },
"features": [
{ "type": "Feature", "properties": { "fid": 6932, "kk": null, "gid": 0.0, "bstt": null, "luas": 6320.9834500439465, "bsbtt": null, "idsls": "35061500090030", "kdkab": "06", "kdkec": "150", "kdsls": "0030", "nmkab": "KEDIRI", "nmkec": "KUNJANG", "nmsls": "RT 005 RW 001 DUSUN PLOSOREJO", "bstt_k": null, "kddesa": "009", "kdprov": "35", "khusus": null, "muatan": null, "nmdesa": "KUNJANG", "nmprov": "JAWA TIMUR", "posisi": null, "rw_dki": null, "segmen": null, "subsls": null, "sumber": null, "dom_sls": null, "periode": "2025_1", "tingkat": null, "idsubsls": "3506150009003000", "nm_gedung": null, "wil_campur": null, "iddesa": "3506150009", "kdsubsls": "00" }, "geometry": { "type": "MultiPolygon", "coordinates": [ [ [ [ 112.168046730000015, -7.650974533999943 ], [ 112.167677666000031, -7.650892258999932 ], [ 112.167405242000086, -7.65082801899996 ], [ 112.167611302000068, -7.650055291999934 ], [ 112.16825803200004, -7.650252015999968 ], [ 112.168046730000015, -7.650974533999943 ] ] ] ] } },
{ "type": "Feature", "properties": { "fid": 6933, "kk": null, "gid": 0.0, "bstt": null, "luas": 7238.3360216248693, "bsbtt": null, "idsls": "35061500090031", "kdkab": "06", "kdkec": "150", "kdsls": "0031", "nmkab": "KEDIRI", "nmkec": "KUNJANG", "nmsls": "RT 001 RW 002 DUSUN PLOSOREJO", "bstt_k": null, "kddesa": "009", "kdprov": "35", "khusus": null, "muatan": null, "nmdesa": "KUNJANG", "nmprov": "JAWA TIMUR", "posisi": null, "rw_dki": null, "segmen": null, "subsls": null, "sumber": null, "dom_sls": null, "periode": "2025_1", "tingkat": null, "idsubsls": "3506150009003100", "nm_gedung": null, "wil_campur": null, "iddesa": "3506150009", "kdsubsls": "00" }, "geometry": { "type": "MultiPolygon", "coordinates": [ [ [ [ 112.168046730000015, -7.650974533999943 ], [ 112.168033760000071, -7.651018882999949 ], [ 112.168027480000092, -7.651040355999953 ], [ 112.167802322000057, -7.651890563999928 ], [ 112.167801505000057, -7.651890315999935 ], [ 112.16780076100008, -7.651892864999979 ], [ 112.167200943000012, -7.651715226999954 ], [ 112.167403176000107, -7.650863851999929 ], [ 112.167396204000056, -7.650861909999946 ], [ 112.167405242000086, -7.65082801899996 ], [ 112.167677666000031, -7.650892258999932 ], [ 112.168046730000015, -7.650974533999943 ] ] ] ] } },
{ "type": "Feature", "properties": { "fid": 6934, "kk": null, "gid": 0.0, "bstt": null, "luas": 17060.422187172924, "bsbtt": null, "idsls": "35061500090020", "kdkab": "06", "kdkec": "150", "kdsls": "0020", "nmkab": "KEDIRI", "nmkec": "KUNJANG", "nmsls": "RT 003 RW 001 DUSUN TANJUNG", "bstt_k": null, "kddesa": "009", "kdprov": "35", "khusus": null, "muatan": null, "nmdesa": "KUNJANG", "nmprov": "JAWA TIMUR", "posisi": null, "rw_dki": null, "segmen": null, "subsls": null, "sumber": null, "dom_sls": null, "periode": "2025_1", "tingkat": null, "idsubsls": "3506150009002000", "nm_gedung": null, "wil_campur": null, "iddesa": "3506150009", "kdsubsls": "00" }, "geometry": { "type": "MultiPolygon", "coordinates": [ [ [ [ 112.159775943000113, -7.655364625999937 ], [ 112.159708974000068, -7.655343697999967 ], [ 112.15972780900006, -7.655291377999959 ], [ 112.159706101000097, -7.655274777999978 ], [ 112.159911906000048, -7.654747976999943 ], [ 112.159913440000082, -7.654744049999977 ], [ 112.160148352000078, -7.65482831199995 ], [ 112.160482847000026, -7.654953427999942 ], [ 112.160888836000026, -7.655119398999943 ], [ 112.161223330000098, -7.655190893999929 ], [ 112.161630870000067, -7.655249814999934 ], [ 112.161513755000101, -7.65575675599996 ], [ 112.161565146000044, -7.655766701999937 ], [ 112.161497818000043, -7.656030074999933 ], [ 112.161453461000065, -7.65601774199996 ], [ 112.1604661, -7.655743215999962 ], [ 112.159731093, -7.655538853999929 ], [ 112.159775943000113, -7.655364625999937 ] ] ] ] } },
{ "type": "Feature", "properties": { "fid": 6935, "kk": null, "gid": 0.0, "bstt": null, "luas": 8573.2165869257879, "bsbtt": null, "idsls": "35061500090021", "kdkab": "06", "kdkec": "150", "kdsls": "0021", "nmkab": "KEDIRI", "nmkec": "KUNJANG", "nmsls": "RT 004 RW 001 DUSUN TANJUNG", "bstt_k": null, "kddesa": "009", "kdprov": "35", "khusus": null, "muatan": null, "nmdesa": "KUNJANG", "nmprov": "JAWA TIMUR", "posisi": null, "rw_dki": null, "segmen": null, "subsls": null, "sumber": null, "dom_sls": null, "periode": "2025_1", "tingkat": null, "idsubsls": "3506150009002100", "nm_gedung": null, "wil_campur": null, "iddesa": "3506150009", "kdsubsls": "00" }, "geometry": { "type": "MultiPolygon", "coordinates": [ [ [ [ 112.161453461000065, -7.65601774199996 ], [ 112.161497818000043, -7.656030074999933 ], [ 112.161506252000095, -7.656032419999974 ], [ 112.161451859000067, -7.656217356999946 ], [ 112.161491436, -7.656232676999934 ], [ 112.161455689000036, -7.656348856999955 ], [ 112.161419941000077, -7.656340876999934 ], [ 112.16130046100011, -7.656699316999948 ], [ 112.161206510000056, -7.656661379999946 ], [ 112.160454280000067, -7.656357639999953 ], [ 112.160271636000061, -7.656280849999973 ], [ 112.1604661, -7.655743215999962 ], [ 112.161453461000065, -7.65601774199996 ] ] ] ] } },
{ "type": "Feature", "properties": { "fid": 6936, "kk": null, "gid": 0.0, "bstt": null, "luas": 20940.60760243937, "bsbtt": null, "idsls": "35061500090028", "kdkab": "06", "kdkec": "150", "kdsls": "0028", "nmkab": "KEDIRI", "nmkec": "KUNJANG", "nmsls": "RT 003 RW 001 DUSUN PLOSOREJO", "bstt_k": null, "kddesa": "009", "kdprov": "35", "khusus": null, "muatan": null, "nmdesa": "KUNJANG", "nmprov": "JAWA TIMUR", "posisi": null, "rw_dki": null, "segmen": null, "subsls": null, "sumber": null, "dom_sls": null, "periode": "2025_1", "tingkat": null, "idsubsls": "3506150009002800", "nm_gedung": null, "wil_campur": null, "iddesa": "3506150009", "kdsubsls": "00" }, "geometry": { "type": "MultiPolygon", "coordinates": [ [ [ [ 112.166853246000073, -7.648888041999953 ], [ 112.167251570000076, -7.649007212999948 ], [ 112.167178193000041, -7.649276396999937 ], [ 112.167181963000075, -7.64927761499996 ], [ 112.167024828000081, -7.649857964999967 ], [ 112.167612554000016, -7.650050596999961 ], [ 112.167611302000068, -7.650055291999934 ], [ 112.167405242000086, -7.65082801899996 ], [ 112.167396204000056, -7.650861909999946 ], [ 112.166398627000035, -7.650584031999927 ], [ 112.166455931000087, -7.650291141999958 ], [ 112.166100369000105, -7.650176707999947 ], [ 112.166102658000113, -7.650169946999938 ], [ 112.166074834000028, -7.650137129999962 ], [ 112.165656754000111, -7.649992821999945 ], [ 112.165836520000084, -7.649560722999979 ], [ 112.165925579000032, -7.649585460999958 ], [ 112.165937123000049, -7.649549177999972 ], [ 112.166588130000036, -7.649755949999928 ], [ 112.166619285000024, -7.649631840999973 ], [ 112.166627198000015, -7.649634293999952 ], [ 112.166773765000016, -7.649145738999948 ], [ 112.166774959, -7.649146124999959 ], [ 112.166853246000073, -7.648888041999953 ] ] ] ] } },
{ "type": "Feature", "properties": { "fid": 6937, "kk": null, "gid": 0.0, "bstt": null, "luas": 9369.3772605613922, "bsbtt": null, "idsls": "35061500090004", "kdkab": "06", "kdkec": "150", "kdsls": "0004", "nmkab": "KEDIRI", "nmkec": "KUNJANG", "nmsls": "RT 004 RW 001 DUSUN KUNJANG KIDUL", "bstt_k": null, "kddesa": "009", "kdprov": "35", "khusus": null, "muatan": null, "nmdesa": "KUNJANG", "nmprov": "JAWA TIMUR", "posisi": null, "rw_dki": null, "segmen": null, "subsls": null, "sumber": null, "dom_sls": null, "periode": "2025_1", "tingkat": null, "idsubsls": "3506150009000400", "nm_gedung": null, "wil_campur": null, "iddesa": "3506150009", "kdsubsls": "00" }, "geometry": { "type": "MultiPolygon", "coordinates": [ [ [ [ 112.155589668000061, -7.655027568999969 ], [ 112.15558352700009, -7.655053009999961 ], [ 112.156050797000034, -7.655208766999976 ], [ 112.156040584000039, -7.655245471999933 ], [ 112.156169530000057, -7.655281219999949 ], [ 112.156141443000024, -7.655375694999975 ], [ 112.156306136000012, -7.65543314699994 ], [ 112.1563316700001, -7.655365481999979 ], [ 112.156403165000029, -7.655387823999945 ], [ 112.156795111000065, -7.655512939999937 ], [ 112.156733829000018, -7.655686570999933 ], [ 112.1566470140001, -7.655668696999953 ], [ 112.156573927000068, -7.655900559999964 ], [ 112.156312685000103, -7.65582349999994 ], [ 112.155795458000057, -7.655670930999975 ], [ 112.155813332000093, -7.65561986299997 ], [ 112.155213712000091, -7.655429935999962 ], [ 112.155005183000071, -7.655363885999975 ], [ 112.155009279000069, -7.655354039999963 ], [ 112.155159233000063, -7.654993593999961 ], [ 112.155183433000047, -7.654935423999973 ], [ 112.155589668000061, -7.655027568999969 ] ] ] ] } },
{ "type": "Feature", "properties": { "fid": 6938, "kk": null, "gid": 0.0, "bstt": null, "luas": 10383.748340221471, "bsbtt": null, "idsls": "35061500090019", "kdkab": "06", "kdkec": "150", "kdsls": "0019", "nmkab": "KEDIRI", "nmkec": "KUNJANG", "nmsls": "RT 002 RW 001 DUSUN TANJUNG", "bstt_k": null, "kddesa": "009", "kdprov": "35", "khusus": null, "muatan": null, "nmdesa": "KUNJANG", "nmprov": "JAWA TIMUR", "posisi": null, "rw_dki": null, "segmen": null, "subsls": null, "sumber": null, "dom_sls": null, "periode": "2025_1", "tingkat": null, "idsubsls": "3506150009001900", "nm_gedung": null, "wil_campur": null, "iddesa": "3506150009", "kdsubsls": "00" }, "geometry": { "type": "MultiPolygon", "coordinates": [ [ [ [ 112.158651187000032, -7.655238596999936 ], [ 112.159615491000068, -7.655506711999976 ], [ 112.159731093, -7.655538853999929 ], [ 112.1604661, -7.655743215999962 ], [ 112.160271636000061, -7.656280849999973 ], [ 112.159450300000117, -7.655935529999965 ], [ 112.15935305000005, -7.655894639999929 ], [ 112.159110962000113, -7.655790510999964 ], [ 112.158517467000024, -7.655535230999931 ], [ 112.158649511000021, -7.655238130999976 ], [ 112.158651187000032, -7.655238596999936 ] ] ] ] } },
{ "type": "Feature", "properties": { "fid": 6939, "kk": null, "gid": 0.0, "bstt": null, "luas": 22827.155685894366, "bsbtt": null, "idsls": "35061500090029", "kdkab": "06", "kdkec": "150", "kdsls": "0029", "nmkab": "KEDIRI", "nmkec": "KUNJANG", "nmsls": "RT 004 RW 001 DUSUN PLOSOREJO", "bstt_k": null, "kddesa": "009", "kdprov": "35", "khusus": null, "muatan": null, "nmdesa": "KUNJANG", "nmprov": "JAWA TIMUR", "posisi": null, "rw_dki": null, "segmen": null, "subsls": null, "sumber": null, "dom_sls": null, "periode": "2025_1", "tingkat": null, "idsubsls": "3506150009002900", "nm_gedung": null, "wil_campur": null, "iddesa": "3506150009", "kdsubsls": "00" }, "geometry": { "type": "MultiPolygon", "coordinates": [ [ [ [ 112.16919125700008, -7.649998564999976 ], [ 112.169194380000022, -7.649999848999926 ], [ 112.169188468000016, -7.650017258999981 ], [ 112.169028528000013, -7.650488295999935 ], [ 112.169025856000076, -7.650496163999946 ], [ 112.168261115000064, -7.650252953999939 ], [ 112.16825803200004, -7.650252015999968 ], [ 112.167611302000068, -7.650055291999934 ], [ 112.167612554000016, -7.650050596999961 ], [ 112.167024828000081, -7.649857964999967 ], [ 112.167181963000075, -7.64927761499996 ], [ 112.167178193000041, -7.649276396999937 ], [ 112.167251570000076, -7.649007212999948 ], [ 112.16725236100001, -7.649004312999978 ], [ 112.167894737000097, -7.649211291999961 ], [ 112.168723476000082, -7.649478260999956 ], [ 112.169266898000046, -7.649644833999957 ], [ 112.169247072000076, -7.649721507999971 ], [ 112.16919125700008, -7.649998564999976 ] ] ] ] } },
{ "type": "Feature", "properties": { "fid": 6940, "kk": null, "gid": 0.0, "bstt": null, "luas": 17151.704522083397, "bsbtt": null, "idsls": "35061500090001", "kdkab": "06", "kdkec": "150", "kdsls": "0001", "nmkab": "KEDIRI", "nmkec": "KUNJANG", "nmsls": "RT 001 RW 001 DUSUN KUNJANG KIDUL", "bstt_k": null, "kddesa": "009", "kdprov": "35", "khusus": null, "muatan": null, "nmdesa": "KUNJANG", "nmprov": "JAWA TIMUR", "posisi": null, "rw_dki": null, "segmen": null, "subsls": null, "sumber": null, "dom_sls": null, "periode": "2025_1", "tingkat": null, "idsubsls": "3506150009000100", "nm_gedung": null, "wil_campur": null, "iddesa": "3506150009", "kdsubsls": "00" }, "geometry": { "type": "MultiPolygon", "coordinates": [ [ [ [ 112.158229452000114, -7.655428223999934 ], [ 112.158044690000111, -7.655810409999958 ], [ 112.15798755000003, -7.655928589999974 ], [ 112.157917460000021, -7.656087229999969 ], [ 112.157806780000101, -7.656183149999947 ], [ 112.157673970000019, -7.656341779999934 ], [ 112.15752176, -7.656405739999968 ], [ 112.157505480000054, -7.656412579999937 ], [ 112.157199900000023, -7.656541 ], [ 112.156770110000025, -7.656769729999951 ], [ 112.156688030000055, -7.656857569999943 ], [ 112.156645080000089, -7.656870139999967 ], [ 112.156358052000087, -7.65669543599995 ], [ 112.156838249000089, -7.655995437999934 ], [ 112.156843625000079, -7.655997445999958 ], [ 112.157377632000021, -7.655366572999981 ], [ 112.157379838000111, -7.655367396999964 ], [ 112.157605422000074, -7.655156211999952 ], [ 112.158229452000114, -7.655428223999934 ] ] ] ] } },
{ "type": "Feature", "properties": { "fid": 6941, "kk": null, "gid": 0.0, "bstt": null, "luas": 9124.7904008571932, "bsbtt": null, "idsls": "35061500090002", "kdkab": "06", "kdkec": "150", "kdsls": "0002", "nmkab": "KEDIRI", "nmkec": "KUNJANG", "nmsls": "RT 002 RW 001 DUSUN KUNJANG KIDUL", "bstt_k": null, "kddesa": "009", "kdprov": "35", "khusus": null, "muatan": null, "nmdesa": "KUNJANG", "nmprov": "JAWA TIMUR", "posisi": null, "rw_dki": null, "segmen": null, "subsls": null, "sumber": null, "dom_sls": null, "periode": "2025_1", "tingkat": null, "idsubsls": "3506150009000200", "nm_gedung": null, "wil_campur": null, "iddesa": "3506150009", "kdsubsls": "00" }, "geometry": { "type": "MultiPolygon", "coordinates": [ [ [ [ 112.156236695000075, -7.654944555999975 ], [ 112.156335316000082, -7.654977161999966 ], [ 112.157377632000021, -7.655366572999981 ], [ 112.156843625000079, -7.655997445999958 ], [ 112.156838249000089, -7.655995437999934 ], [ 112.156631694000112, -7.655918290999978 ], [ 112.156572966000113, -7.655903608999949 ], [ 112.156573927000068, -7.655900559999964 ], [ 112.1566470140001, -7.655668696999953 ], [ 112.156733829000018, -7.655686570999933 ], [ 112.156795111000065, -7.655512939999937 ], [ 112.156403165000029, -7.655387823999945 ], [ 112.1563316700001, -7.655365481999979 ], [ 112.156306136000012, -7.65543314699994 ], [ 112.156141443000024, -7.655375694999975 ], [ 112.156169530000057, -7.655281219999949 ], [ 112.156040584000039, -7.655245471999933 ], [ 112.156050797000034, -7.655208766999976 ], [ 112.15558352700009, -7.655053009999961 ], [ 112.155589668000061, -7.655027568999969 ], [ 112.15559629400002, -7.655029071999934 ], [ 112.155667338000057, -7.65475631299995 ], [ 112.156236695000075, -7.654944555999975 ] ] ] ] } },
{ "type": "Feature", "properties": { "fid": 6942, "kk": null, "gid": 0.0, "bstt": null, "luas": 27576.311345169284, "bsbtt": null, "idsls": "35061500090005", "kdkab": "06", "kdkec": "150", "kdsls": "0005", "nmkab": "KEDIRI", "nmkec": "KUNJANG", "nmsls": "RT 005 RW 001 DUSUN KUNJANG KIDUL", "bstt_k": null, "kddesa": "009", "kdprov": "35", "khusus": null, "muatan": null, "nmdesa": "KUNJANG", "nmprov": "JAWA TIMUR", "posisi": null, "rw_dki": null, "segmen": null, "subsls": null, "sumber": null, "dom_sls": null, "periode": "2025_1", "tingkat": null, "idsubsls": "3506150009000500", "nm_gedung": null, "wil_campur": null, "iddesa": "3506150009", "kdsubsls": "00" }, "geometry": { "type": "MultiPolygon", "coordinates": [ [ [ [ 112.153242288000115, -7.65398683199993 ], [ 112.15311822700005, -7.654410512999959 ], [ 112.153595711000094, -7.654640317999963 ], [ 112.153856157000064, -7.654716919999942 ], [ 112.1538740310001, -7.654644148999978 ], [ 112.153887489000113, -7.654648002999977 ], [ 112.15392835800003, -7.654535941999939 ], [ 112.154341239000019, -7.65465742799995 ], [ 112.154320938000069, -7.654710353999974 ], [ 112.155159233000063, -7.654993593999961 ], [ 112.155009279000069, -7.655354039999963 ], [ 112.154232782, -7.655090991999941 ], [ 112.153489746000105, -7.654868846999932 ], [ 112.153370027000051, -7.655194144999939 ], [ 112.153338158000111, -7.655280737999931 ], [ 112.153237444000069, -7.655554393999978 ], [ 112.153236960000072, -7.655555708999941 ], [ 112.152051318000076, -7.655185195999934 ], [ 112.152052400000116, -7.655181719999973 ], [ 112.152058390000093, -7.655162479999944 ], [ 112.152078650000021, -7.65509738999998 ], [ 112.152100150000024, -7.655025719999969 ], [ 112.152100790000077, -7.655023609999944 ], [ 112.152140130000021, -7.654915849999952 ], [ 112.152185640000084, -7.654791189999969 ], [ 112.152327210000067, -7.654347009999981 ], [ 112.152371985000059, -7.654206540999951 ], [ 112.152514326000073, -7.653759982999929 ], [ 112.153242288000115, -7.65398683199993 ] ] ] ] } },
{ "type": "Feature", "properties": { "fid": 6943, "kk": null, "gid": 0.0, "bstt": null, "luas": 35603.695864859306, "bsbtt": null, "idsls": "35061500090006", "kdkab": "06", "kdkec": "150", "kdsls": "0006", "nmkab": "KEDIRI", "nmkec": "KUNJANG", "nmsls": "RT 001 RW 002 DUSUN KUNJANG KIDUL", "bstt_k": null, "kddesa": "009", "kdprov": "35", "khusus": null, "muatan": null, "nmdesa": "KUNJANG", "nmprov": "JAWA TIMUR", "posisi": null, "rw_dki": null, "segmen": null, "subsls": null, "sumber": null, "dom_sls": null, "periode": "2025_1", "tingkat": null, "idsubsls": "3506150009000600", "nm_gedung": null, "wil_campur": null, "iddesa": "3506150009", "kdsubsls": "00" }, "geometry": { "type": "MultiPolygon", "coordinates": [ [ [ [ 112.156346179000025, -7.656706998999937 ], [ 112.156157980000103, -7.656941942999936 ], [ 112.156112420000113, -7.656998819999956 ], [ 112.156026050000037, -7.657106649999946 ], [ 112.1560229480001, -7.657110521999925 ], [ 112.155988340000022, -7.65715371999994 ], [ 112.155155670000113, -7.658193209999979 ], [ 112.155195730000059, -7.658215189999964 ], [ 112.155288270000028, -7.658265959999937 ], [ 112.155154830000015, -7.658498369999961 ], [ 112.155091810000044, -7.658608149999964 ], [ 112.155091770000013, -7.658608219999962 ], [ 112.154966262000016, -7.658826829999953 ], [ 112.154902809000077, -7.658937352999942 ], [ 112.154895370000077, -7.658950309999966 ], [ 112.154889084000047, -7.65894665299993 ], [ 112.154888142, -7.658948682999949 ], [ 112.154793570000038, -7.658891764999964 ], [ 112.154663029000062, -7.658813198999951 ], [ 112.154535359000079, -7.658976615999961 ], [ 112.153416974000038, -7.658128889999944 ], [ 112.153973613000062, -7.65774715799995 ], [ 112.154831553, -7.657147748999932 ], [ 112.155181841000058, -7.656903797999973 ], [ 112.15539671800002, -7.656754151999962 ], [ 112.155397129000107, -7.656754526999975 ], [ 112.155441813000039, -7.656730268999979 ], [ 112.155500541000038, -7.656709841999941 ], [ 112.155603954000071, -7.656691968999951 ], [ 112.155660537000017, -7.656475063999949 ], [ 112.156200171000023, -7.656621111999925 ], [ 112.156346179000025, -7.656706998999937 ] ] ] ] } },
{ "type": "Feature", "properties": { "fid": 6944, "kk": null, "gid": 0.0, "bstt": null, "luas": 9825.1087717207265, "bsbtt": null, "idsls": "35061500090008", "kdkab": "06", "kdkec": "150", "kdsls": "0008", "nmkab": "KEDIRI", "nmkec": "KUNJANG", "nmsls": "RT 003 RW 002 DUSUN KUNJANG KIDUL", "bstt_k": null, "kddesa": "009", "kdprov": "35", "khusus": null, "muatan": null, "nmdesa": "KUNJANG", "nmprov": "JAWA TIMUR", "posisi": null, "rw_dki": null, "segmen": null, "subsls": null, "sumber": null, "dom_sls": null, "periode": "2025_1", "tingkat": null, "idsubsls": "3506150009000800", "nm_gedung": null, "wil_campur": null, "iddesa": "3506150009", "kdsubsls": "00" }, "geometry": { "type": "MultiPolygon", "coordinates": [ [ [ [ 112.155009279000069, -7.655354039999963 ], [ 112.155005183000071, -7.655363885999975 ], [ 112.155213712000091, -7.655429935999962 ], [ 112.155017044000033, -7.655893323999976 ], [ 112.154997346000073, -7.655939735999937 ], [ 112.154453035000074, -7.655710994999936 ], [ 112.154452086000106, -7.655714850999971 ], [ 112.15411124100001, -7.655580787999952 ], [ 112.154157419000057, -7.655471937999948 ], [ 112.153707179000094, -7.655290934999925 ], [ 112.153370027000051, -7.655194144999939 ], [ 112.153489746000105, -7.654868846999932 ], [ 112.154232782, -7.655090991999941 ], [ 112.155009279000069, -7.655354039999963 ] ] ] ] } },
{ "type": "Feature", "properties": { "fid": 6945, "kk": null, "gid": 0.0, "bstt": null, "luas": 21449.398112351177, "bsbtt": null, "idsls": "35061500090009", "kdkab": "06", "kdkec": "150", "kdsls": "0009", "nmkab": "KEDIRI", "nmkec": "KUNJANG", "nmsls": "RT 004 RW 002 DUSUN KUNJANG KIDUL", "bstt_k": null, "kddesa": "009", "kdprov": "35", "khusus": null, "muatan": null, "nmdesa": "KUNJANG", "nmprov": "JAWA TIMUR", "posisi": null, "rw_dki": null, "segmen": null, "subsls": null, "sumber": null, "dom_sls": null, "periode": "2025_1", "tingkat": null, "idsubsls": "3506150009000900", "nm_gedung": null, "wil_campur": null, "iddesa": "3506150009", "kdsubsls": "00" }, "geometry": { "type": "MultiPolygon", "coordinates": [ [ [ [ 112.154452086000106, -7.655714850999971 ], [ 112.154453035000074, -7.655710994999936 ], [ 112.154997346000073, -7.655939735999937 ], [ 112.155017044000033, -7.655893323999976 ], [ 112.155214642000033, -7.655973768999957 ], [ 112.155227011000079, -7.655945731999964 ], [ 112.155607883000016, -7.656062358999975 ], [ 112.155612107000024, -7.656063651999943 ], [ 112.155535457000042, -7.656284727999946 ], [ 112.155536289000111, -7.656285021999963 ], [ 112.155491604000076, -7.656427372999929 ], [ 112.15564353100001, -7.656470461999959 ], [ 112.155660537000017, -7.656475063999949 ], [ 112.155603954000071, -7.656691968999951 ], [ 112.155500541000038, -7.656709841999941 ], [ 112.155441813000039, -7.656730268999979 ], [ 112.155397129000107, -7.656754526999975 ], [ 112.15539671800002, -7.656754151999962 ], [ 112.155181841000058, -7.656903797999973 ], [ 112.154034732000014, -7.656538166999951 ], [ 112.154193309000107, -7.655985573999942 ], [ 112.154114050000089, -7.655957868999963 ], [ 112.153302071000098, -7.65572231799996 ], [ 112.153342634000069, -7.655602881999926 ], [ 112.153348032000054, -7.655586987999925 ], [ 112.153237444000069, -7.655554393999978 ], [ 112.153338158000111, -7.655280737999931 ], [ 112.153370027000051, -7.655194144999939 ], [ 112.153707179000094, -7.655290934999925 ], [ 112.154157419000057, -7.655471937999948 ], [ 112.15411124100001, -7.655580787999952 ], [ 112.154452086000106, -7.655714850999971 ] ] ] ] } },
{ "type": "Feature", "properties": { "fid": 6946, "kk": null, "gid": 0.0, "bstt": null, "luas": 65287.478911115846, "bsbtt": null, "idsls": "35061500090010", "kdkab": "06", "kdkec": "150", "kdsls": "0010", "nmkab": "KEDIRI", "nmkec": "KUNJANG", "nmsls": "RT 001 RW 001 DUSUN KUNJANG LOR", "bstt_k": null, "kddesa": "009", "kdprov": "35", "khusus": null, "muatan": null, "nmdesa": "KUNJANG", "nmprov": "JAWA TIMUR", "posisi": null, "rw_dki": null, "segmen": null, "subsls": null, "sumber": null, "dom_sls": null, "periode": "2025_1", "tingkat": null, "idsubsls": "3506150009001000", "nm_gedung": null, "wil_campur": null, "iddesa": "3506150009", "kdsubsls": "00" }, "geometry": { "type": "MultiPolygon", "coordinates": [ [ [ [ 112.159596957000076, -7.650880574999974 ], [ 112.159598096000082, -7.650878214999977 ], [ 112.159600037000018, -7.650878847999934 ], [ 112.159958125000117, -7.650995670999976 ], [ 112.160025593000114, -7.651015682999969 ], [ 112.1595740140001, -7.652088805999938 ], [ 112.159581499000069, -7.652092352999944 ], [ 112.159198491000097, -7.652931141999943 ], [ 112.158654618000014, -7.654062293999971 ], [ 112.158781011000087, -7.654332315999966 ], [ 112.158839739000086, -7.654414023999948 ], [ 112.1589966680001, -7.654468345999931 ], [ 112.158721006000064, -7.655004495999947 ], [ 112.158651187000032, -7.655238596999936 ], [ 112.158649511000021, -7.655238130999976 ], [ 112.158517467000024, -7.655535230999931 ], [ 112.158512280000082, -7.655533 ], [ 112.158511400000066, -7.655534989999978 ], [ 112.158234380000067, -7.655418029999964 ], [ 112.158229452000114, -7.655428223999934 ], [ 112.157605422000074, -7.655156211999952 ], [ 112.157605174000082, -7.655156103999957 ], [ 112.157649859000117, -7.655045349999966 ], [ 112.157397461000073, -7.654927984999972 ], [ 112.157156717000021, -7.65483984399998 ], [ 112.157191788000091, -7.654739966999955 ], [ 112.157145564000075, -7.654722984999978 ], [ 112.156475299000022, -7.654434769999966 ], [ 112.156472166000071, -7.654433559999973 ], [ 112.156476387000112, -7.654424394999978 ], [ 112.156453219000014, -7.654414047999978 ], [ 112.156775570000036, -7.653571924999937 ], [ 112.156778154000108, -7.65357290999998 ], [ 112.156902210000112, -7.653264795999974 ], [ 112.15690354600008, -7.653261476999944 ], [ 112.156979830000068, -7.653299752999942 ], [ 112.157259190000104, -7.653419477999932 ], [ 112.157568150000088, -7.653575234999948 ], [ 112.157864344000018, -7.653858661999948 ], [ 112.157958726000061, -7.653948895999974 ], [ 112.158812252000075, -7.652050282999937 ], [ 112.158811243000059, -7.652049844999965 ], [ 112.158931541000015, -7.651761251999972 ], [ 112.158936060000087, -7.651762959999928 ], [ 112.159347176000097, -7.650802594999959 ], [ 112.159596957000076, -7.650880574999974 ] ] ] ] } },
{ "type": "Feature", "properties": { "fid": 6947, "kk": null, "gid": 0.0, "bstt": null, "luas": 7726.339364955099, "bsbtt": null, "idsls": "35061500090011", "kdkab": "06", "kdkec": "150", "kdsls": "0011", "nmkab": "KEDIRI", "nmkec": "KUNJANG", "nmsls": "RT 002 RW 001 DUSUN KUNJANG LOR", "bstt_k": null, "kddesa": "009", "kdprov": "35", "khusus": null, "muatan": null, "nmdesa": "KUNJANG", "nmprov": "JAWA TIMUR", "posisi": null, "rw_dki": null, "segmen": null, "subsls": null, "sumber": null, "dom_sls": null, "periode": "2025_1", "tingkat": null, "idsubsls": "3506150009001100", "nm_gedung": null, "wil_campur": null, "iddesa": "3506150009", "kdsubsls": "00" }, "geometry": { "type": "MultiPolygon", "coordinates": [ [ [ [ 112.156238556000062, -7.654941011999938 ], [ 112.156238471000052, -7.654940979999935 ], [ 112.156472166000071, -7.654433559999973 ], [ 112.156475299000022, -7.654434769999966 ], [ 112.157145564000075, -7.654722984999978 ], [ 112.157191788000091, -7.654739966999955 ], [ 112.157156717000021, -7.65483984399998 ], [ 112.157397461000073, -7.654927984999972 ], [ 112.157649859000117, -7.655045349999966 ], [ 112.157605174000082, -7.655156103999957 ], [ 112.157605422000074, -7.655156211999952 ], [ 112.157379838000111, -7.655367396999964 ], [ 112.157377632000021, -7.655366572999981 ], [ 112.156335316000082, -7.654977161999966 ], [ 112.156236695000075, -7.654944555999975 ], [ 112.156238556000062, -7.654941011999938 ] ] ] ] } },
{ "type": "Feature", "properties": { "fid": 6948, "kk": null, "gid": 0.0, "bstt": null, "luas": 14931.77343634763, "bsbtt": null, "idsls": "35061500090012", "kdkab": "06", "kdkec": "150", "kdsls": "0012", "nmkab": "KEDIRI", "nmkec": "KUNJANG", "nmsls": "RT 003 RW 001 DUSUN KUNJANG LOR", "bstt_k": null, "kddesa": "009", "kdprov": "35", "khusus": null, "muatan": null, "nmdesa": "KUNJANG", "nmprov": "JAWA TIMUR", "posisi": null, "rw_dki": null, "segmen": null, "subsls": null, "sumber": null, "dom_sls": null, "periode": "2025_1", "tingkat": null, "idsubsls": "3506150009001200", "nm_gedung": null, "wil_campur": null, "iddesa": "3506150009", "kdsubsls": "00" }, "geometry": { "type": "MultiPolygon", "coordinates": [ [ [ [ 112.155163603, -7.653836528999932 ], [ 112.155250414000079, -7.65387463199994 ], [ 112.155249671000092, -7.653876534999938 ], [ 112.156453219000014, -7.654414047999978 ], [ 112.156476387000112, -7.654424394999978 ], [ 112.156472166000071, -7.654433559999973 ], [ 112.156238471000052, -7.654940979999935 ], [ 112.156238556000062, -7.654941011999938 ], [ 112.156236695000075, -7.654944555999975 ], [ 112.155667338000057, -7.65475631299995 ], [ 112.154509346000054, -7.654373452999948 ], [ 112.154603185000042, -7.654118246999928 ], [ 112.154607543000111, -7.654106394999928 ], [ 112.154770391000056, -7.653663506999976 ], [ 112.154795167000088, -7.653674816999967 ], [ 112.155163603, -7.653836528999932 ] ] ] ] } },
{ "type": "Feature", "properties": { "fid": 6949, "kk": null, "gid": 0.0, "bstt": null, "luas": 24902.121698130009, "bsbtt": null, "idsls": "35061500090013", "kdkab": "06", "kdkec": "150", "kdsls": "0013", "nmkab": "KEDIRI", "nmkec": "KUNJANG", "nmsls": "RT 004 RW 001 DUSUN KUNJANG LOR", "bstt_k": null, "kddesa": "009", "kdprov": "35", "khusus": null, "muatan": null, "nmdesa": "KUNJANG", "nmprov": "JAWA TIMUR", "posisi": null, "rw_dki": null, "segmen": null, "subsls": null, "sumber": null, "dom_sls": null, "periode": "2025_1", "tingkat": null, "idsubsls": "3506150009001300", "nm_gedung": null, "wil_campur": null, "iddesa": "3506150009", "kdsubsls": "00" }, "geometry": { "type": "MultiPolygon", "coordinates": [ [ [ [ 112.156902210000112, -7.653264795999974 ], [ 112.156778154000108, -7.65357290999998 ], [ 112.156775570000036, -7.653571924999937 ], [ 112.156453219000014, -7.654414047999978 ], [ 112.155249671000092, -7.653876534999938 ], [ 112.155250414000079, -7.65387463199994 ], [ 112.155163603, -7.653836528999932 ], [ 112.155239402, -7.653694117999976 ], [ 112.155222660000049, -7.653684351999971 ], [ 112.155299395000043, -7.653500186999963 ], [ 112.155260330000033, -7.653490419999969 ], [ 112.155261709000115, -7.653486395999948 ], [ 112.155155308000076, -7.653444148999938 ], [ 112.155288774000041, -7.653018040999939 ], [ 112.155292816000042, -7.653019469999947 ], [ 112.155459540000038, -7.652448192999941 ], [ 112.155459540000038, -7.652428966999935 ], [ 112.155459540000038, -7.652428401999941 ], [ 112.155828968000037, -7.65256693699996 ], [ 112.156317141000045, -7.652966051999954 ], [ 112.156693166000082, -7.653180451999958 ], [ 112.156902210000112, -7.653264795999974 ] ] ] ] } },
{ "type": "Feature", "properties": { "fid": 6950, "kk": null, "gid": 0.0, "bstt": null, "luas": 10776.69008874782, "bsbtt": null, "idsls": "35061500090017", "kdkab": "06", "kdkec": "150", "kdsls": "0017", "nmkab": "KEDIRI", "nmkec": "KUNJANG", "nmsls": "RT 004 RW 002 DUSUN KUNJANG LOR", "bstt_k": null, "kddesa": "009", "kdprov": "35", "khusus": null, "muatan": null, "nmdesa": "KUNJANG", "nmprov": "JAWA TIMUR", "posisi": null, "rw_dki": null, "segmen": null, "subsls": null, "sumber": null, "dom_sls": null, "periode": "2025_1", "tingkat": null, "idsubsls": "3506150009001700", "nm_gedung": null, "wil_campur": null, "iddesa": "3506150009", "kdsubsls": "00" }, "geometry": { "type": "MultiPolygon", "coordinates": [ [ [ [ 112.153306719000057, -7.653688597999974 ], [ 112.153339734000042, -7.653703542999949 ], [ 112.153363309000042, -7.653637751999952 ], [ 112.15341322800009, -7.653498443999979 ], [ 112.154501728000014, -7.654001772999948 ], [ 112.154471529000034, -7.654068410999969 ], [ 112.154603185000042, -7.654118246999928 ], [ 112.154509346000054, -7.654373452999948 ], [ 112.154506634000086, -7.65438082999998 ], [ 112.153242288000115, -7.65398683199993 ], [ 112.152514326000073, -7.653759982999929 ], [ 112.152520670000058, -7.653740079999977 ], [ 112.152344010000093, -7.653684079999948 ], [ 112.152401380000015, -7.653511969999954 ], [ 112.152402460000076, -7.653512289999981 ], [ 112.152431647000071, -7.653436262999946 ], [ 112.152435064000088, -7.653427360999956 ], [ 112.152459299000043, -7.653364231999944 ], [ 112.152461642000048, -7.653358127999979 ], [ 112.152467450000017, -7.653343 ], [ 112.152490059000115, -7.653284115999952 ], [ 112.152495040000076, -7.653271141999937 ], [ 112.152774144000091, -7.653399516999968 ], [ 112.152729431000012, -7.653523135999933 ], [ 112.152949700000022, -7.653587658999982 ], [ 112.152989941000101, -7.653602321999927 ], [ 112.152990084000066, -7.653601899999956 ], [ 112.153306719000057, -7.653688597999974 ] ] ] ] } },
{ "type": "Feature", "properties": { "fid": 6951, "kk": null, "gid": 0.0, "bstt": null, "luas": 10501.754185079917, "bsbtt": null, "idsls": "35061500090018", "kdkab": "06", "kdkec": "150", "kdsls": "0018", "nmkab": "KEDIRI", "nmkec": "KUNJANG", "nmsls": "RT 001 RW 001 DUSUN TANJUNG", "bstt_k": null, "kddesa": "009", "kdprov": "35", "khusus": null, "muatan": null, "nmdesa": "KUNJANG", "nmprov": "JAWA TIMUR", "posisi": null, "rw_dki": null, "segmen": null, "subsls": null, "sumber": null, "dom_sls": null, "periode": "2025_1", "tingkat": null, "idsubsls": "3506150009001800", "nm_gedung": null, "wil_campur": null, "iddesa": "3506150009", "kdsubsls": "00" }, "geometry": { "type": "MultiPolygon", "coordinates": [ [ [ [ 112.15972780900006, -7.655291377999959 ], [ 112.159708974000068, -7.655343697999967 ], [ 112.159775943000113, -7.655364625999937 ], [ 112.159731093, -7.655538853999929 ], [ 112.159615491000068, -7.655506711999976 ], [ 112.158651187000032, -7.655238596999936 ], [ 112.158721006000064, -7.655004495999947 ], [ 112.1589966680001, -7.654468345999931 ], [ 112.158999326000071, -7.654463176999968 ], [ 112.159410422000065, -7.654555098999936 ], [ 112.159911906000048, -7.654747976999943 ], [ 112.159706101000097, -7.655274777999978 ], [ 112.15972780900006, -7.655291377999959 ] ] ] ] } },
{ "type": "Feature", "properties": { "fid": 6952, "kk": null, "gid": 0.0, "bstt": null, "luas": 12727.174946651345, "bsbtt": null, "idsls": "35061500090023", "kdkab": "06", "kdkec": "150", "kdsls": "0023", "nmkab": "KEDIRI", "nmkec": "KUNJANG", "nmsls": "RT 002 RW 002 DUSUN TANJUNG", "bstt_k": null, "kddesa": "009", "kdprov": "35", "khusus": null, "muatan": null, "nmdesa": "KUNJANG", "nmprov": "JAWA TIMUR", "posisi": null, "rw_dki": null, "segmen": null, "subsls": null, "sumber": null, "dom_sls": null, "periode": "2025_1", "tingkat": null, "idsubsls": "3506150009002300", "nm_gedung": null, "wil_campur": null, "iddesa": "3506150009", "kdsubsls": "00" }, "geometry": { "type": "MultiPolygon", "coordinates": [ [ [ [ 112.162972272000047, -7.656440031999978 ], [ 112.162974957000074, -7.656440778999979 ], [ 112.162974816000087, -7.656441375999975 ], [ 112.162870457000054, -7.656883077999964 ], [ 112.162865800000077, -7.656881889999966 ], [ 112.162828290000107, -7.657030919999954 ], [ 112.162826555000038, -7.657030417999977 ], [ 112.162826102000054, -7.657031722999932 ], [ 112.162801284000011, -7.657024461999981 ], [ 112.162363092000078, -7.656896256999971 ], [ 112.162164880000091, -7.656838879999952 ], [ 112.162128819000031, -7.656828437999934 ], [ 112.162112280000088, -7.656912510999973 ], [ 112.162092381000093, -7.65701366299993 ], [ 112.162092046000112, -7.657013536999955 ], [ 112.16191326, -7.656946719999951 ], [ 112.161911520000103, -7.656946069999947 ], [ 112.161897170000088, -7.65694026999995 ], [ 112.16184618200009, -7.656919680999977 ], [ 112.161349950000044, -7.656719299999963 ], [ 112.16130046100011, -7.656699316999948 ], [ 112.161419941000077, -7.656340876999934 ], [ 112.161455689000036, -7.656348856999955 ], [ 112.161491436, -7.656232676999934 ], [ 112.161451859000067, -7.656217356999946 ], [ 112.161506252000095, -7.656032419999974 ], [ 112.162972272000047, -7.656440031999978 ] ] ] ] } },
{ "type": "Feature", "properties": { "fid": 6953, "kk": null, "gid": 0.0, "bstt": null, "luas": 12791.06655668981, "bsbtt": null, "idsls": "35061500090024", "kdkab": "06", "kdkec": "150", "kdsls": "0024", "nmkab": "KEDIRI", "nmkec": "KUNJANG", "nmsls": "RT 003 RW 002 DUSUN TANJUNG", "bstt_k": null, "kddesa": "009", "kdprov": "35", "khusus": null, "muatan": null, "nmdesa": "KUNJANG", "nmprov": "JAWA TIMUR", "posisi": null, "rw_dki": null, "segmen": null, "subsls": null, "sumber": null, "dom_sls": null, "periode": "2025_1", "tingkat": null, "idsubsls": "3506150009002400", "nm_gedung": null, "wil_campur": null, "iddesa": "3506150009", "kdsubsls": "00" }, "geometry": { "type": "MultiPolygon", "coordinates": [ [ [ [ 112.165550187, -7.656694151999943 ], [ 112.16546719400003, -7.657094510999968 ], [ 112.165217234000011, -7.657040138999946 ], [ 112.165217106000114, -7.65704169199995 ], [ 112.165216834000034, -7.657036675999962 ], [ 112.164289953000093, -7.656797295999979 ], [ 112.162974816000087, -7.656441375999975 ], [ 112.162974957000074, -7.656440778999979 ], [ 112.162972272000047, -7.656440031999978 ], [ 112.163075845000094, -7.656044080999948 ], [ 112.164063978000058, -7.656314066999926 ], [ 112.165251305000083, -7.656627494999952 ], [ 112.165251174000105, -7.656629081999938 ], [ 112.165550187, -7.656694151999943 ] ] ] ] } },
{ "type": "Feature", "properties": { "fid": 6954, "kk": null, "gid": 0.0, "bstt": null, "luas": 13695.9860651581, "bsbtt": null, "idsls": "35061500090025", "kdkab": "06", "kdkec": "150", "kdsls": "0025", "nmkab": "KEDIRI", "nmkec": "KUNJANG", "nmsls": "RT 004 RW 002 DUSUN TANJUNG", "bstt_k": null, "kddesa": "009", "kdprov": "35", "khusus": null, "muatan": null, "nmdesa": "KUNJANG", "nmprov": "JAWA TIMUR", "posisi": null, "rw_dki": null, "segmen": null, "subsls": null, "sumber": null, "dom_sls": null, "periode": "2025_1", "tingkat": null, "idsubsls": "3506150009002500", "nm_gedung": null, "wil_campur": null, "iddesa": "3506150009", "kdsubsls": "00" }, "geometry": { "type": "MultiPolygon", "coordinates": [ [ [ [ 112.165225680000049, -7.657547069999964 ], [ 112.165052290000062, -7.657451149999929 ], [ 112.164926850000029, -7.657425319999959 ], [ 112.164757150000014, -7.657355229999951 ], [ 112.164569, -7.657310959999961 ], [ 112.164380850000043, -7.657288819999962 ], [ 112.164118920000078, -7.657200279999927 ], [ 112.163934460000064, -7.657122809999976 ], [ 112.163561850000065, -7.65699 ], [ 112.163410590000012, -7.65697892999998 ], [ 112.163255640000102, -7.656967859999952 ], [ 112.163144960000068, -7.656953109999961 ], [ 112.162870457000054, -7.656883077999964 ], [ 112.162974816000087, -7.656441375999975 ], [ 112.164289953000093, -7.656797295999979 ], [ 112.165216834000034, -7.657036675999962 ], [ 112.165217106000114, -7.65704169199995 ], [ 112.165217234000011, -7.657040138999946 ], [ 112.16546719400003, -7.657094510999968 ], [ 112.16546323700004, -7.657113596999977 ], [ 112.165369731000055, -7.65761406699994 ], [ 112.165330634000043, -7.657595882999942 ], [ 112.165225680000049, -7.657547069999964 ] ] ] ] } },
{ "type": "Feature", "properties": { "fid": 6955, "kk": null, "gid": 0.0, "bstt": null, "luas": 13424.896505041266, "bsbtt": null, "idsls": "35061500090026", "kdkab": "06", "kdkec": "150", "kdsls": "0026", "nmkab": "KEDIRI", "nmkec": "KUNJANG", "nmsls": "RT 001 RW 001 DUSUN PLOSOREJO", "bstt_k": null, "kddesa": "009", "kdprov": "35", "khusus": null, "muatan": null, "nmdesa": "KUNJANG", "nmprov": "JAWA TIMUR", "posisi": null, "rw_dki": null, "segmen": null, "subsls": null, "sumber": null, "dom_sls": null, "periode": "2025_1", "tingkat": null, "idsubsls": "3506150009002600", "nm_gedung": null, "wil_campur": null, "iddesa": "3506150009", "kdsubsls": "00" }, "geometry": { "type": "MultiPolygon", "coordinates": [ [ [ [ 112.16716060400006, -7.651703279999936 ], [ 112.167200943000012, -7.651715226999954 ], [ 112.16780076100008, -7.651892864999979 ], [ 112.167801505000057, -7.651890315999935 ], [ 112.167802322000057, -7.651890563999928 ], [ 112.167827408000107, -7.651898180999979 ], [ 112.167682229000093, -7.652520817999971 ], [ 112.167632321000042, -7.652509188999943 ], [ 112.167500843000084, -7.65247855299998 ], [ 112.166142439000055, -7.652177252999934 ], [ 112.166131508000035, -7.65217513999994 ], [ 112.166243936000114, -7.651468367999939 ], [ 112.166249832000062, -7.651469878999933 ], [ 112.16716060400006, -7.651703279999936 ] ] ] ] } },
{ "type": "Feature", "properties": { "fid": 6956, "kk": null, "gid": 0.0, "bstt": null, "luas": 10925.981541880436, "bsbtt": null, "idsls": "35061500090027", "kdkab": "06", "kdkec": "150", "kdsls": "0027", "nmkab": "KEDIRI", "nmkec": "KUNJANG", "nmsls": "RT 002 RW 001 DUSUN PLOSOREJO", "bstt_k": null, "kddesa": "009", "kdprov": "35", "khusus": null, "muatan": null, "nmdesa": "KUNJANG", "nmprov": "JAWA TIMUR", "posisi": null, "rw_dki": null, "segmen": null, "subsls": null, "sumber": null, "dom_sls": null, "periode": "2025_1", "tingkat": null, "idsubsls": "3506150009002700", "nm_gedung": null, "wil_campur": null, "iddesa": "3506150009", "kdsubsls": "00" }, "geometry": { "type": "MultiPolygon", "coordinates": [ [ [ [ 112.166398627000035, -7.650584031999927 ], [ 112.167396204000056, -7.650861909999946 ], [ 112.167403176000107, -7.650863851999929 ], [ 112.167200943000012, -7.651715226999954 ], [ 112.16716060400006, -7.651703279999936 ], [ 112.166249832000062, -7.651469878999933 ], [ 112.166397140000072, -7.650583617999928 ], [ 112.166398627000035, -7.650584031999927 ] ] ] ] } },
{ "type": "Feature", "properties": { "fid": 6957, "kk": null, "gid": 0.0, "bstt": null, "luas": 5963.7132925184342, "bsbtt": null, "idsls": "35061500090033", "kdkab": "06", "kdkec": "150", "kdsls": "0033", "nmkab": "KEDIRI", "nmkec": "KUNJANG", "nmsls": "RT 003 RW 002 DUSUN PLOSOREJO", "bstt_k": null, "kddesa": "009", "kdprov": "35", "khusus": null, "muatan": null, "nmdesa": "KUNJANG", "nmprov": "JAWA TIMUR", "posisi": null, "rw_dki": null, "segmen": null, "subsls": null, "sumber": null, "dom_sls": null, "periode": "2025_1", "tingkat": null, "idsubsls": "3506150009003300", "nm_gedung": null, "wil_campur": null, "iddesa": "3506150009", "kdsubsls": "00" }, "geometry": { "type": "MultiPolygon", "coordinates": [ [ [ [ 112.168840087000035, -7.651208804999953 ], [ 112.168718535000039, -7.651673562999974 ], [ 112.16838240200002, -7.651577524999936 ], [ 112.168382004000023, -7.65157899299993 ], [ 112.168230486000084, -7.651542206999977 ], [ 112.168215905000011, -7.651627265999934 ], [ 112.16811383400011, -7.651605392999954 ], [ 112.168016186000045, -7.65195549799995 ], [ 112.167827408000107, -7.651898180999979 ], [ 112.167802322000057, -7.651890563999928 ], [ 112.168027480000092, -7.651040355999953 ], [ 112.168033760000071, -7.651018882999949 ], [ 112.168267499000081, -7.651095253999927 ], [ 112.168840087000035, -7.651208804999953 ] ] ] ] } },
{ "type": "Feature", "properties": { "fid": 6958, "kk": null, "gid": 0.0, "bstt": null, "luas": 7755.4772454365448, "bsbtt": null, "idsls": "35061500090034", "kdkab": "06", "kdkec": "150", "kdsls": "0034", "nmkab": "KEDIRI", "nmkec": "KUNJANG", "nmsls": "RT 004 RW 002 DUSUN PLOSOREJO", "bstt_k": null, "kddesa": "009", "kdprov": "35", "khusus": null, "muatan": null, "nmdesa": "KUNJANG", "nmprov": "JAWA TIMUR", "posisi": null, "rw_dki": null, "segmen": null, "subsls": null, "sumber": null, "dom_sls": null, "periode": "2025_1", "tingkat": null, "idsubsls": "3506150009003400", "nm_gedung": null, "wil_campur": null, "iddesa": "3506150009", "kdsubsls": "00" }, "geometry": { "type": "MultiPolygon", "coordinates": [ [ [ [ 112.169028528000013, -7.650488295999935 ], [ 112.168840087000035, -7.651208804999953 ], [ 112.168267499000081, -7.651095253999927 ], [ 112.168033760000071, -7.651018882999949 ], [ 112.168046730000015, -7.650974533999943 ], [ 112.16825803200004, -7.650252015999968 ], [ 112.168261115000064, -7.650252953999939 ], [ 112.169025856000076, -7.650496163999946 ], [ 112.169028528000013, -7.650488295999935 ] ] ] ] } },
{ "type": "Feature", "properties": { "fid": 6959, "kk": null, "gid": 0.0, "bstt": null, "luas": 25337.240818882958, "bsbtt": null, "idsls": "35061500090035", "kdkab": "06", "kdkec": "150", "kdsls": "0035", "nmkab": "KEDIRI", "nmkec": "KUNJANG", "nmsls": "RT 005 RW 002 DUSUN PLOSOREJO", "bstt_k": null, "kddesa": "009", "kdprov": "35", "khusus": null, "muatan": null, "nmdesa": "KUNJANG", "nmprov": "JAWA TIMUR", "posisi": null, "rw_dki": null, "segmen": null, "subsls": null, "sumber": null, "dom_sls": null, "periode": "2025_1", "tingkat": null, "idsubsls": "3506150009003500", "nm_gedung": null, "wil_campur": null, "iddesa": "3506150009", "kdsubsls": "00" }, "geometry": { "type": "MultiPolygon", "coordinates": [ [ [ [ 112.169681997000112, -7.650220044999969 ], [ 112.169682078000051, -7.650220078999951 ], [ 112.169681161000085, -7.650222976999942 ], [ 112.17013010900007, -7.650401427999952 ], [ 112.169446594000078, -7.652416872999936 ], [ 112.169041919000051, -7.652265185999966 ], [ 112.169043730000112, -7.652258642999925 ], [ 112.169037628000069, -7.652256784999963 ], [ 112.16860965300009, -7.652126504999956 ], [ 112.168722003000084, -7.651674553999953 ], [ 112.168718535000039, -7.651673562999974 ], [ 112.168840087000035, -7.651208804999953 ], [ 112.169028528000013, -7.650488295999935 ], [ 112.169188468000016, -7.650017258999981 ], [ 112.169681997000112, -7.650220044999969 ] ] ] ] } },
{ "type": "Feature", "properties": { "fid": 6960, "kk": null, "gid": 0.0, "bstt": null, "luas": 10424.847734303432, "bsbtt": null, "idsls": "35061500090036", "kdkab": "06", "kdkec": "150", "kdsls": "0036", "nmkab": "KEDIRI", "nmkec": "KUNJANG", "nmsls": "RT 001 RW 001 DUSUN TANGGUNGAN", "bstt_k": null, "kddesa": "009", "kdprov": "35", "khusus": null, "muatan": null, "nmdesa": "KUNJANG", "nmprov": "JAWA TIMUR", "posisi": null, "rw_dki": null, "segmen": null, "subsls": null, "sumber": null, "dom_sls": null, "periode": "2025_1", "tingkat": null, "idsubsls": "3506150009003600", "nm_gedung": null, "wil_campur": null, "iddesa": "3506150009", "kdsubsls": "00" }, "geometry": { "type": "MultiPolygon", "coordinates": [ [ [ [ 112.170142332000069, -7.658121628999936 ], [ 112.170020899000065, -7.658597838999981 ], [ 112.170357827000089, -7.65873036399995 ], [ 112.170309574000044, -7.658900013999926 ], [ 112.170418936000033, -7.658931804999952 ], [ 112.170419370000104, -7.658931930999927 ], [ 112.170246261000102, -7.659564355999976 ], [ 112.169519195000021, -7.659368392999966 ], [ 112.169735061000097, -7.658045265999931 ], [ 112.169745360000093, -7.658047196999973 ], [ 112.170142332000069, -7.658121628999936 ] ] ] ] } },
{ "type": "Feature", "properties": { "fid": 6961, "kk": null, "gid": 0.0, "bstt": null, "luas": 13481.604772310951, "bsbtt": null, "idsls": "35061500090037", "kdkab": "06", "kdkec": "150", "kdsls": "0037", "nmkab": "KEDIRI", "nmkec": "KUNJANG", "nmsls": "RT 002 RW 001 DUSUN TANGGUNGAN", "bstt_k": null, "kddesa": "009", "kdprov": "35", "khusus": null, "muatan": null, "nmdesa": "KUNJANG", "nmprov": "JAWA TIMUR", "posisi": null, "rw_dki": null, "segmen": null, "subsls": null, "sumber": null, "dom_sls": null, "periode": "2025_1", "tingkat": null, "idsubsls": "3506150009003700", "nm_gedung": null, "wil_campur": null, "iddesa": "3506150009", "kdsubsls": "00" }, "geometry": { "type": "MultiPolygon", "coordinates": [ [ [ [ 112.170619860000102, -7.658640332999937 ], [ 112.17086147100008, -7.658721216999936 ], [ 112.17090002100008, -7.65860474699997 ], [ 112.171140923000053, -7.658677847999968 ], [ 112.17122113500011, -7.658437211999967 ], [ 112.171351205000065, -7.658471343999963 ], [ 112.171570059000032, -7.658528772999944 ], [ 112.171353429000078, -7.659207997999943 ], [ 112.171262033000062, -7.659494563999942 ], [ 112.171185128000047, -7.659815 ], [ 112.171161130000087, -7.659810935999928 ], [ 112.171097082000074, -7.659793673999957 ], [ 112.170246261000102, -7.659564355999976 ], [ 112.170419370000104, -7.658931930999927 ], [ 112.170418936000033, -7.658931804999952 ], [ 112.170499801, -7.658678506999934 ], [ 112.170598107000046, -7.658710424999981 ], [ 112.170619860000102, -7.658640332999937 ] ] ] ] } },
{ "type": "Feature", "properties": { "fid": 6962, "kk": null, "gid": 0.0, "bstt": null, "luas": 14937.128272463568, "bsbtt": null, "idsls": "35061500090039", "kdkab": "06", "kdkec": "150", "kdsls": "0039", "nmkab": "KEDIRI", "nmkec": "KUNJANG", "nmsls": "RT 002 RW 002 DUSUN TANGGUNGAN", "bstt_k": null, "kddesa": "009", "kdprov": "35", "khusus": null, "muatan": null, "nmdesa": "KUNJANG", "nmprov": "JAWA TIMUR", "posisi": null, "rw_dki": null, "segmen": null, "subsls": null, "sumber": null, "dom_sls": null, "periode": "2025_1", "tingkat": null, "idsubsls": "3506150009003900", "nm_gedung": null, "wil_campur": null, "iddesa": "3506150009", "kdsubsls": "00" }, "geometry": { "type": "MultiPolygon", "coordinates": [ [ [ [ 112.169946302000085, -7.656764332999956 ], [ 112.170785781000063, -7.656845490999956 ], [ 112.17081983300011, -7.657662125999934 ], [ 112.170812592000061, -7.657660660999966 ], [ 112.170719393000013, -7.658088354999961 ], [ 112.170527889000027, -7.658021965999978 ], [ 112.170499917000029, -7.658188675999952 ], [ 112.170142332000069, -7.658121628999936 ], [ 112.169745360000093, -7.658047196999973 ], [ 112.1698589, -7.657464688999937 ], [ 112.169940609000037, -7.656763782999974 ], [ 112.169946302000085, -7.656764332999956 ] ] ] ] } },
{ "type": "Feature", "properties": { "fid": 6963, "kk": null, "gid": 0.0, "bstt": null, "luas": 148569.37740374944, "bsbtt": null, "idsls": "35061500091001", "kdkab": "06", "kdkec": "150", "kdsls": "1001", "nmkab": "KEDIRI", "nmkec": "KUNJANG", "nmsls": "PERSAWAHAN KUNJANG KIDUL", "bstt_k": null, "kddesa": "009", "kdprov": "35", "khusus": null, "muatan": null, "nmdesa": "KUNJANG", "nmprov": "JAWA TIMUR", "posisi": null, "rw_dki": null, "segmen": null, "subsls": null, "sumber": null, "dom_sls": null, "periode": "2025_1", "tingkat": null, "idsubsls": "3506150009100100", "nm_gedung": null, "wil_campur": null, "iddesa": "3506150009", "kdsubsls": "00" }, "geometry": { "type": "MultiPolygon", "coordinates": [ [ [ [ 112.154193309000107, -7.655985573999942 ], [ 112.154034732000014, -7.656538166999951 ], [ 112.155181841000058, -7.656903797999973 ], [ 112.154831553, -7.657147748999932 ], [ 112.153973613000062, -7.65774715799995 ], [ 112.153416974000038, -7.658128889999944 ], [ 112.154535359000079, -7.658976615999961 ], [ 112.154663029000062, -7.658813198999951 ], [ 112.154793570000038, -7.658891764999964 ], [ 112.154888142, -7.658948682999949 ], [ 112.154271774000108, -7.660276308999926 ], [ 112.154236806000085, -7.660266109999952 ], [ 112.15419648000011, -7.660245949999933 ], [ 112.153968490000011, -7.660186069999952 ], [ 112.153925708000088, -7.660175372999959 ], [ 112.153881980000051, -7.66016443999996 ], [ 112.153636870000014, -7.660103159999949 ], [ 112.153636170000027, -7.660102989999928 ], [ 112.153611910000109, -7.660134359999972 ], [ 112.153592390000085, -7.660160229999974 ], [ 112.153592024000091, -7.660160075999954 ], [ 112.153586370000085, -7.660157689999949 ], [ 112.153583160000039, -7.660156459999939 ], [ 112.153583090000097, -7.660156309999934 ], [ 112.153544120000106, -7.660139899999933 ], [ 112.153544080000074, -7.660139879999974 ], [ 112.153475940000021, -7.660111489999963 ], [ 112.153239830000075, -7.66003263999994 ], [ 112.153141850000111, -7.65999802999994 ], [ 112.152960370000073, -7.659933949999981 ], [ 112.152837790000035, -7.65989363999995 ], [ 112.152518590000113, -7.659788689999971 ], [ 112.152259480000112, -7.659707889999936 ], [ 112.152125230000024, -7.659666019999975 ], [ 112.151920140000016, -7.659583249999969 ], [ 112.151919550000116, -7.659583009999949 ], [ 112.151853660000029, -7.659538039999973 ], [ 112.15182225, -7.659516609999969 ], [ 112.15180505, -7.659505369999977 ], [ 112.151671920000013, -7.659418379999977 ], [ 112.151617360000046, -7.659396129999948 ], [ 112.151588750000087, -7.659384689999968 ], [ 112.151589012000045, -7.659384505999981 ], [ 112.151661770000032, -7.659333529999969 ], [ 112.151661770000032, -7.659333389999972 ], [ 112.151661770000032, -7.659330109999928 ], [ 112.151661770000032, -7.659329839999941 ], [ 112.151658520000069, -7.659323609999944 ], [ 112.151656240000079, -7.659319229999937 ], [ 112.151618420000091, -7.65928372999997 ], [ 112.151599520000104, -7.659269699999982 ], [ 112.151575530000059, -7.659251909999966 ], [ 112.151547880000066, -7.659237969999936 ], [ 112.151517890000036, -7.659222849999935 ], [ 112.151464860000033, -7.659199799999953 ], [ 112.151452870000071, -7.659195179999926 ], [ 112.151430660000074, -7.659186489999968 ], [ 112.151411630000098, -7.659179049999977 ], [ 112.151410440000063, -7.659178579999946 ], [ 112.151385610000034, -7.659159149999937 ], [ 112.15137862000006, -7.659153679999974 ], [ 112.15136709, -7.659133849999932 ], [ 112.15136571000005, -7.659111259999975 ], [ 112.151375710000025, -7.659052909999957 ], [ 112.151376780000078, -7.659046689999968 ], [ 112.15142013000002, -7.658854849999955 ], [ 112.15142013000002, -7.658841019999954 ], [ 112.151421050000067, -7.658833639999955 ], [ 112.151493030000097, -7.658541329999935 ], [ 112.151496680000037, -7.658526509999945 ], [ 112.15162749000001, -7.657972849999965 ], [ 112.151627650000023, -7.657972209999969 ], [ 112.15163136000001, -7.657961129999933 ], [ 112.151692210000078, -7.657779449999964 ], [ 112.151691230000097, -7.657779449999964 ], [ 112.151687590000051, -7.657779449999964 ], [ 112.151679620000095, -7.657776789999957 ], [ 112.151677100000029, -7.657776229999968 ], [ 112.151677170000085, -7.657775969999932 ], [ 112.151676530000032, -7.657775759999936 ], [ 112.151676622000082, -7.65777540299996 ], [ 112.151831470000047, -7.657172569999943 ], [ 112.151426740000034, -7.657075059999954 ], [ 112.151120330000026, -7.657001239999943 ], [ 112.15111945000001, -7.657001029999947 ], [ 112.151169310000114, -7.656767 ], [ 112.151276250000024, -7.656265029999929 ], [ 112.151286090000099, -7.656212063999931 ], [ 112.15129206000006, -7.656179929999951 ], [ 112.151314980000052, -7.656056589999935 ], [ 112.15131679000001, -7.656049369999948 ], [ 112.151318670000023, -7.656041829999936 ], [ 112.151318770000103, -7.65604148999995 ], [ 112.15135741000006, -7.655903479999949 ], [ 112.151368480000087, -7.655857369999978 ], [ 112.15137401000004, -7.655837079999969 ], [ 112.151567690000093, -7.655872129999977 ], [ 112.151571320000016, -7.655872859999931 ], [ 112.15157148000003, -7.655872889999955 ], [ 112.151630150000074, -7.655884709999953 ], [ 112.151824090000105, -7.655923769999958 ], [ 112.15182468, -7.655921839999962 ], [ 112.151902260000043, -7.65566795999996 ], [ 112.15196613, -7.655458929999952 ], [ 112.152051318000076, -7.655185195999934 ], [ 112.153236960000072, -7.655555708999941 ], [ 112.153237444000069, -7.655554393999978 ], [ 112.153348032000054, -7.655586987999925 ], [ 112.153342634000069, -7.655602881999926 ], [ 112.153302071000098, -7.65572231799996 ], [ 112.154114050000089, -7.655957868999963 ], [ 112.154193309000107, -7.655985573999942 ] ] ] ] } },
{ "type": "Feature", "properties": { "fid": 6964, "kk": null, "gid": 0.0, "bstt": null, "luas": 203868.72096626501, "bsbtt": null, "idsls": "35061500091005", "kdkab": "06", "kdkec": "150", "kdsls": "1005", "nmkab": "KEDIRI", "nmkec": "KUNJANG", "nmsls": "PERSAWAHAN TANJUNG", "bstt_k": null, "kddesa": "009", "kdprov": "35", "khusus": null, "muatan": null, "nmdesa": "KUNJANG", "nmprov": "JAWA TIMUR", "posisi": null, "rw_dki": null, "segmen": null, "subsls": null, "sumber": null, "dom_sls": null, "periode": "2025_1", "tingkat": null, "idsubsls": "3506150009100500", "nm_gedung": null, "wil_campur": null, "iddesa": "3506150009", "kdsubsls": "00" }, "geometry": { "type": "MultiPolygon", "coordinates": [ [ [ [ 112.1595740140001, -7.652088805999938 ], [ 112.160025593000114, -7.651015682999969 ], [ 112.160259425000049, -7.651085039999941 ], [ 112.160627113000032, -7.651159087999929 ], [ 112.160936074, -7.651123340999959 ], [ 112.161040763000074, -7.651131000999953 ], [ 112.161148005000086, -7.651133553999955 ], [ 112.161245034000103, -7.651169301999971 ], [ 112.161329296000076, -7.651202495999939 ], [ 112.161502926000026, -7.651273990999925 ], [ 112.161597402000098, -7.651353145999963 ], [ 112.161640810000108, -7.651439960999937 ], [ 112.161742945000015, -7.651519116999964 ], [ 112.161839974000031, -7.651531882999961 ], [ 112.162143828000012, -7.651567630999978 ], [ 112.162268944000061, -7.651585504999957 ], [ 112.162450235000051, -7.651638487999946 ], [ 112.162595778000082, -7.65172785599998 ], [ 112.162741321000112, -7.651778923999927 ], [ 112.162817923000034, -7.651778923999927 ], [ 112.163213699000039, -7.651883612999939 ], [ 112.164201306000109, -7.652183865999973 ], [ 112.164161007000075, -7.652317689999961 ], [ 112.163938862, -7.653100303999963 ], [ 112.163540533000059, -7.654565950999938 ], [ 112.163361795000014, -7.655183871999952 ], [ 112.163193152000076, -7.655595624999933 ], [ 112.163204762000078, -7.655551240999955 ], [ 112.162808986000073, -7.65544463699996 ], [ 112.162293201000011, -7.655345054999941 ], [ 112.161631873000033, -7.655245471999933 ], [ 112.161630870000067, -7.655249814999934 ], [ 112.161223330000098, -7.655190893999929 ], [ 112.160888836000026, -7.655119398999943 ], [ 112.160482847000026, -7.654953427999942 ], [ 112.160148352000078, -7.65482831199995 ], [ 112.159913440000082, -7.654744049999977 ], [ 112.159911906000048, -7.654747976999943 ], [ 112.159410422000065, -7.654555098999936 ], [ 112.158999326000071, -7.654463176999968 ], [ 112.1589966680001, -7.654468345999931 ], [ 112.158839739000086, -7.654414023999948 ], [ 112.158781011000087, -7.654332315999966 ], [ 112.158654618000014, -7.654062293999971 ], [ 112.159198491000097, -7.652931141999943 ], [ 112.159581499000069, -7.652092352999944 ], [ 112.1595740140001, -7.652088805999938 ] ] ] ] } },
{ "type": "Feature", "properties": { "fid": 6965, "kk": null, "gid": 0.0, "bstt": null, "luas": 137962.52751683749, "bsbtt": null, "idsls": "35061500091008", "kdkab": "06", "kdkec": "150", "kdsls": "1008", "nmkab": "KEDIRI", "nmkec": "KUNJANG", "nmsls": "PERSAWAHAN PLOSOREJO", "bstt_k": null, "kddesa": "009", "kdprov": "35", "khusus": null, "muatan": null, "nmdesa": "KUNJANG", "nmprov": "JAWA TIMUR", "posisi": null, "rw_dki": null, "segmen": null, "subsls": null, "sumber": null, "dom_sls": null, "periode": "2025_1", "tingkat": null, "idsubsls": "3506150009100800", "nm_gedung": null, "wil_campur": null, "iddesa": "3506150009", "kdsubsls": "00" }, "geometry": { "type": "MultiPolygon", "coordinates": [ [ [ [ 112.169446594000078, -7.652416872999936 ], [ 112.17013010900007, -7.650401427999952 ], [ 112.169681161000085, -7.650222976999942 ], [ 112.169682078000051, -7.650220078999951 ], [ 112.169681997000112, -7.650220044999969 ], [ 112.170278118000056, -7.648467810999932 ], [ 112.170278470000085, -7.648468029999947 ], [ 112.17039662000002, -7.648609419999957 ], [ 112.170528330000025, -7.648772119999933 ], [ 112.170737500000087, -7.648989039999947 ], [ 112.17097186, -7.649223399999926 ], [ 112.171035780000011, -7.649291189999929 ], [ 112.171233330000064, -7.649432579999939 ], [ 112.171469630000047, -7.649593329999959 ], [ 112.171682680000117, -7.64975021999993 ], [ 112.17183569000008, -7.649849 ], [ 112.171992570000043, -7.64996132999994 ], [ 112.172143650000066, -7.650062049999974 ], [ 112.172259860000054, -7.65014532999993 ], [ 112.172379940000042, -7.650211189999936 ], [ 112.172538760000066, -7.65028284999994 ], [ 112.172662720000062, -7.650335139999981 ], [ 112.172755690000031, -7.650375819999965 ], [ 112.172837040000104, -7.650408739999932 ], [ 112.172889330000089, -7.650447479999968 ], [ 112.172889520000012, -7.650447919999976 ], [ 112.17293, -7.650542379999933 ], [ 112.17295131000003, -7.650606299999936 ], [ 112.172991660000093, -7.650821519999965 ], [ 112.172997790000068, -7.650854219999928 ], [ 112.173011350000024, -7.651063389999933 ], [ 112.173017160000086, -7.651210589999948 ], [ 112.173034590000043, -7.651351979999959 ], [ 112.173005540000077, -7.651766469999927 ], [ 112.172993920000067, -7.651946589999966 ], [ 112.17299198, -7.652072489999966 ], [ 112.17298424, -7.652149959999974 ], [ 112.172900950000098, -7.652572189999944 ], [ 112.172846720000052, -7.652783309999961 ], [ 112.172819600000025, -7.652911139999958 ], [ 112.172740190000013, -7.653191979999974 ], [ 112.172717770000077, -7.65325925999997 ], [ 112.172716280000031, -7.653268179999941 ], [ 112.172619600000075, -7.653499239999974 ], [ 112.172710630000097, -7.653596049999976 ], [ 112.172741620000011, -7.653629009999975 ], [ 112.172894630000087, -7.653731659999949 ], [ 112.172864920000052, -7.653811549999944 ], [ 112.172838716000115, -7.653882039999928 ], [ 112.172437826000078, -7.65369396799997 ], [ 112.172121205000053, -7.653494802999944 ], [ 112.171814798000014, -7.653336492999927 ], [ 112.171615634000091, -7.653244570999959 ], [ 112.171053887000085, -7.653014765999956 ], [ 112.171052253000084, -7.653019557999926 ], [ 112.170535811000036, -7.652825151999934 ], [ 112.169446594000078, -7.652416872999936 ] ] ] ] } },
{ "type": "Feature", "properties": { "fid": 6966, "kk": null, "gid": 0.0, "bstt": null, "luas": 12195.227645710547, "bsbtt": null, "idsls": "35061500090003", "kdkab": "06", "kdkec": "150", "kdsls": "0003", "nmkab": "KEDIRI", "nmkec": "KUNJANG", "nmsls": "RT 003 RW 001 DUSUN KUNJANG KIDUL", "bstt_k": null, "kddesa": "009", "kdprov": "35", "khusus": null, "muatan": null, "nmdesa": "KUNJANG", "nmprov": "JAWA TIMUR", "posisi": null, "rw_dki": null, "segmen": null, "subsls": null, "sumber": null, "dom_sls": null, "periode": "2025_1", "tingkat": null, "idsubsls": "3506150009000300", "nm_gedung": null, "wil_campur": null, "iddesa": "3506150009", "kdsubsls": "00" }, "geometry": { "type": "MultiPolygon", "coordinates": [ [ [ [ 112.154320938000069, -7.654710353999974 ], [ 112.154341239000019, -7.65465742799995 ], [ 112.15392835800003, -7.654535941999939 ], [ 112.153887489000113, -7.654648002999977 ], [ 112.1538740310001, -7.654644148999978 ], [ 112.153856157000064, -7.654716919999942 ], [ 112.153595711000094, -7.654640317999963 ], [ 112.15311822700005, -7.654410512999959 ], [ 112.153242288000115, -7.65398683199993 ], [ 112.154506634000086, -7.65438082999998 ], [ 112.154509346000054, -7.654373452999948 ], [ 112.155667338000057, -7.65475631299995 ], [ 112.15559629400002, -7.655029071999934 ], [ 112.155589668000061, -7.655027568999969 ], [ 112.155183433000047, -7.654935423999973 ], [ 112.155159233000063, -7.654993593999961 ], [ 112.154320938000069, -7.654710353999974 ] ] ] ] } },
{ "type": "Feature", "properties": { "fid": 6967, "kk": null, "gid": 0.0, "bstt": null, "luas": 16790.059317790627, "bsbtt": null, "idsls": "35061500090022", "kdkab": "06", "kdkec": "150", "kdsls": "0022", "nmkab": "KEDIRI", "nmkec": "KUNJANG", "nmsls": "RT 001 RW 002 DUSUN TANJUNG", "bstt_k": null, "kddesa": "009", "kdprov": "35", "khusus": null, "muatan": null, "nmdesa": "KUNJANG", "nmprov": "JAWA TIMUR", "posisi": null, "rw_dki": null, "segmen": null, "subsls": null, "sumber": null, "dom_sls": null, "periode": "2025_1", "tingkat": null, "idsubsls": "3506150009002200", "nm_gedung": null, "wil_campur": null, "iddesa": "3506150009", "kdsubsls": "00" }, "geometry": { "type": "MultiPolygon", "coordinates": [ [ [ [ 112.161497818000043, -7.656030074999933 ], [ 112.161565146000044, -7.655766701999937 ], [ 112.161513755000101, -7.65575675599996 ], [ 112.161630870000067, -7.655249814999934 ], [ 112.161631873000033, -7.655245471999933 ], [ 112.162293201000011, -7.655345054999941 ], [ 112.162808986000073, -7.65544463699996 ], [ 112.163204762000078, -7.655551240999955 ], [ 112.163193152000076, -7.655595624999933 ], [ 112.163075845000094, -7.656044080999948 ], [ 112.162972272000047, -7.656440031999978 ], [ 112.161506252000095, -7.656032419999974 ], [ 112.161497818000043, -7.656030074999933 ] ] ] ] } },
{ "type": "Feature", "properties": { "fid": 6968, "kk": null, "gid": 0.0, "bstt": null, "luas": 10658.366690915078, "bsbtt": null, "idsls": "35061500090038", "kdkab": "06", "kdkec": "150", "kdsls": "0038", "nmkab": "KEDIRI", "nmkec": "KUNJANG", "nmsls": "RT 001 RW 002 DUSUN TANGGUNGAN", "bstt_k": null, "kddesa": "009", "kdprov": "35", "khusus": null, "muatan": null, "nmdesa": "KUNJANG", "nmprov": "JAWA TIMUR", "posisi": null, "rw_dki": null, "segmen": null, "subsls": null, "sumber": null, "dom_sls": null, "periode": "2025_1", "tingkat": null, "idsubsls": "3506150009003800", "nm_gedung": null, "wil_campur": null, "iddesa": "3506150009", "kdsubsls": "00" }, "geometry": { "type": "MultiPolygon", "coordinates": [ [ [ [ 112.17090002100008, -7.65860474699997 ], [ 112.17086147100008, -7.658721216999936 ], [ 112.170619860000102, -7.658640332999937 ], [ 112.170598107000046, -7.658710424999981 ], [ 112.170499801, -7.658678506999934 ], [ 112.170418936000033, -7.658931804999952 ], [ 112.170309574000044, -7.658900013999926 ], [ 112.170357827000089, -7.65873036399995 ], [ 112.170020899000065, -7.658597838999981 ], [ 112.170142332000069, -7.658121628999936 ], [ 112.170499917000029, -7.658188675999952 ], [ 112.170527889000027, -7.658021965999978 ], [ 112.170719393000013, -7.658088354999961 ], [ 112.170812592000061, -7.657660660999966 ], [ 112.17081983300011, -7.657662125999934 ], [ 112.171241562000091, -7.65774747699993 ], [ 112.17115474600007, -7.658127931999957 ], [ 112.171341144000053, -7.658179956999959 ], [ 112.17133603700006, -7.658241876999966 ], [ 112.171325824000064, -7.658282730999929 ], [ 112.171397319000107, -7.658306988999925 ], [ 112.171351205000065, -7.658471343999963 ], [ 112.17122113500011, -7.658437211999967 ], [ 112.171140923000053, -7.658677847999968 ], [ 112.17090002100008, -7.65860474699997 ] ] ] ] } },
{ "type": "Feature", "properties": { "fid": 6969, "kk": null, "gid": 0.0, "bstt": null, "luas": 7358.0164198130806, "bsbtt": null, "idsls": "35061500090007", "kdkab": "06", "kdkec": "150", "kdsls": "0007", "nmkab": "KEDIRI", "nmkec": "KUNJANG", "nmsls": "RT 002 RW 002 DUSUN KUNJANG KIDUL", "bstt_k": null, "kddesa": "009", "kdprov": "35", "khusus": null, "muatan": null, "nmdesa": "KUNJANG", "nmprov": "JAWA TIMUR", "posisi": null, "rw_dki": null, "segmen": null, "subsls": null, "sumber": null, "dom_sls": null, "periode": "2025_1", "tingkat": null, "idsubsls": "3506150009000702", "nm_gedung": null, "wil_campur": null, "iddesa": "3506150009", "kdsubsls": "02" }, "geometry": { "type": "MultiPolygon", "coordinates": [ [ [ [ 112.155607883000016, -7.656062358999975 ], [ 112.155671003000066, -7.655877855999961 ], [ 112.155822732000047, -7.655924033999952 ], [ 112.155770781000115, -7.656092667999928 ], [ 112.156049089000021, -7.656295317999934 ], [ 112.156288228000108, -7.655967119999957 ], [ 112.156238751000046, -7.655931661999944 ], [ 112.156312685000103, -7.65582349999994 ], [ 112.156573927000068, -7.655900559999964 ], [ 112.156572966000113, -7.655903608999949 ], [ 112.156631694000112, -7.655918290999978 ], [ 112.156838249000089, -7.655995437999934 ], [ 112.156358052000087, -7.65669543599995 ], [ 112.156356300000084, -7.656694369999968 ], [ 112.156349150000096, -7.656703289999939 ], [ 112.156346179000025, -7.656706998999937 ], [ 112.156200171000023, -7.656621111999925 ], [ 112.155660537000017, -7.656475063999949 ], [ 112.15564353100001, -7.656470461999959 ], [ 112.155491604000076, -7.656427372999929 ], [ 112.155536289000111, -7.656285021999963 ], [ 112.155535457000042, -7.656284727999946 ], [ 112.155612107000024, -7.656063651999943 ], [ 112.155607883000016, -7.656062358999975 ] ] ] ] } },
{ "type": "Feature", "properties": { "fid": 6970, "kk": null, "gid": 0.0, "bstt": null, "luas": 6408.8563658820931, "bsbtt": null, "idsls": "35061500090007", "kdkab": "06", "kdkec": "150", "kdsls": "0007", "nmkab": "KEDIRI", "nmkec": "KUNJANG", "nmsls": "RT 002 RW 002 DUSUN KUNJANG KIDUL", "bstt_k": null, "kddesa": "009", "kdprov": "35", "khusus": null, "muatan": null, "nmdesa": "KUNJANG", "nmprov": "JAWA TIMUR", "posisi": null, "rw_dki": null, "segmen": null, "subsls": null, "sumber": null, "dom_sls": null, "periode": "2025_1", "tingkat": null, "idsubsls": "3506150009000701", "nm_gedung": null, "wil_campur": null, "iddesa": "3506150009", "kdsubsls": "01" }, "geometry": { "type": "MultiPolygon", "coordinates": [ [ [ [ 112.156312685000103, -7.65582349999994 ], [ 112.156238751000046, -7.655931661999944 ], [ 112.156288228000108, -7.655967119999957 ], [ 112.156049089000021, -7.656295317999934 ], [ 112.155770781000115, -7.656092667999928 ], [ 112.155822732000047, -7.655924033999952 ], [ 112.155671003000066, -7.655877855999961 ], [ 112.155607883000016, -7.656062358999975 ], [ 112.155227011000079, -7.655945731999964 ], [ 112.155214642000033, -7.655973768999957 ], [ 112.155017044000033, -7.655893323999976 ], [ 112.155213712000091, -7.655429935999962 ], [ 112.155813332000093, -7.65561986299997 ], [ 112.155795458000057, -7.655670930999975 ], [ 112.156312685000103, -7.65582349999994 ] ] ] ] } },
{ "type": "Feature", "properties": { "fid": 6971, "kk": null, "gid": 0.0, "bstt": null, "luas": 25629.240606300991, "bsbtt": null, "idsls": "35061500090014", "kdkab": "06", "kdkec": "150", "kdsls": "0014", "nmkab": "KEDIRI", "nmkec": "KUNJANG", "nmsls": "RT 001 RW 002 DUSUN KUNJANG LOR", "bstt_k": null, "kddesa": "009", "kdprov": "35", "khusus": null, "muatan": null, "nmdesa": "KUNJANG", "nmprov": "JAWA TIMUR", "posisi": null, "rw_dki": null, "segmen": null, "subsls": null, "sumber": null, "dom_sls": null, "periode": "2025_1", "tingkat": null, "idsubsls": "3506150009001400", "nm_gedung": null, "wil_campur": null, "iddesa": "3506150009", "kdsubsls": "00" }, "geometry": { "type": "MultiPolygon", "coordinates": [ [ [ [ 112.155459540000038, -7.652428966999935 ], [ 112.155459540000038, -7.652448192999941 ], [ 112.155292816000042, -7.653019469999947 ], [ 112.155288774000041, -7.653018040999939 ], [ 112.155155308000076, -7.653444148999938 ], [ 112.155261709000115, -7.653486395999948 ], [ 112.155260330000033, -7.653490419999969 ], [ 112.155299395000043, -7.653500186999963 ], [ 112.155222660000049, -7.653684351999971 ], [ 112.155239402, -7.653694117999976 ], [ 112.155163603, -7.653836528999932 ], [ 112.154795167000088, -7.653674816999967 ], [ 112.154770391000056, -7.653663506999976 ], [ 112.153553180000017, -7.653107877999958 ], [ 112.153533792000076, -7.653099027999929 ], [ 112.153534418000049, -7.653097441999932 ], [ 112.1535198360001, -7.653090671999962 ], [ 112.153600563000055, -7.652877210999975 ], [ 112.153602296000031, -7.65287787099993 ], [ 112.153750162000051, -7.652473703999931 ], [ 112.153797990000044, -7.652491845999975 ], [ 112.153914484000097, -7.652098471999977 ], [ 112.153915085000108, -7.652096441999959 ], [ 112.154396661000078, -7.652182201999949 ], [ 112.154780933000097, -7.652258066999934 ], [ 112.155145413000014, -7.652333931999976 ], [ 112.155420835000086, -7.652414743999941 ], [ 112.155459540000038, -7.652428966999935 ] ] ] ] } },
{ "type": "Feature", "properties": { "fid": 6972, "kk": null, "gid": 0.0, "bstt": null, "luas": 6909.4427281956305, "bsbtt": null, "idsls": "35061500090015", "kdkab": "06", "kdkec": "150", "kdsls": "0015", "nmkab": "KEDIRI", "nmkec": "KUNJANG", "nmsls": "RT 002 RW 002 DUSUN KUNJANG LOR", "bstt_k": null, "kddesa": "009", "kdprov": "35", "khusus": null, "muatan": null, "nmdesa": "KUNJANG", "nmprov": "JAWA TIMUR", "posisi": null, "rw_dki": null, "segmen": null, "subsls": null, "sumber": null, "dom_sls": null, "periode": "2025_1", "tingkat": null, "idsubsls": "3506150009001500", "nm_gedung": null, "wil_campur": null, "iddesa": "3506150009", "kdsubsls": "00" }, "geometry": { "type": "MultiPolygon", "coordinates": [ [ [ [ 112.15341322800009, -7.653498443999979 ], [ 112.153553180000017, -7.653107877999958 ], [ 112.154770391000056, -7.653663506999976 ], [ 112.154607543000111, -7.654106394999928 ], [ 112.154603185000042, -7.654118246999928 ], [ 112.154471529000034, -7.654068410999969 ], [ 112.154501728000014, -7.654001772999948 ], [ 112.15341322800009, -7.653498443999979 ] ] ] ] } },
{ "type": "Feature", "properties": { "fid": 6973, "kk": null, "gid": 0.0, "bstt": null, "luas": 16786.507747006632, "bsbtt": null, "idsls": "35061500090016", "kdkab": "06", "kdkec": "150", "kdsls": "0016", "nmkab": "KEDIRI", "nmkec": "KUNJANG", "nmsls": "RT 003 RW 002 DUSUN KUNJANG LOR", "bstt_k": null, "kddesa": "009", "kdprov": "35", "khusus": null, "muatan": null, "nmdesa": "KUNJANG", "nmprov": "JAWA TIMUR", "posisi": null, "rw_dki": null, "segmen": null, "subsls": null, "sumber": null, "dom_sls": null, "periode": "2025_1", "tingkat": null, "idsubsls": "3506150009001600", "nm_gedung": null, "wil_campur": null, "iddesa": "3506150009", "kdsubsls": "00" }, "geometry": { "type": "MultiPolygon", "coordinates": [ [ [ [ 112.15381802200011, -7.652050051999936 ], [ 112.153914484000097, -7.652098471999977 ], [ 112.153797990000044, -7.652491845999975 ], [ 112.153750162000051, -7.652473703999931 ], [ 112.153602296000031, -7.65287787099993 ], [ 112.153600563000055, -7.652877210999975 ], [ 112.1535198360001, -7.653090671999962 ], [ 112.153534418000049, -7.653097441999932 ], [ 112.153533792000076, -7.653099027999929 ], [ 112.153553180000017, -7.653107877999958 ], [ 112.15341322800009, -7.653498443999979 ], [ 112.153363309000042, -7.653637751999952 ], [ 112.153339734000042, -7.653703542999949 ], [ 112.153306719000057, -7.653688597999974 ], [ 112.152990084000066, -7.653601899999956 ], [ 112.152989941000101, -7.653602321999927 ], [ 112.152949700000022, -7.653587658999982 ], [ 112.152729431000012, -7.653523135999933 ], [ 112.152774144000091, -7.653399516999968 ], [ 112.152495040000076, -7.653271141999937 ], [ 112.152618750000101, -7.652948939999931 ], [ 112.152623370000015, -7.65295059999994 ], [ 112.15268831000003, -7.652783499999941 ], [ 112.152691940000068, -7.652774159999979 ], [ 112.152691810000078, -7.652778149999961 ], [ 112.152694410000095, -7.652771363999932 ], [ 112.152711094000097, -7.652727818999949 ], [ 112.152711140000065, -7.652727699999957 ], [ 112.152842240000041, -7.652385469999956 ], [ 112.152842820000046, -7.652384889999951 ], [ 112.15284349, -7.652384219999931 ], [ 112.152845921000107, -7.652381788999946 ], [ 112.152899630000093, -7.652328079999961 ], [ 112.152954760000057, -7.652245389999962 ], [ 112.153337700000066, -7.652118249999944 ], [ 112.153403010000034, -7.65206902999995 ], [ 112.153402310000047, -7.652068629999974 ], [ 112.153499630000056, -7.65202807999998 ], [ 112.15356673000008, -7.651986139999963 ], [ 112.153817690000096, -7.65205181999994 ], [ 112.15381802200011, -7.652050051999936 ] ] ] ] } },
{ "type": "Feature", "properties": { "fid": 6974, "kk": null, "gid": 0.0, "bstt": null, "luas": 344198.73261587363, "bsbtt": null, "idsls": "35061500091004", "kdkab": "06", "kdkec": "150", "kdsls": "1004", "nmkab": "KEDIRI", "nmkec": "KUNJANG", "nmsls": "PERSAWAHAN PLOSOREJO DAN TANJUNG", "bstt_k": null, "kddesa": "009", "kdprov": "35", "khusus": null, "muatan": null, "nmdesa": "KUNJANG", "nmprov": "JAWA TIMUR", "posisi": null, "rw_dki": null, "segmen": null, "subsls": null, "sumber": null, "dom_sls": null, "periode": "2025_1", "tingkat": null, "idsubsls": "3506150009100400", "nm_gedung": null, "wil_campur": null, "iddesa": "3506150009", "kdsubsls": "00" }, "geometry": { "type": "MultiPolygon", "coordinates": [ [ [ [ 112.166131508000035, -7.65217513999994 ], [ 112.166142439000055, -7.652177252999934 ], [ 112.167500843000084, -7.65247855299998 ], [ 112.167632321000042, -7.652509188999943 ], [ 112.167682229000093, -7.652520817999971 ], [ 112.168552840000075, -7.652723678999962 ], [ 112.168731578, -7.652738998999951 ], [ 112.168912795000097, -7.652731845999938 ], [ 112.16892563600004, -7.652731338999956 ], [ 112.16898053400007, -7.65275623499997 ], [ 112.169091606000052, -7.652751127999977 ], [ 112.169200125000089, -7.652734530999965 ], [ 112.169311198000059, -7.652742190999959 ], [ 112.169493765000084, -7.652806025999951 ], [ 112.169578027000057, -7.652822622999963 ], [ 112.169791235000048, -7.652849433999961 ], [ 112.170120623000116, -7.652915821999954 ], [ 112.170404049000012, -7.652977102999955 ], [ 112.170536826000102, -7.653025617999958 ], [ 112.170751311000117, -7.653104772999939 ], [ 112.170992542000022, -7.653194642999949 ], [ 112.170903237000061, -7.653456501999926 ], [ 112.170553423000115, -7.654535948999978 ], [ 112.170231695000098, -7.655504960999963 ], [ 112.170124453000085, -7.655796046999967 ], [ 112.170033347000071, -7.65621069599996 ], [ 112.168898825000042, -7.656288851999932 ], [ 112.168863078000072, -7.656302895999943 ], [ 112.168833714000016, -7.656328428999927 ], [ 112.168706044000032, -7.656540360999941 ], [ 112.168554117000099, -7.656739205999941 ], [ 112.168522200000098, -7.656769846999964 ], [ 112.168414957000095, -7.656832404999932 ], [ 112.168347292000021, -7.656879323999931 ], [ 112.168228560000102, -7.656990395999969 ], [ 112.168180045000099, -7.656994225999938 ], [ 112.1681213170001, -7.65699294999996 ], [ 112.167540421000012, -7.656830808999928 ], [ 112.166682481000066, -7.656597173999955 ], [ 112.166521618000047, -7.656581853999967 ], [ 112.166130949000035, -7.656515464999927 ], [ 112.165989235000097, -7.656491207999977 ], [ 112.165643251, -7.656352047999974 ], [ 112.165578139000104, -7.656529508999938 ], [ 112.165587076000065, -7.656576746999974 ], [ 112.16555388200004, -7.656676328999936 ], [ 112.165550187, -7.656694151999943 ], [ 112.165251174000105, -7.656629081999938 ], [ 112.165251305000083, -7.656627494999952 ], [ 112.164063978000058, -7.656314066999926 ], [ 112.163075845000094, -7.656044080999948 ], [ 112.163193152000076, -7.655595624999933 ], [ 112.163361795000014, -7.655183871999952 ], [ 112.163540533000059, -7.654565950999938 ], [ 112.163938862, -7.653100303999963 ], [ 112.164161007000075, -7.652317689999961 ], [ 112.164201306000109, -7.652183865999973 ], [ 112.16429633700011, -7.65186829299995 ], [ 112.16433208400008, -7.651845311999978 ], [ 112.164385705000086, -7.651837651999926 ], [ 112.166131508000035, -7.65217513999994 ] ] ] ] } },
{ "type": "Feature", "properties": { "fid": 6975, "kk": null, "gid": 0.0, "bstt": null, "luas": 19683.245311474944, "bsbtt": null, "idsls": "35061500090032", "kdkab": "06", "kdkec": "150", "kdsls": "0032", "nmkab": "KEDIRI", "nmkec": "KUNJANG", "nmsls": "RT 002 RW 002 DUSUN PLOSOREJO", "bstt_k": null, "kddesa": "009", "kdprov": "35", "khusus": null, "muatan": null, "nmdesa": "KUNJANG", "nmprov": "JAWA TIMUR", "posisi": null, "rw_dki": null, "segmen": null, "subsls": null, "sumber": null, "dom_sls": null, "periode": "2025_1", "tingkat": null, "idsubsls": "3506150009003200", "nm_gedung": null, "wil_campur": null, "iddesa": "3506150009", "kdsubsls": "00" }, "geometry": { "type": "MultiPolygon", "coordinates": [ [ [ [ 112.167682229000093, -7.652520817999971 ], [ 112.167827408000107, -7.651898180999979 ], [ 112.168016186000045, -7.65195549799995 ], [ 112.16811383400011, -7.651605392999954 ], [ 112.168215905000011, -7.651627265999934 ], [ 112.168230486000084, -7.651542206999977 ], [ 112.168382004000023, -7.65157899299993 ], [ 112.16838240200002, -7.651577524999936 ], [ 112.168718535000039, -7.651673562999974 ], [ 112.168722003000084, -7.651674553999953 ], [ 112.16860965300009, -7.652126504999956 ], [ 112.169037628000069, -7.652256784999963 ], [ 112.169043730000112, -7.652258642999925 ], [ 112.169041919000051, -7.652265185999966 ], [ 112.169446594000078, -7.652416872999936 ], [ 112.170535811000036, -7.652825151999934 ], [ 112.171052253000084, -7.653019557999926 ], [ 112.170992542000022, -7.653194642999949 ], [ 112.170751311000117, -7.653104772999939 ], [ 112.170536826000102, -7.653025617999958 ], [ 112.170404049000012, -7.652977102999955 ], [ 112.170120623000116, -7.652915821999954 ], [ 112.169791235000048, -7.652849433999961 ], [ 112.169578027000057, -7.652822622999963 ], [ 112.169493765000084, -7.652806025999951 ], [ 112.169311198000059, -7.652742190999959 ], [ 112.169200125000089, -7.652734530999965 ], [ 112.169091606000052, -7.652751127999977 ], [ 112.16898053400007, -7.65275623499997 ], [ 112.16892563600004, -7.652731338999956 ], [ 112.168912795000097, -7.652731845999938 ], [ 112.168731578, -7.652738998999951 ], [ 112.168552840000075, -7.652723678999962 ], [ 112.167682229000093, -7.652520817999971 ] ] ] ] } },
{ "type": "Feature", "properties": { "fid": 6976, "kk": null, "gid": 0.0, "bstt": null, "luas": 390585.04786213633, "bsbtt": null, "idsls": "35061500091007", "kdkab": "06", "kdkec": "150", "kdsls": "1007", "nmkab": "KEDIRI", "nmkec": "KUNJANG", "nmsls": "PERSAWAHAN PLOSOREJO", "bstt_k": null, "kddesa": "009", "kdprov": "35", "khusus": null, "muatan": null, "nmdesa": "KUNJANG", "nmprov": "JAWA TIMUR", "posisi": null, "rw_dki": null, "segmen": null, "subsls": null, "sumber": null, "dom_sls": null, "periode": "2025_1", "tingkat": null, "idsubsls": "3506150009100700", "nm_gedung": null, "wil_campur": null, "iddesa": "3506150009", "kdsubsls": "00" }, "geometry": { "type": "MultiPolygon", "coordinates": [ [ [ [ 112.170273346000045, -7.648464540999953 ], [ 112.170276010000066, -7.648466199999973 ], [ 112.1702759100001, -7.648466439999936 ], [ 112.170276110000032, -7.648466559999974 ], [ 112.170278118000056, -7.648467810999932 ], [ 112.169681997000112, -7.650220044999969 ], [ 112.169188468000016, -7.650017258999981 ], [ 112.169194380000022, -7.649999848999926 ], [ 112.16919125700008, -7.649998564999976 ], [ 112.169247072000076, -7.649721507999971 ], [ 112.169266898000046, -7.649644833999957 ], [ 112.168723476000082, -7.649478260999956 ], [ 112.167894737000097, -7.649211291999961 ], [ 112.16725236100001, -7.649004312999978 ], [ 112.167251570000076, -7.649007212999948 ], [ 112.166853246000073, -7.648888041999953 ], [ 112.166774959, -7.649146124999959 ], [ 112.166773765000016, -7.649145738999948 ], [ 112.166627198000015, -7.649634293999952 ], [ 112.166619285000024, -7.649631840999973 ], [ 112.166588130000036, -7.649755949999928 ], [ 112.165937123000049, -7.649549177999972 ], [ 112.165925579000032, -7.649585460999958 ], [ 112.165836520000084, -7.649560722999979 ], [ 112.165656754000111, -7.649992821999945 ], [ 112.166074834000028, -7.650137129999962 ], [ 112.166102658000113, -7.650169946999938 ], [ 112.166100369000105, -7.650176707999947 ], [ 112.166455931000087, -7.650291141999958 ], [ 112.166398627000035, -7.650584031999927 ], [ 112.166397140000072, -7.650583617999928 ], [ 112.166249832000062, -7.651469878999933 ], [ 112.166243936000114, -7.651468367999939 ], [ 112.166131508000035, -7.65217513999994 ], [ 112.164385705000086, -7.651837651999926 ], [ 112.16433208400008, -7.651845311999978 ], [ 112.16429633700011, -7.65186829299995 ], [ 112.164201306000109, -7.652183865999973 ], [ 112.163213699000039, -7.651883612999939 ], [ 112.162817923000034, -7.651778923999927 ], [ 112.162741321000112, -7.651778923999927 ], [ 112.162595778000082, -7.65172785599998 ], [ 112.162450235000051, -7.651638487999946 ], [ 112.162268944000061, -7.651585504999957 ], [ 112.162143828000012, -7.651567630999978 ], [ 112.161839974000031, -7.651531882999961 ], [ 112.161742945000015, -7.651519116999964 ], [ 112.161640810000108, -7.651439960999937 ], [ 112.161597402000098, -7.651353145999963 ], [ 112.161502926000026, -7.651273990999925 ], [ 112.161329296000076, -7.651202495999939 ], [ 112.161245034000103, -7.651169301999971 ], [ 112.161148005000086, -7.651133553999955 ], [ 112.161040763000074, -7.651131000999953 ], [ 112.160936074, -7.651123340999959 ], [ 112.160627113000032, -7.651159087999929 ], [ 112.160259425000049, -7.651085039999941 ], [ 112.160025593000114, -7.651015682999969 ], [ 112.159958125000117, -7.650995670999976 ], [ 112.159600037000018, -7.650878847999934 ], [ 112.160061944000063, -7.649829844999942 ], [ 112.160125310000012, -7.649854489999939 ], [ 112.160781650000104, -7.650109769999972 ], [ 112.160781770000085, -7.650109639999926 ], [ 112.161760120000054, -7.649005589999945 ], [ 112.161760590000085, -7.649005599999953 ], [ 112.161762710000062, -7.649005669999951 ], [ 112.162025560000075, -7.649013879999927 ], [ 112.16213743000003, -7.649019339999938 ], [ 112.162137610000059, -7.649019319999979 ], [ 112.162251710000078, -7.649009649999925 ], [ 112.162339190000012, -7.648997369999961 ], [ 112.162362110000117, -7.648994159999972 ], [ 112.16248092, -7.648969049999948 ], [ 112.162482430000068, -7.648968839999952 ], [ 112.162496120000014, -7.648966859999973 ], [ 112.162496390000115, -7.648965889999943 ], [ 112.162496420000025, -7.648965779999969 ], [ 112.162499620000062, -7.648965099999941 ], [ 112.16254799, -7.648787219999974 ], [ 112.162559660000056, -7.648744299999976 ], [ 112.162560100000064, -7.648744439999973 ], [ 112.162756020000074, -7.648804619999964 ], [ 112.16275608, -7.648804499999926 ], [ 112.162756490000106, -7.648804619999964 ], [ 112.162818300000026, -7.648684079999953 ], [ 112.162818660000084, -7.648684149999951 ], [ 112.162903970000116, -7.648701419999952 ], [ 112.162904010000034, -7.648701329999938 ], [ 112.162904440000034, -7.648701419999952 ], [ 112.163045830000101, -7.648439949999954 ], [ 112.163142180000023, -7.64824036999994 ], [ 112.163181250000093, -7.648159429999964 ], [ 112.163181310000027, -7.648159309999926 ], [ 112.163181410000107, -7.648159109999938 ], [ 112.163190040000018, -7.648161439999967 ], [ 112.163273953000044, -7.648184163999929 ], [ 112.16341723000005, -7.647841469999946 ], [ 112.163466570000082, -7.64770464999998 ], [ 112.163542660000076, -7.64749366999996 ], [ 112.163540180000041, -7.647492769999928 ], [ 112.163554740000109, -7.647452159999943 ], [ 112.163555160000101, -7.647452319999957 ], [ 112.16391112000008, -7.647583869999949 ], [ 112.164162910000073, -7.647671019999962 ], [ 112.164453440000102, -7.647767869999939 ], [ 112.16449301800003, -7.647769162999964 ], [ 112.164571590000037, -7.647771729999931 ], [ 112.164572060000069, -7.647771739999939 ], [ 112.16463791000001, -7.647610979999968 ], [ 112.163981320000062, -7.647372749999931 ], [ 112.163975030000074, -7.647360159999948 ], [ 112.163926200000105, -7.647254509999925 ], [ 112.163874800000031, -7.647142269999961 ], [ 112.163810880000028, -7.647103529999981 ], [ 112.163828310000099, -7.647024119999969 ], [ 112.163634630000047, -7.646931149999944 ], [ 112.163708230000111, -7.646723909999935 ], [ 112.163431260000038, -7.646588329999929 ], [ 112.163572650000106, -7.646251319999976 ], [ 112.163276310000015, -7.646047949999968 ], [ 112.163320860000113, -7.645949179999945 ], [ 112.163394460000063, -7.645757429999946 ], [ 112.163442880000048, -7.64558698999997 ], [ 112.163495180000041, -7.645519199999967 ], [ 112.163545060000047, -7.645490279999933 ], [ 112.163615140000047, -7.645469709999929 ], [ 112.163621040000066, -7.645467989999929 ], [ 112.163688680000064, -7.645448139999928 ], [ 112.163706370000114, -7.645442949999961 ], [ 112.1638259, -7.645408799999927 ], [ 112.163971160000074, -7.645352629999934 ], [ 112.16408931, -7.645311959999958 ], [ 112.164250070000094, -7.645282899999927 ], [ 112.16436047000002, -7.645267409999974 ], [ 112.164492170000017, -7.645259659999965 ], [ 112.16449225000008, -7.645259689999932 ], [ 112.164492650000057, -7.645259659999965 ], [ 112.164601110000035, -7.645290649999936 ], [ 112.164699890000065, -7.645344879999925 ], [ 112.164881950000108, -7.64544946999996 ], [ 112.165075640000055, -7.645571489999952 ], [ 112.165304180000021, -7.645730309999976 ], [ 112.16560633000006, -7.645953049999946 ], [ 112.165648940000096, -7.645978229999969 ], [ 112.16570511000009, -7.646024709999949 ], [ 112.165751590000013, -7.646061509999981 ], [ 112.16579420000005, -7.646125429999927 ], [ 112.165827130000025, -7.646185469999978 ], [ 112.165873610000062, -7.646266819999937 ], [ 112.165945280000074, -7.646402399999943 ], [ 112.166156390000083, -7.64673358999994 ], [ 112.166198690000101, -7.646775889999958 ], [ 112.166235330000063, -7.646704539999973 ], [ 112.166235770000071, -7.646704609999972 ], [ 112.166235800000095, -7.646704539999973 ], [ 112.166303590000098, -7.64671422999993 ], [ 112.166336520000073, -7.646731659999944 ], [ 112.166363630000092, -7.64677426999998 ], [ 112.166404310000075, -7.646811069999956 ], [ 112.166692890000036, -7.646933089999948 ], [ 112.166824600000041, -7.646987319999937 ], [ 112.166826540000102, -7.647057049999944 ], [ 112.16683622000005, -7.647140329999957 ], [ 112.166884640000035, -7.647190689999945 ], [ 112.166983420000065, -7.647252669999943 ], [ 112.167098990000113, -7.647315189999972 ], [ 112.167100110000092, -7.647318079999934 ], [ 112.167500110000105, -7.647558079999953 ], [ 112.16760503, -7.647581319999972 ], [ 112.167605520000052, -7.647581319999972 ], [ 112.167694730000107, -7.647573209999962 ], [ 112.167695010000102, -7.647573229999978 ], [ 112.167931030000091, -7.64758870999998 ], [ 112.1679315, -7.64758870999998 ], [ 112.168068540000036, -7.647590639999976 ], [ 112.168069020000075, -7.647590649999927 ], [ 112.168189100000063, -7.647608079999941 ], [ 112.168341640000108, -7.647610009999937 ], [ 112.168342110000026, -7.647610009999937 ], [ 112.168431210000108, -7.647615819999942 ], [ 112.168537730000025, -7.647664239999926 ], [ 112.168669440000031, -7.647714599999972 ], [ 112.168729480000025, -7.647733969999933 ], [ 112.168909610000014, -7.647840499999973 ], [ 112.169056800000021, -7.647962519999965 ], [ 112.169176890000017, -7.648051609999925 ], [ 112.169233870000085, -7.648089279999965 ], [ 112.169372830000043, -7.648133489999964 ], [ 112.169490660000065, -7.648142639999946 ], [ 112.169597180000096, -7.648167819999969 ], [ 112.169728890000101, -7.648210429999949 ], [ 112.16984122000008, -7.648254979999933 ], [ 112.17002522000007, -7.648346009999955 ], [ 112.170176300000094, -7.648404119999952 ], [ 112.170191690000024, -7.648413699999935 ], [ 112.170273346000045, -7.648464540999953 ] ] ] ] } },
{ "type": "Feature", "properties": { "fid": 6977, "kk": null, "gid": 0.0, "bstt": null, "luas": 257166.43223546818, "bsbtt": null, "idsls": "35061500091006", "kdkab": "06", "kdkec": "150", "kdsls": "1006", "nmkab": "KEDIRI", "nmkec": "KUNJANG", "nmsls": "PERSAWAHAN KUNJANG LOR", "bstt_k": null, "kddesa": "009", "kdprov": "35", "khusus": null, "muatan": null, "nmdesa": "KUNJANG", "nmprov": "JAWA TIMUR", "posisi": null, "rw_dki": null, "segmen": null, "subsls": null, "sumber": null, "dom_sls": null, "periode": "2025_1", "tingkat": null, "idsubsls": "3506150009100600", "nm_gedung": null, "wil_campur": null, "iddesa": "3506150009", "kdsubsls": "00" }, "geometry": { "type": "MultiPolygon", "coordinates": [ [ [ [ 112.159596957000076, -7.650880574999974 ], [ 112.159347176000097, -7.650802594999959 ], [ 112.158936060000087, -7.651762959999928 ], [ 112.158931541000015, -7.651761251999972 ], [ 112.158811243000059, -7.652049844999965 ], [ 112.158812252000075, -7.652050282999937 ], [ 112.157958726000061, -7.653948895999974 ], [ 112.157864344000018, -7.653858661999948 ], [ 112.157568150000088, -7.653575234999948 ], [ 112.157259190000104, -7.653419477999932 ], [ 112.156979830000068, -7.653299752999942 ], [ 112.15690354600008, -7.653261476999944 ], [ 112.156902210000112, -7.653264795999974 ], [ 112.156693166000082, -7.653180451999958 ], [ 112.156317141000045, -7.652966051999954 ], [ 112.155828968000037, -7.65256693699996 ], [ 112.155459540000038, -7.652428401999941 ], [ 112.155459540000038, -7.652428966999935 ], [ 112.155420835000086, -7.652414743999941 ], [ 112.155145413000014, -7.652333931999976 ], [ 112.154780933000097, -7.652258066999934 ], [ 112.154396661000078, -7.652182201999949 ], [ 112.153915085000108, -7.652096441999959 ], [ 112.153914484000097, -7.652098471999977 ], [ 112.15381802200011, -7.652050051999936 ], [ 112.153819480000038, -7.652042279999932 ], [ 112.153953290000118, -7.651332079999975 ], [ 112.153986190000069, -7.651157459999979 ], [ 112.154132010000012, -7.650444579999942 ], [ 112.154274580000106, -7.649640959999942 ], [ 112.15450141000008, -7.648552179999967 ], [ 112.154512110000042, -7.648525419999942 ], [ 112.154512180000097, -7.648525439999958 ], [ 112.15517804000001, -7.648691199999973 ], [ 112.155314540000063, -7.648595279999938 ], [ 112.155415990000051, -7.648421889999952 ], [ 112.15546211000003, -7.648292769999955 ], [ 112.155541430000085, -7.648167329999978 ], [ 112.155600450000065, -7.648113839999951 ], [ 112.155658100000096, -7.648105609999959 ], [ 112.155659433000096, -7.648105418999933 ], [ 112.15566501, -7.64810461999997 ], [ 112.155672784000103, -7.648107114999959 ], [ 112.155814430000078, -7.64815257999993 ], [ 112.155974910000054, -7.648200539999948 ], [ 112.156059760000062, -7.648241119999966 ], [ 112.156059799000104, -7.648241188999975 ], [ 112.156111410000108, -7.648333349999973 ], [ 112.15605792000008, -7.648571299999958 ], [ 112.156072670000071, -7.648613729999965 ], [ 112.156151990000012, -7.648691199999973 ], [ 112.156175970000049, -7.648731779999935 ], [ 112.156251090000069, -7.648791179999932 ], [ 112.156255290000104, -7.648794499999951 ], [ 112.156544890000077, -7.648984499999926 ], [ 112.156544890000077, -7.649049059999982 ], [ 112.156576020000102, -7.64909849999998 ], [ 112.156576250000057, -7.649098859999981 ], [ 112.156561490000058, -7.649163419999979 ], [ 112.156504310000059, -7.649259339999958 ], [ 112.156493240000032, -7.649366329999964 ], [ 112.156559650000077, -7.649558169999978 ], [ 112.156637120000028, -7.649624569999958 ], [ 112.158013370000049, -7.650275159999978 ], [ 112.158057470000017, -7.650296009999977 ], [ 112.158152440000094, -7.650053549999939 ], [ 112.158371050000028, -7.649495449999961 ], [ 112.158492451000029, -7.649177198999951 ], [ 112.158496940000077, -7.649165429999925 ], [ 112.158506860000102, -7.649139408999929 ], [ 112.158399687000042, -7.649111083999969 ], [ 112.158810729000038, -7.648152795999977 ], [ 112.158820589000015, -7.648129807999965 ], [ 112.159808751000014, -7.648493027999962 ], [ 112.160523701000102, -7.648764964999941 ], [ 112.160085208000055, -7.649737031999962 ], [ 112.160090230000037, -7.649738939999963 ], [ 112.160049860000072, -7.649825139999962 ], [ 112.16004995000003, -7.649825179999937 ], [ 112.160061944000063, -7.649829844999942 ], [ 112.159600037000018, -7.650878847999934 ], [ 112.159598096000082, -7.650878214999977 ], [ 112.159596957000076, -7.650880574999974 ] ] ] ] } },
{ "type": "Feature", "properties": { "fid": 6978, "kk": null, "gid": 0.0, "bstt": null, "luas": 124357.59402009203, "bsbtt": null, "idsls": "35061500091002", "kdkab": "06", "kdkec": "150", "kdsls": "1002", "nmkab": "KEDIRI", "nmkec": "KUNJANG", "nmsls": "PERSAWAHAN TANGGUNGAN", "bstt_k": null, "kddesa": "009", "kdprov": "35", "khusus": null, "muatan": null, "nmdesa": "KUNJANG", "nmprov": "JAWA TIMUR", "posisi": null, "rw_dki": null, "segmen": null, "subsls": null, "sumber": null, "dom_sls": null, "periode": "2025_1", "tingkat": null, "idsubsls": "3506150009100200", "nm_gedung": null, "wil_campur": null, "iddesa": "3506150009", "kdsubsls": "00" }, "geometry": { "type": "MultiPolygon", "coordinates": [ [ [ [ 112.169946302000085, -7.656764332999956 ], [ 112.169940609000037, -7.656763782999974 ], [ 112.1698589, -7.657464688999937 ], [ 112.169745360000093, -7.658047196999973 ], [ 112.169735061000097, -7.658045265999931 ], [ 112.169519195000021, -7.659368392999966 ], [ 112.169493765000084, -7.659361538999974 ], [ 112.169493536, -7.659362847999944 ], [ 112.16680546300006, -7.658837035999966 ], [ 112.166781560000118, -7.658914720999974 ], [ 112.166781262000086, -7.658914599999946 ], [ 112.166772950000109, -7.658911209999928 ], [ 112.165804340000022, -7.658516159999976 ], [ 112.165829630000076, -7.658358079999971 ], [ 112.165399630000024, -7.657748069999968 ], [ 112.16537578000009, -7.657616879999978 ], [ 112.165369731000055, -7.65761406699994 ], [ 112.16546323700004, -7.657113596999977 ], [ 112.16546719400003, -7.657094510999968 ], [ 112.165550187, -7.656694151999943 ], [ 112.16555388200004, -7.656676328999936 ], [ 112.165587076000065, -7.656576746999974 ], [ 112.165578139000104, -7.656529508999938 ], [ 112.165643251, -7.656352047999974 ], [ 112.165989235000097, -7.656491207999977 ], [ 112.166130949000035, -7.656515464999927 ], [ 112.166521618000047, -7.656581853999967 ], [ 112.166682481000066, -7.656597173999955 ], [ 112.167540421000012, -7.656830808999928 ], [ 112.1681213170001, -7.65699294999996 ], [ 112.168180045000099, -7.656994225999938 ], [ 112.168228560000102, -7.656990395999969 ], [ 112.168347292000021, -7.656879323999931 ], [ 112.168414957000095, -7.656832404999932 ], [ 112.168522200000098, -7.656769846999964 ], [ 112.168554117000099, -7.656739205999941 ], [ 112.168706044000032, -7.656540360999941 ], [ 112.168833714000016, -7.656328428999927 ], [ 112.168863078000072, -7.656302895999943 ], [ 112.168898825000042, -7.656288851999932 ], [ 112.170033347000071, -7.65621069599996 ], [ 112.17002487100001, -7.656249273999947 ], [ 112.169946302000085, -7.656764332999956 ] ] ] ] } },
{ "type": "Feature", "properties": { "fid": 6979, "kk": null, "gid": 0.0, "bstt": null, "luas": 120912.66493254951, "bsbtt": null, "idsls": "35061500091003", "kdkab": "06", "kdkec": "150", "kdsls": "1003", "nmkab": "KEDIRI", "nmkec": "KUNJANG", "nmsls": "PERSAWAHAN PLOSOREJO", "bstt_k": null, "kddesa": "009", "kdprov": "35", "khusus": null, "muatan": null, "nmdesa": "KUNJANG", "nmprov": "JAWA TIMUR", "posisi": null, "rw_dki": null, "segmen": null, "subsls": null, "sumber": null, "dom_sls": null, "periode": "2025_1", "tingkat": null, "idsubsls": "3506150009100300", "nm_gedung": null, "wil_campur": null, "iddesa": "3506150009", "kdsubsls": "00" }, "geometry": { "type": "MultiPolygon", "coordinates": [ [ [ [ 112.171570768000038, -7.658526550999966 ], [ 112.171570059000032, -7.658528772999944 ], [ 112.171351205000065, -7.658471343999963 ], [ 112.171397319000107, -7.658306988999925 ], [ 112.171325824000064, -7.658282730999929 ], [ 112.17133603700006, -7.658241876999966 ], [ 112.171341144000053, -7.658179956999959 ], [ 112.17115474600007, -7.658127931999957 ], [ 112.171241562000091, -7.65774747699993 ], [ 112.17081983300011, -7.657662125999934 ], [ 112.170785781000063, -7.656845490999956 ], [ 112.169946302000085, -7.656764332999956 ], [ 112.17002487100001, -7.656249273999947 ], [ 112.170033347000071, -7.65621069599996 ], [ 112.170124453000085, -7.655796046999967 ], [ 112.170231695000098, -7.655504960999963 ], [ 112.170553423000115, -7.654535948999978 ], [ 112.170903237000061, -7.653456501999926 ], [ 112.170992542000022, -7.653194642999949 ], [ 112.171052253000084, -7.653019557999926 ], [ 112.171053887000085, -7.653014765999956 ], [ 112.171615634000091, -7.653244570999959 ], [ 112.171814798000014, -7.653336492999927 ], [ 112.172121205000053, -7.653494802999944 ], [ 112.172437826000078, -7.65369396799997 ], [ 112.172838716000115, -7.653882039999928 ], [ 112.172838460000094, -7.653882729999964 ], [ 112.172958540000081, -7.653940839999962 ], [ 112.173117540000021, -7.654009899999949 ], [ 112.173118, -7.65400958999993 ], [ 112.173124180000059, -7.654012559999956 ], [ 112.173210980000022, -7.654054289999976 ], [ 112.173212929000101, -7.654055227999947 ], [ 112.173214180000059, -7.654055829999947 ], [ 112.173049180000021, -7.654553779999958 ], [ 112.173041500000068, -7.654609249999965 ], [ 112.173028270000032, -7.654810479999981 ], [ 112.172969190000117, -7.655337299999928 ], [ 112.172932390000028, -7.655692709999926 ], [ 112.172896560000027, -7.655980329999977 ], [ 112.172853950000103, -7.655979359999947 ], [ 112.17285182, -7.655978019999964 ], [ 112.17285168, -7.655979069999944 ], [ 112.172774540000091, -7.655987109999955 ], [ 112.172635090000085, -7.655987109999955 ], [ 112.172553740000012, -7.656000669999969 ], [ 112.172408480000058, -7.656014219999975 ], [ 112.17218962000004, -7.656004539999969 ], [ 112.172183810000092, -7.656091699999934 ], [ 112.172133450000047, -7.656573969999954 ], [ 112.172129570000038, -7.656845129999965 ], [ 112.172153700000081, -7.656949659999952 ], [ 112.171916678000116, -7.658235868999952 ], [ 112.172005178000063, -7.65831650299998 ], [ 112.171844232000012, -7.658620369999937 ], [ 112.171690610000041, -7.658565029999977 ], [ 112.171607157000039, -7.65853823499998 ], [ 112.171573355000078, -7.658527381999932 ], [ 112.171570768000038, -7.658526550999966 ] ] ] ] } }
]
}
